; 5AxisSclicer R04 Rotary Around Part
; reference XYZAC profile; offline simulation only
G21 ; millimetres
G90 ; absolute axes
M82 ; absolute extrusion
G92 E0 ; known initial extrusion position
G93 ; inverse-time coordinated motion
; R04 POINT 1 point-0000001 travel
G1 A-90.000000 C-80.000000 X271.654309 Y255.000000 Z231.110935 F60.000000
; R04 EVENT event-0000001 safe_approach
; R04 POINT 2 point-0000002 approach
G1 A-90.000000 C-80.000000 X271.654309 Y255.000000 Z230.110935 F120.000000
; R04 EVENT event-0000002 index_start
; R04 EVENT event-0000003 prime
G94 ; extrusion actuator feed
G1 E1.0 F120.000000
G93 ; resume inverse-time motion
; R04 POINT 3 point-0000003 deposition
G1 A-90.000000 C-85.000000 X251.785274 Y255.000000 Z252.964801 E1.05222832171843949 F68.754935
; R04 POINT 4 point-0000004 deposition
G1 A-90.000000 C-90.000000 X230.000000 Y255.000000 Z274.000000 E1.104456643436879084 F68.754935
; R04 POINT 5 point-0000005 deposition
G1 A-90.000000 C-95.000000 X206.464287 Y255.000000 Z293.056442 E1.156684965155318678 F68.754935
; R04 POINT 6 point-0000006 deposition
G1 A-90.000000 C-100.000000 X181.357257 Y255.000000 Z309.989097 E1.208913286873758328 F68.754935
; R04 POINT 7 point-0000007 deposition
G1 A-90.000000 C-105.000000 X154.869988 Y255.000000 Z324.669095 E1.261141608592197728 F68.754935
; R04 POINT 8 point-0000008 deposition
G1 A-90.000000 C-110.000000 X127.204066 Y255.000000 Z336.984714 E1.313369930310637338 F68.754935
; R04 EVENT event-0000004 index_end
; R04 EVENT event-0000005 retract
G94 ; extrusion actuator feed
G1 E0.313369930310637338 F120.000000
G93 ; resume inverse-time motion
; R04 EVENT event-0000006 safe_depart
; R04 POINT 9 point-0000009 depart
G1 A-90.000000 C-110.000000 X127.204066 Y255.000000 Z337.984714 F120.000000
; R04 POINT 10 point-0000010 travel
G1 A-90.000000 C-110.000000 X127.204066 Y255.800000 Z337.984714 F150.000000
; R04 EVENT event-0000007 operation_change
; R04 EVENT event-0000008 safe_approach
; R04 POINT 11 point-0000011 approach
G1 A-90.000000 C-110.000000 X127.204066 Y255.800000 Z336.984714 F120.000000
; R04 EVENT event-0000009 index_start
; R04 EVENT event-0000010 prime
G94 ; extrusion actuator feed
G1 E1.313369930310637338 F120.000000
G93 ; resume inverse-time motion
; R04 POINT 12 point-0000012 deposition
G1 A-90.000000 C-105.000000 X154.869988 Y255.800000 Z324.669095 E1.365598252029076948 F68.754935
; R04 POINT 13 point-0000013 deposition
G1 A-90.000000 C-100.000000 X181.357257 Y255.800000 Z309.989097 E1.417826573747516348 F68.754935
; R04 POINT 14 point-0000014 deposition
G1 A-90.000000 C-95.000000 X206.464287 Y255.800000 Z293.056442 E1.470054895465955998 F68.754935
; R04 POINT 15 point-0000015 deposition
G1 A-90.000000 C-90.000000 X230.000000 Y255.800000 Z274.000000 E1.522283217184395592 F68.754935
; R04 POINT 16 point-0000016 deposition
G1 A-90.000000 C-85.000000 X251.785274 Y255.800000 Z252.964801 E1.574511538902835186 F68.754935
; R04 POINT 17 point-0000017 deposition
G1 A-90.000000 C-80.000000 X271.654309 Y255.800000 Z230.110935 E1.626739860621274676 F68.754935
; R04 EVENT event-0000011 index_end
; R04 EVENT event-0000012 retract
G94 ; extrusion actuator feed
G1 E0.626739860621274676 F120.000000
G93 ; resume inverse-time motion
; R04 EVENT event-0000013 safe_depart
; R04 POINT 18 point-0000018 depart
G1 A-90.000000 C-80.000000 X271.654309 Y255.800000 Z231.110935 F120.000000
; R04 POINT 19 point-0000019 travel
G1 A-90.000000 C-80.000000 X271.654309 Y256.600000 Z231.110935 F150.000000
; R04 EVENT event-0000014 operation_change
; R04 EVENT event-0000015 safe_approach
; R04 POINT 20 point-0000020 approach
G1 A-90.000000 C-80.000000 X271.654309 Y256.600000 Z230.110935 F120.000000
; R04 EVENT event-0000016 index_start
; R04 EVENT event-0000017 prime
G94 ; extrusion actuator feed
G1 E1.626739860621274676 F120.000000
G93 ; resume inverse-time motion
; R04 POINT 21 point-0000021 deposition
G1 A-90.000000 C-85.000000 X251.785274 Y256.600000 Z252.964801 E1.678968182339714166 F68.754935
; R04 POINT 22 point-0000022 deposition
G1 A-90.000000 C-90.000000 X230.000000 Y256.600000 Z274.000000 E1.731196504058153760 F68.754935
; R04 POINT 23 point-0000023 deposition
G1 A-90.000000 C-95.000000 X206.464287 Y256.600000 Z293.056442 E1.783424825776593354 F68.754935
; R04 POINT 24 point-0000024 deposition
G1 A-90.000000 C-100.000000 X181.357257 Y256.600000 Z309.989097 E1.835653147495033004 F68.754935
; R04 POINT 25 point-0000025 deposition
G1 A-90.000000 C-105.000000 X154.869988 Y256.600000 Z324.669095 E1.887881469213472404 F68.754935
; R04 POINT 26 point-0000026 deposition
G1 A-90.000000 C-110.000000 X127.204066 Y256.600000 Z336.984714 E1.940109790931912014 F68.754935
; R04 EVENT event-0000018 index_end
; R04 EVENT event-0000019 retract
G94 ; extrusion actuator feed
G1 E0.940109790931912014 F120.000000
G93 ; resume inverse-time motion
; R04 EVENT event-0000020 safe_depart
; R04 POINT 27 point-0000027 depart
G1 A-90.000000 C-110.000000 X127.204066 Y256.600000 Z337.984714 F120.000000
; R04 POINT 28 point-0000028 travel
G1 A-90.000000 C-115.000000 X98.570043 Y256.520000 Z347.842225 F68.754935
; R04 POINT 29 point-0000029 travel
G1 A-90.000000 C-120.000000 X69.185843 Y256.440000 Z355.166605 F68.754935
; R04 POINT 30 point-0000030 travel
G1 A-90.000000 C-125.000000 X39.275097 Y256.360000 Z359.902112 F68.754935
; R04 POINT 31 point-0000031 travel
G1 A-90.000000 C-130.000000 X9.065443 Y256.280000 Z362.012705 F68.754935
; R04 POINT 32 point-0000032 travel
G1 A-90.000000 C-135.000000 X-21.213203 Y256.200000 Z361.482323 F68.754935
; R04 POINT 33 point-0000033 travel
G1 A-90.000000 C-140.000000 X-51.330405 Y256.120000 Z358.315000 F68.754935
; R04 POINT 34 point-0000034 travel
G1 A-90.000000 C-145.000000 X-81.056951 Y256.040000 Z352.534844 F68.754935
; R04 POINT 35 point-0000035 travel
G1 A-90.000000 C-150.000000 X-110.166605 Y255.960000 Z344.185843 F68.754935
; R04 POINT 36 point-0000036 travel
G1 A-90.000000 C-155.000000 X-138.437824 Y255.880000 Z333.331539 F68.754935
; R04 POINT 37 point-0000037 travel
G1 A-90.000000 C-160.000000 X-165.655448 Y255.800000 Z320.054540 F68.754935
; R04 POINT 38 point-0000038 travel
G1 A-90.000000 C-165.000000 X-191.612334 Y255.720000 Z304.455892 F68.754935
; R04 POINT 39 point-0000039 travel
G1 A-90.000000 C-170.000000 X-216.110935 Y255.640000 Z286.654309 F68.754935
; R04 POINT 40 point-0000040 travel
G1 A-90.000000 C-175.000000 X-238.964801 Y255.560000 Z266.785274 F68.754935
; R04 POINT 41 point-0000041 travel
G1 A-90.000000 C-180.000000 X-260.000000 Y255.480000 Z245.000000 F68.754935
; R04 POINT 42 point-0000042 travel
G1 A-90.000000 C-185.000000 X-279.056442 Y255.400000 Z221.464287 F68.754935
; R04 POINT 43 point-0000043 travel
G1 A-90.000000 C-190.000000 X-295.989097 Y255.320000 Z196.357257 F68.754935
; R04 POINT 44 point-0000044 travel
G1 A-90.000000 C-195.000000 X-310.669095 Y255.240000 Z169.869988 F68.754935
; R04 POINT 45 point-0000045 travel
G1 A-90.000000 C-200.000000 X-322.984714 Y255.160000 Z142.204066 F68.754935
; R04 POINT 46 point-0000046 travel
G1 A-90.000000 C-205.000000 X-332.842225 Y255.080000 Z113.570043 F68.754935
; R04 POINT 47 point-0000047 travel
G1 A-90.000000 C-210.000000 X-340.166605 Y255.000000 Z84.185843 F68.754935
; R04 EVENT event-0000021 operation_change
; R04 EVENT event-0000022 safe_approach
; R04 POINT 48 point-0000048 approach
G1 A-90.000000 C-210.000000 X-340.166605 Y255.000000 Z83.185843 F120.000000
; R04 EVENT event-0000023 index_start
; R04 EVENT event-0000024 prime
G94 ; extrusion actuator feed
G1 E1.940109790931912014 F120.000000
G93 ; resume inverse-time motion
; R04 POINT 49 point-0000049 deposition
G1 A-90.000000 C-215.000000 X-344.902112 Y255.000000 Z53.275097 E1.992338112650351574 F68.754935
; R04 POINT 50 point-0000050 deposition
G1 A-90.000000 C-220.000000 X-347.012705 Y255.000000 Z23.065443 E2.044566434368791098 F68.754935
; R04 POINT 51 point-0000051 deposition
G1 A-90.000000 C-225.000000 X-346.482323 Y255.000000 Z-7.213203 E2.096794756087230692 F68.754935
; R04 POINT 52 point-0000052 deposition
G1 A-90.000000 C-230.000000 X-343.315000 Y255.000000 Z-37.330405 E2.149023077805670282 F68.754935
; R04 POINT 53 point-0000053 deposition
G1 A-90.000000 C-235.000000 X-337.534844 Y255.000000 Z-67.056951 E2.201251399524109802 F68.754935
; R04 POINT 54 point-0000054 deposition
G1 A-90.000000 C-240.000000 X-329.185843 Y255.000000 Z-96.166605 E2.253479721242549326 F68.754935
; R04 POINT 55 point-0000055 deposition
G1 A-90.000000 C-245.000000 X-318.331539 Y255.000000 Z-124.437824 E2.305708042960988886 F68.754935
; R04 POINT 56 point-0000056 deposition
G1 A-90.000000 C-250.000000 X-305.054540 Y255.000000 Z-151.655448 E2.357936364679428406 F68.754935
; R04 POINT 57 point-0000057 deposition
G1 A-90.000000 C-255.000000 X-289.455892 Y255.000000 Z-177.612334 E2.410164686397868000 F68.754935
; R04 POINT 58 point-0000058 deposition
G1 A-90.000000 C-260.000000 X-271.654309 Y255.000000 Z-202.110935 E2.462393008116308655 F68.754935
; R04 POINT 59 point-0000059 deposition
G1 A-90.000000 C-265.000000 X-251.785274 Y255.000000 Z-224.964801 E2.514621329834748135 F68.754935
; R04 POINT 60 point-0000060 deposition
G1 A-90.000000 C-270.000000 X-230.000000 Y255.000000 Z-246.000000 E2.566849651553187729 F68.754935
; R04 POINT 61 point-0000061 deposition
G1 A-90.000000 C-275.000000 X-206.464287 Y255.000000 Z-265.056442 E2.619077973271627323 F68.754935
; R04 POINT 62 point-0000062 deposition
G1 A-90.000000 C-280.000000 X-181.357257 Y255.000000 Z-281.989097 E2.671306294990066803 F68.754935
; R04 POINT 63 point-0000063 deposition
G1 A-90.000000 C-285.000000 X-154.869988 Y255.000000 Z-296.669095 E2.723534616708506393 F68.754935
; R04 POINT 64 point-0000064 deposition
G1 A-90.000000 C-290.000000 X-127.204066 Y255.000000 Z-308.984714 E2.775762938426946003 F68.754935
; R04 POINT 65 point-0000065 deposition
G1 A-90.000000 C-295.000000 X-98.570043 Y255.000000 Z-318.842225 E2.827991260145385483 F68.754935
; R04 POINT 66 point-0000066 deposition
G1 A-90.000000 C-300.000000 X-69.185843 Y255.000000 Z-326.166605 E2.880219581863825003 F68.754935
; R04 EVENT event-0000025 index_end
; R04 EVENT event-0000026 retract
G94 ; extrusion actuator feed
G1 E1.880219581863825003 F120.000000
G93 ; resume inverse-time motion
; R04 EVENT event-0000027 safe_depart
; R04 POINT 67 point-0000067 depart
G1 A-90.000000 C-300.000000 X-69.185843 Y255.000000 Z-325.166605 F120.000000
; R04 POINT 68 point-0000068 travel
G1 A-90.000000 C-300.000000 X-69.185843 Y255.800000 Z-325.166605 F150.000000
; R04 EVENT event-0000028 operation_change
; R04 EVENT event-0000029 safe_approach
; R04 POINT 69 point-0000069 approach
G1 A-90.000000 C-300.000000 X-69.185843 Y255.800000 Z-326.166605 F120.000000
; R04 EVENT event-0000030 index_start
; R04 EVENT event-0000031 prime
G94 ; extrusion actuator feed
G1 E2.880219581863825003 F120.000000
G93 ; resume inverse-time motion
; R04 POINT 70 point-0000070 deposition
G1 A-90.000000 C-295.000000 X-98.570043 Y255.800000 Z-318.842225 E2.932447903582264523 F68.754935
; R04 POINT 71 point-0000071 deposition
G1 A-90.000000 C-290.000000 X-127.204066 Y255.800000 Z-308.984714 E2.984676225300704003 F68.754935
; R04 POINT 72 point-0000072 deposition
G1 A-90.000000 C-285.000000 X-154.869988 Y255.800000 Z-296.669095 E3.036904547019143613 F68.754935
; R04 POINT 73 point-0000073 deposition
G1 A-90.000000 C-280.000000 X-181.357257 Y255.800000 Z-281.989097 E3.089132868737583203 F68.754935
; R04 POINT 74 point-0000074 deposition
G1 A-90.000000 C-275.000000 X-206.464287 Y255.800000 Z-265.056442 E3.141361190456022683 F68.754935
; R04 POINT 75 point-0000075 deposition
G1 A-90.000000 C-270.000000 X-230.000000 Y255.800000 Z-246.000000 E3.193589512174462277 F68.754935
; R04 POINT 76 point-0000076 deposition
G1 A-90.000000 C-265.000000 X-251.785274 Y255.800000 Z-224.964801 E3.245817833892901871 F68.754935
; R04 POINT 77 point-0000077 deposition
G1 A-90.000000 C-260.000000 X-271.654309 Y255.800000 Z-202.110935 E3.298046155611341351 F68.754935
; R04 POINT 78 point-0000078 deposition
G1 A-90.000000 C-255.000000 X-289.455892 Y255.800000 Z-177.612334 E3.350274477329782006 F68.754935
; R04 POINT 79 point-0000079 deposition
G1 A-90.000000 C-250.000000 X-305.054540 Y255.800000 Z-151.655448 E3.402502799048221600 F68.754935
; R04 POINT 80 point-0000080 deposition
G1 A-90.000000 C-245.000000 X-318.331539 Y255.800000 Z-124.437824 E3.454731120766661120 F68.754935
; R04 POINT 81 point-0000081 deposition
G1 A-90.000000 C-240.000000 X-329.185843 Y255.800000 Z-96.166605 E3.506959442485100680 F68.754935
; R04 POINT 82 point-0000082 deposition
G1 A-90.000000 C-235.000000 X-337.534844 Y255.800000 Z-67.056951 E3.559187764203540204 F68.754935
; R04 POINT 83 point-0000083 deposition
G1 A-90.000000 C-230.000000 X-343.315000 Y255.800000 Z-37.330405 E3.611416085921979724 F68.754935
; R04 POINT 84 point-0000084 deposition
G1 A-90.000000 C-225.000000 X-346.482323 Y255.800000 Z-7.213203 E3.663644407640419314 F68.754935
; R04 POINT 85 point-0000085 deposition
G1 A-90.000000 C-220.000000 X-347.012705 Y255.800000 Z23.065443 E3.715872729358858908 F68.754935
; R04 POINT 86 point-0000086 deposition
G1 A-90.000000 C-215.000000 X-344.902112 Y255.800000 Z53.275097 E3.768101051077298432 F68.754935
; R04 POINT 87 point-0000087 deposition
G1 A-90.000000 C-210.000000 X-340.166605 Y255.800000 Z83.185843 E3.820329372795737992 F68.754935
; R04 EVENT event-0000032 index_end
; R04 EVENT event-0000033 retract
G94 ; extrusion actuator feed
G1 E2.820329372795737992 F120.000000
G93 ; resume inverse-time motion
; R04 EVENT event-0000034 safe_depart
; R04 POINT 88 point-0000088 depart
G1 A-90.000000 C-210.000000 X-340.166605 Y255.800000 Z84.185843 F120.000000
; R04 POINT 89 point-0000089 travel
G1 A-90.000000 C-210.000000 X-340.166605 Y256.600000 Z84.185843 F150.000000
; R04 EVENT event-0000035 operation_change
; R04 EVENT event-0000036 safe_approach
; R04 POINT 90 point-0000090 approach
G1 A-90.000000 C-210.000000 X-340.166605 Y256.600000 Z83.185843 F120.000000
; R04 EVENT event-0000037 index_start
; R04 EVENT event-0000038 prime
G94 ; extrusion actuator feed
G1 E3.820329372795737992 F120.000000
G93 ; resume inverse-time motion
; R04 POINT 91 point-0000091 deposition
G1 A-90.000000 C-215.000000 X-344.902112 Y256.600000 Z53.275097 E3.872557694514177552 F68.754935
; R04 POINT 92 point-0000092 deposition
G1 A-90.000000 C-220.000000 X-347.012705 Y256.600000 Z23.065443 E3.924786016232617076 F68.754935
; R04 POINT 93 point-0000093 deposition
G1 A-90.000000 C-225.000000 X-346.482323 Y256.600000 Z-7.213203 E3.977014337951056670 F68.754935
; R04 POINT 94 point-0000094 deposition
G1 A-90.000000 C-230.000000 X-343.315000 Y256.600000 Z-37.330405 E4.029242659669496260 F68.754935
; R04 POINT 95 point-0000095 deposition
G1 A-90.000000 C-235.000000 X-337.534844 Y256.600000 Z-67.056951 E4.081470981387935780 F68.754935
; R04 POINT 96 point-0000096 deposition
G1 A-90.000000 C-240.000000 X-329.185843 Y256.600000 Z-96.166605 E4.133699303106375304 F68.754935
; R04 POINT 97 point-0000097 deposition
G1 A-90.000000 C-245.000000 X-318.331539 Y256.600000 Z-124.437824 E4.185927624824814864 F68.754935
; R04 POINT 98 point-0000098 deposition
G1 A-90.000000 C-250.000000 X-305.054540 Y256.600000 Z-151.655448 E4.238155946543254384 F68.754935
; R04 POINT 99 point-0000099 deposition
G1 A-90.000000 C-255.000000 X-289.455892 Y256.600000 Z-177.612334 E4.290384268261693978 F68.754935
; R04 POINT 100 point-0000100 deposition
G1 A-90.000000 C-260.000000 X-271.654309 Y256.600000 Z-202.110935 E4.342612589980134633 F68.754935
; R04 POINT 101 point-0000101 deposition
G1 A-90.000000 C-265.000000 X-251.785274 Y256.600000 Z-224.964801 E4.394840911698574113 F68.754935
; R04 POINT 102 point-0000102 deposition
G1 A-90.000000 C-270.000000 X-230.000000 Y256.600000 Z-246.000000 E4.447069233417013707 F68.754935
; R04 POINT 103 point-0000103 deposition
G1 A-90.000000 C-275.000000 X-206.464287 Y256.600000 Z-265.056442 E4.499297555135453301 F68.754935
; R04 POINT 104 point-0000104 deposition
G1 A-90.000000 C-280.000000 X-181.357257 Y256.600000 Z-281.989097 E4.551525876853892781 F68.754935
; R04 POINT 105 point-0000105 deposition
G1 A-90.000000 C-285.000000 X-154.869988 Y256.600000 Z-296.669095 E4.603754198572332371 F68.754935
; R04 POINT 106 point-0000106 deposition
G1 A-90.000000 C-290.000000 X-127.204066 Y256.600000 Z-308.984714 E4.655982520290771981 F68.754935
; R04 POINT 107 point-0000107 deposition
G1 A-90.000000 C-295.000000 X-98.570043 Y256.600000 Z-318.842225 E4.708210842009211461 F68.754935
; R04 POINT 108 point-0000108 deposition
G1 A-90.000000 C-300.000000 X-69.185843 Y256.600000 Z-326.166605 E4.760439163727650981 F68.754935
; R04 EVENT event-0000039 index_end
; R04 EVENT event-0000040 retract
G94 ; extrusion actuator feed
G1 E3.760439163727650981 F120.000000
G93 ; resume inverse-time motion
; R04 EVENT event-0000041 safe_depart
; R04 POINT 109 point-0000109 depart
G1 A-90.000000 C-300.000000 X-69.185843 Y256.600000 Z-325.166605 F120.000000
; R04 EVENT event-0000042 finish
G94 ; restore units-per-minute mode
M400 ; finish queued motion
M2
