; 5AxisSclicer P07 P07 audit
; reference XYZAC profile; offline simulation only
G21 ; millimetres
G90 ; absolute axes
M82 ; absolute extrusion
; P07 POINT 1 point-0000001 approach
G1 A0.000000 C0.000000 X250.300000 Y250.800000 Z252.500000 F100.000
; P07 EVENT event-0000001 prime
G1 E1.000000 F100.000
; P07 POINT 2 point-0000002 deposition
G1 A0.000000 C0.000000 X261.700000 Y250.800000 Z252.500000 E2.421871 F100.000
; P07 EVENT event-0000002 retract
G1 E1.421871 F100.000
; P07 POINT 3 point-0000003 travel
G1 A0.000000 C0.000000 X253.225464 Y251.800000 Z252.500000 F100.000
; P07 EVENT event-0000003 prime
G1 E2.421871 F100.000
; P07 POINT 4 point-0000004 deposition
G1 A0.000000 C0.000000 X250.300000 Y251.800000 Z252.500000 E2.786751 F100.000
; P07 EVENT event-0000004 retract
G1 E1.786751 F100.000
; P07 POINT 5 point-0000005 travel
G1 A0.000000 C0.000000 X258.774536 Y251.800000 Z252.500000 F100.000
; P07 EVENT event-0000005 prime
G1 E2.786751 F100.000
; P07 POINT 6 point-0000006 deposition
G1 A0.000000 C0.000000 X261.700000 Y251.800000 Z252.500000 E3.151631 F100.000
; P07 EVENT event-0000006 retract
G1 E2.151631 F100.000
; P07 POINT 7 point-0000007 travel
G1 A0.000000 C0.000000 X253.200000 Y252.800000 Z252.500000 F100.000
; P07 EVENT event-0000007 prime
G1 E3.151631 F100.000
; P07 POINT 8 point-0000008 deposition
G1 A0.000000 C0.000000 X250.300000 Y252.800000 Z252.500000 E3.513335 F100.000
; P07 EVENT event-0000008 retract
G1 E2.513335 F100.000
; P07 POINT 9 point-0000009 travel
G1 A0.000000 C0.000000 X258.800000 Y252.800000 Z252.500000 F100.000
; P07 EVENT event-0000009 prime
G1 E3.513335 F100.000
; P07 POINT 10 point-0000010 deposition
G1 A0.000000 C0.000000 X261.700000 Y252.800000 Z252.500000 E3.875039 F100.000
; P07 EVENT event-0000010 retract
G1 E2.875039 F100.000
; P07 POINT 11 point-0000011 travel
G1 A0.000000 C0.000000 X253.200000 Y253.800000 Z252.500000 F100.000
; P07 EVENT event-0000011 prime
G1 E3.875039 F100.000
; P07 POINT 12 point-0000012 deposition
G1 A0.000000 C0.000000 X250.300000 Y253.800000 Z252.500000 E4.236743 F100.000
; P07 EVENT event-0000012 retract
G1 E3.236743 F100.000
; P07 POINT 13 point-0000013 travel
G1 A0.000000 C0.000000 X258.800000 Y253.800000 Z252.500000 F100.000
; P07 EVENT event-0000013 prime
G1 E4.236743 F100.000
; P07 POINT 14 point-0000014 deposition
G1 A0.000000 C0.000000 X261.700000 Y253.800000 Z252.500000 E4.598446 F100.000
; P07 EVENT event-0000014 retract
G1 E3.598446 F100.000
; P07 POINT 15 point-0000015 travel
G1 A0.000000 C0.000000 X253.200000 Y254.800000 Z252.500000 F100.000
; P07 EVENT event-0000015 prime
G1 E4.598446 F100.000
; P07 POINT 16 point-0000016 deposition
G1 A0.000000 C0.000000 X250.300000 Y254.800000 Z252.500000 E4.960150 F100.000
; P07 EVENT event-0000016 retract
G1 E3.960150 F100.000
; P07 POINT 17 point-0000017 travel
G1 A0.000000 C0.000000 X258.800000 Y254.800000 Z252.500000 F100.000
; P07 EVENT event-0000017 prime
G1 E4.960150 F100.000
; P07 POINT 18 point-0000018 deposition
G1 A0.000000 C0.000000 X261.700000 Y254.800000 Z252.500000 E5.321854 F100.000
; P07 EVENT event-0000018 retract
G1 E4.321854 F100.000
; P07 POINT 19 point-0000019 travel
G1 A0.000000 C0.000000 X253.200000 Y255.800000 Z252.500000 F100.000
; P07 EVENT event-0000019 prime
G1 E5.321854 F100.000
; P07 POINT 20 point-0000020 deposition
G1 A0.000000 C0.000000 X250.300000 Y255.800000 Z252.500000 E5.683558 F100.000
; P07 EVENT event-0000020 retract
G1 E4.683558 F100.000
; P07 POINT 21 point-0000021 travel
G1 A0.000000 C0.000000 X258.800000 Y255.800000 Z252.500000 F100.000
; P07 EVENT event-0000021 prime
G1 E5.683558 F100.000
; P07 POINT 22 point-0000022 deposition
G1 A0.000000 C0.000000 X261.700000 Y255.800000 Z252.500000 E6.045262 F100.000
; P07 EVENT event-0000022 retract
G1 E5.045262 F100.000
; P07 POINT 23 point-0000023 travel
G1 A0.000000 C0.000000 X253.200000 Y256.800000 Z252.500000 F100.000
; P07 EVENT event-0000023 prime
G1 E6.045262 F100.000
; P07 POINT 24 point-0000024 deposition
G1 A0.000000 C0.000000 X250.300000 Y256.800000 Z252.500000 E6.406966 F100.000
; P07 EVENT event-0000024 retract
G1 E5.406966 F100.000
; P07 POINT 25 point-0000025 travel
G1 A0.000000 C0.000000 X258.800000 Y256.800000 Z252.500000 F100.000
; P07 EVENT event-0000025 prime
G1 E6.406966 F100.000
; P07 POINT 26 point-0000026 deposition
G1 A0.000000 C0.000000 X261.700000 Y256.800000 Z252.500000 E6.768670 F100.000
; P07 EVENT event-0000026 retract
G1 E5.768670 F100.000
; P07 POINT 27 point-0000027 travel
G1 A0.000000 C0.000000 X253.200000 Y257.800000 Z252.500000 F100.000
; P07 EVENT event-0000027 prime
G1 E6.768670 F100.000
; P07 POINT 28 point-0000028 deposition
G1 A0.000000 C0.000000 X250.300000 Y257.800000 Z252.500000 E7.130374 F100.000
; P07 EVENT event-0000028 retract
G1 E6.130374 F100.000
; P07 POINT 29 point-0000029 travel
G1 A0.000000 C0.000000 X258.800000 Y257.800000 Z252.500000 F100.000
; P07 EVENT event-0000029 prime
G1 E7.130374 F100.000
; P07 POINT 30 point-0000030 deposition
G1 A0.000000 C0.000000 X261.700000 Y257.800000 Z252.500000 E7.492078 F100.000
; P07 EVENT event-0000030 retract
G1 E6.492078 F100.000
; P07 POINT 31 point-0000031 travel
G1 A0.000000 C0.000000 X254.000000 Y258.800000 Z252.500000 F100.000
; P07 EVENT event-0000031 prime
G1 E7.492078 F100.000
; P07 POINT 32 point-0000032 deposition
G1 A0.000000 C0.000000 X250.300000 Y258.800000 Z252.500000 E7.953563 F100.000
; P07 EVENT event-0000032 retract
G1 E6.953563 F100.000
; P07 POINT 33 point-0000033 travel
G1 A0.000000 C0.000000 X258.000000 Y258.800000 Z252.500000 F100.000
; P07 EVENT event-0000033 prime
G1 E7.953563 F100.000
; P07 POINT 34 point-0000034 deposition
G1 A0.000000 C0.000000 X261.700000 Y258.800000 Z252.500000 E8.415047 F100.000
; P07 EVENT event-0000034 retract
G1 E7.415047 F100.000
; P07 POINT 35 point-0000035 travel
G1 A0.000000 C0.000000 X250.800000 Y250.300000 Z253.000000 F100.000
; P07 EVENT event-0000035 prime
G1 E8.415047 F100.000
; P07 POINT 36 point-0000036 deposition
G1 A0.000000 C0.000000 X250.800000 Y259.700000 Z253.000000 E9.587467 F100.000
; P07 EVENT event-0000036 retract
G1 E8.587467 F100.000
; P07 POINT 37 point-0000037 travel
G1 A0.000000 C0.000000 X251.800000 Y259.700000 Z253.000000 F100.000
; P07 EVENT event-0000037 prime
G1 E9.587467 F100.000
; P07 POINT 38 point-0000038 deposition
G1 A0.000000 C0.000000 X251.800000 Y250.300000 Z253.000000 E10.759887 F100.000
; P07 EVENT event-0000038 retract
G1 E9.759887 F100.000
; P07 POINT 39 point-0000039 travel
G1 A0.000000 C0.000000 X252.800000 Y250.300000 Z253.000000 F100.000
; P07 EVENT event-0000039 prime
G1 E10.759887 F100.000
; P07 POINT 40 point-0000040 deposition
G1 A0.000000 C0.000000 X252.800000 Y259.700000 Z253.000000 E11.932306 F100.000
; P07 EVENT event-0000040 retract
G1 E10.932306 F100.000
; P07 POINT 41 point-0000041 travel
G1 A0.000000 C0.000000 X253.800000 Y251.225464 Z253.000000 F100.000
; P07 EVENT event-0000041 prime
G1 E11.932306 F100.000
; P07 POINT 42 point-0000042 deposition
G1 A0.000000 C0.000000 X253.800000 Y250.300000 Z253.000000 E12.047735 F100.000
; P07 EVENT event-0000042 retract
G1 E11.047735 F100.000
; P07 POINT 43 point-0000043 travel
G1 A0.000000 C0.000000 X253.800000 Y258.774536 Z253.000000 F100.000
; P07 EVENT event-0000043 prime
G1 E12.047735 F100.000
; P07 POINT 44 point-0000044 deposition
G1 A0.000000 C0.000000 X253.800000 Y259.700000 Z253.000000 E12.163164 F100.000
; P07 EVENT event-0000044 retract
G1 E11.163164 F100.000
; P07 POINT 45 point-0000045 travel
G1 A0.000000 C0.000000 X254.800000 Y251.200000 Z253.000000 F100.000
; P07 EVENT event-0000045 prime
G1 E12.163164 F100.000
; P07 POINT 46 point-0000046 deposition
G1 A0.000000 C0.000000 X254.800000 Y250.300000 Z253.000000 E12.275417 F100.000
; P07 EVENT event-0000046 retract
G1 E11.275417 F100.000
; P07 POINT 47 point-0000047 travel
G1 A0.000000 C0.000000 X254.800000 Y258.800000 Z253.000000 F100.000
; P07 EVENT event-0000047 prime
G1 E12.275417 F100.000
; P07 POINT 48 point-0000048 deposition
G1 A0.000000 C0.000000 X254.800000 Y259.700000 Z253.000000 E12.387670 F100.000
; P07 EVENT event-0000048 retract
G1 E11.387670 F100.000
; P07 POINT 49 point-0000049 travel
G1 A0.000000 C0.000000 X255.800000 Y251.200000 Z253.000000 F100.000
; P07 EVENT event-0000049 prime
G1 E12.387670 F100.000
; P07 POINT 50 point-0000050 deposition
G1 A0.000000 C0.000000 X255.800000 Y250.300000 Z253.000000 E12.499923 F100.000
; P07 EVENT event-0000050 retract
G1 E11.499923 F100.000
; P07 POINT 51 point-0000051 travel
G1 A0.000000 C0.000000 X255.800000 Y258.800000 Z253.000000 F100.000
; P07 EVENT event-0000051 prime
G1 E12.499923 F100.000
; P07 POINT 52 point-0000052 deposition
G1 A0.000000 C0.000000 X255.800000 Y259.700000 Z253.000000 E12.612176 F100.000
; P07 EVENT event-0000052 retract
G1 E11.612176 F100.000
; P07 POINT 53 point-0000053 travel
G1 A0.000000 C0.000000 X256.800000 Y251.200000 Z253.000000 F100.000
; P07 EVENT event-0000053 prime
G1 E12.612176 F100.000
; P07 POINT 54 point-0000054 deposition
G1 A0.000000 C0.000000 X256.800000 Y250.300000 Z253.000000 E12.724429 F100.000
; P07 EVENT event-0000054 retract
G1 E11.724429 F100.000
; P07 POINT 55 point-0000055 travel
G1 A0.000000 C0.000000 X256.800000 Y258.800000 Z253.000000 F100.000
; P07 EVENT event-0000055 prime
G1 E12.724429 F100.000
; P07 POINT 56 point-0000056 deposition
G1 A0.000000 C0.000000 X256.800000 Y259.700000 Z253.000000 E12.836682 F100.000
; P07 EVENT event-0000056 retract
G1 E11.836682 F100.000
; P07 POINT 57 point-0000057 travel
G1 A0.000000 C0.000000 X257.800000 Y251.200000 Z253.000000 F100.000
; P07 EVENT event-0000057 prime
G1 E12.836682 F100.000
; P07 POINT 58 point-0000058 deposition
G1 A0.000000 C0.000000 X257.800000 Y250.300000 Z253.000000 E12.948935 F100.000
; P07 EVENT event-0000058 retract
G1 E11.948935 F100.000
; P07 POINT 59 point-0000059 travel
G1 A0.000000 C0.000000 X257.800000 Y258.800000 Z253.000000 F100.000
; P07 EVENT event-0000059 prime
G1 E12.948935 F100.000
; P07 POINT 60 point-0000060 deposition
G1 A0.000000 C0.000000 X257.800000 Y259.700000 Z253.000000 E13.061188 F100.000
; P07 EVENT event-0000060 retract
G1 E12.061188 F100.000
; P07 POINT 61 point-0000061 travel
G1 A0.000000 C0.000000 X258.800000 Y259.700000 Z253.000000 F100.000
; P07 EVENT event-0000061 prime
G1 E13.061188 F100.000
; P07 POINT 62 point-0000062 deposition
G1 A0.000000 C0.000000 X258.800000 Y250.300000 Z253.000000 E14.233608 F100.000
; P07 EVENT event-0000062 retract
G1 E13.233608 F100.000
; P07 POINT 63 point-0000063 travel
G1 A0.000000 C0.000000 X259.800000 Y250.300000 Z253.000000 F100.000
; P07 EVENT event-0000063 prime
G1 E14.233608 F100.000
; P07 POINT 64 point-0000064 deposition
G1 A0.000000 C0.000000 X259.800000 Y259.700000 Z253.000000 E15.406027 F100.000
; P07 EVENT event-0000064 retract
G1 E14.406027 F100.000
; P07 POINT 65 point-0000065 travel
G1 A0.000000 C0.000000 X260.800000 Y259.700000 Z253.000000 F100.000
; P07 EVENT event-0000065 prime
G1 E15.406027 F100.000
; P07 POINT 66 point-0000066 deposition
G1 A0.000000 C0.000000 X260.800000 Y250.300000 Z253.000000 E16.578447 F100.000
; P07 EVENT event-0000066 retract
G1 E15.578447 F100.000
; P07 POINT 67 point-0000067 travel
G1 A0.000000 C0.000000 X250.300000 Y250.600000 Z253.500000 F100.000
; P07 EVENT event-0000067 prime
G1 E16.578447 F100.000
; P07 POINT 68 point-0000068 deposition
G1 A0.000000 C0.000000 X261.700000 Y250.600000 Z253.500000 E18.000318 F100.000
; P07 EVENT event-0000068 retract
G1 E17.000318 F100.000
; P07 POINT 69 point-0000069 travel
G1 A0.000000 C0.000000 X261.700000 Y251.200000 Z253.500000 F100.000
; P07 EVENT event-0000069 prime
G1 E18.000318 F100.000
; P07 POINT 70 point-0000070 deposition
G1 A0.000000 C0.000000 X250.300000 Y251.200000 Z253.500000 E19.422189 F100.000
; P07 EVENT event-0000070 retract
G1 E18.422189 F100.000
; P07 POINT 71 point-0000071 travel
G1 A0.000000 C0.000000 X250.300000 Y251.800000 Z253.500000 F100.000
; P07 EVENT event-0000071 prime
G1 E19.422189 F100.000
; P07 POINT 72 point-0000072 deposition
G1 A0.000000 C0.000000 X253.225464 Y251.800000 Z253.500000 E19.787068 F100.000
; P07 EVENT event-0000072 retract
G1 E18.787068 F100.000
; P07 POINT 73 point-0000073 travel
G1 A0.000000 C0.000000 X261.700000 Y251.800000 Z253.500000 F100.000
; P07 EVENT event-0000073 prime
G1 E19.787068 F100.000
; P07 POINT 74 point-0000074 deposition
G1 A0.000000 C0.000000 X258.774536 Y251.800000 Z253.500000 E20.151948 F100.000
; P07 EVENT event-0000074 retract
G1 E19.151948 F100.000
; P07 POINT 75 point-0000075 travel
G1 A0.000000 C0.000000 X250.300000 Y252.400000 Z253.500000 F100.000
; P07 EVENT event-0000075 prime
G1 E20.151948 F100.000
; P07 POINT 76 point-0000076 deposition
G1 A0.000000 C0.000000 X253.200000 Y252.400000 Z253.500000 E20.513652 F100.000
; P07 EVENT event-0000076 retract
G1 E19.513652 F100.000
; P07 POINT 77 point-0000077 travel
G1 A0.000000 C0.000000 X261.700000 Y252.400000 Z253.500000 F100.000
; P07 EVENT event-0000077 prime
G1 E20.513652 F100.000
; P07 POINT 78 point-0000078 deposition
G1 A0.000000 C0.000000 X258.800000 Y252.400000 Z253.500000 E20.875356 F100.000
; P07 EVENT event-0000078 retract
G1 E19.875356 F100.000
; P07 POINT 79 point-0000079 travel
G1 A0.000000 C0.000000 X250.300000 Y253.000000 Z253.500000 F100.000
; P07 EVENT event-0000079 prime
G1 E20.875356 F100.000
; P07 POINT 80 point-0000080 deposition
G1 A0.000000 C0.000000 X253.200000 Y253.000000 Z253.500000 E21.237060 F100.000
; P07 EVENT event-0000080 retract
G1 E20.237060 F100.000
; P07 POINT 81 point-0000081 travel
G1 A0.000000 C0.000000 X261.700000 Y253.000000 Z253.500000 F100.000
; P07 EVENT event-0000081 prime
G1 E21.237060 F100.000
; P07 POINT 82 point-0000082 deposition
G1 A0.000000 C0.000000 X258.800000 Y253.000000 Z253.500000 E21.598764 F100.000
; P07 EVENT event-0000082 retract
G1 E20.598764 F100.000
; P07 POINT 83 point-0000083 travel
G1 A0.000000 C0.000000 X250.300000 Y253.600000 Z253.500000 F100.000
; P07 EVENT event-0000083 prime
G1 E21.598764 F100.000
; P07 POINT 84 point-0000084 deposition
G1 A0.000000 C0.000000 X253.200000 Y253.600000 Z253.500000 E21.960468 F100.000
; P07 EVENT event-0000084 retract
G1 E20.960468 F100.000
; P07 POINT 85 point-0000085 travel
G1 A0.000000 C0.000000 X261.700000 Y253.600000 Z253.500000 F100.000
; P07 EVENT event-0000085 prime
G1 E21.960468 F100.000
; P07 POINT 86 point-0000086 deposition
G1 A0.000000 C0.000000 X258.800000 Y253.600000 Z253.500000 E22.322172 F100.000
; P07 EVENT event-0000086 retract
G1 E21.322172 F100.000
; P07 POINT 87 point-0000087 travel
G1 A0.000000 C0.000000 X250.300000 Y254.200000 Z253.500000 F100.000
; P07 EVENT event-0000087 prime
G1 E22.322172 F100.000
; P07 POINT 88 point-0000088 deposition
G1 A0.000000 C0.000000 X253.200000 Y254.200000 Z253.500000 E22.683876 F100.000
; P07 EVENT event-0000088 retract
G1 E21.683876 F100.000
; P07 POINT 89 point-0000089 travel
G1 A0.000000 C0.000000 X261.700000 Y254.200000 Z253.500000 F100.000
; P07 EVENT event-0000089 prime
G1 E22.683876 F100.000
; P07 POINT 90 point-0000090 deposition
G1 A0.000000 C0.000000 X258.800000 Y254.200000 Z253.500000 E23.045580 F100.000
; P07 EVENT event-0000090 retract
G1 E22.045580 F100.000
; P07 POINT 91 point-0000091 travel
G1 A0.000000 C0.000000 X250.300000 Y254.800000 Z253.500000 F100.000
; P07 EVENT event-0000091 prime
G1 E23.045580 F100.000
; P07 POINT 92 point-0000092 deposition
G1 A0.000000 C0.000000 X253.200000 Y254.800000 Z253.500000 E23.407284 F100.000
; P07 EVENT event-0000092 retract
G1 E22.407284 F100.000
; P07 POINT 93 point-0000093 travel
G1 A0.000000 C0.000000 X261.700000 Y254.800000 Z253.500000 F100.000
; P07 EVENT event-0000093 prime
G1 E23.407284 F100.000
; P07 POINT 94 point-0000094 deposition
G1 A0.000000 C0.000000 X258.800000 Y254.800000 Z253.500000 E23.768988 F100.000
; P07 EVENT event-0000094 retract
G1 E22.768988 F100.000
; P07 POINT 95 point-0000095 travel
G1 A0.000000 C0.000000 X250.300000 Y255.400000 Z253.500000 F100.000
; P07 EVENT event-0000095 prime
G1 E23.768988 F100.000
; P07 POINT 96 point-0000096 deposition
G1 A0.000000 C0.000000 X253.200000 Y255.400000 Z253.500000 E24.130692 F100.000
; P07 EVENT event-0000096 retract
G1 E23.130692 F100.000
; P07 POINT 97 point-0000097 travel
G1 A0.000000 C0.000000 X261.700000 Y255.400000 Z253.500000 F100.000
; P07 EVENT event-0000097 prime
G1 E24.130692 F100.000
; P07 POINT 98 point-0000098 deposition
G1 A0.000000 C0.000000 X258.800000 Y255.400000 Z253.500000 E24.492396 F100.000
; P07 EVENT event-0000098 retract
G1 E23.492396 F100.000
; P07 POINT 99 point-0000099 travel
G1 A0.000000 C0.000000 X250.300000 Y256.000000 Z253.500000 F100.000
; P07 EVENT event-0000099 prime
G1 E24.492396 F100.000
; P07 POINT 100 point-0000100 deposition
G1 A0.000000 C0.000000 X253.200000 Y256.000000 Z253.500000 E24.854100 F100.000
; P07 EVENT event-0000100 retract
G1 E23.854100 F100.000
; P07 POINT 101 point-0000101 travel
G1 A0.000000 C0.000000 X261.700000 Y256.000000 Z253.500000 F100.000
; P07 EVENT event-0000101 prime
G1 E24.854100 F100.000
; P07 POINT 102 point-0000102 deposition
G1 A0.000000 C0.000000 X258.800000 Y256.000000 Z253.500000 E25.215804 F100.000
; P07 EVENT event-0000102 retract
G1 E24.215804 F100.000
; P07 POINT 103 point-0000103 travel
G1 A0.000000 C0.000000 X250.300000 Y256.600000 Z253.500000 F100.000
; P07 EVENT event-0000103 prime
G1 E25.215804 F100.000
; P07 POINT 104 point-0000104 deposition
G1 A0.000000 C0.000000 X253.200000 Y256.600000 Z253.500000 E25.577508 F100.000
; P07 EVENT event-0000104 retract
G1 E24.577508 F100.000
; P07 POINT 105 point-0000105 travel
G1 A0.000000 C0.000000 X261.700000 Y256.600000 Z253.500000 F100.000
; P07 EVENT event-0000105 prime
G1 E25.577508 F100.000
; P07 POINT 106 point-0000106 deposition
G1 A0.000000 C0.000000 X258.800000 Y256.600000 Z253.500000 E25.939212 F100.000
; P07 EVENT event-0000106 retract
G1 E24.939212 F100.000
; P07 POINT 107 point-0000107 travel
G1 A0.000000 C0.000000 X250.300000 Y257.200000 Z253.500000 F100.000
; P07 EVENT event-0000107 prime
G1 E25.939212 F100.000
; P07 POINT 108 point-0000108 deposition
G1 A0.000000 C0.000000 X253.200000 Y257.200000 Z253.500000 E26.300916 F100.000
; P07 EVENT event-0000108 retract
G1 E25.300916 F100.000
; P07 POINT 109 point-0000109 travel
G1 A0.000000 C0.000000 X261.700000 Y257.200000 Z253.500000 F100.000
; P07 EVENT event-0000109 prime
G1 E26.300916 F100.000
; P07 POINT 110 point-0000110 deposition
G1 A0.000000 C0.000000 X258.800000 Y257.200000 Z253.500000 E26.662620 F100.000
; P07 EVENT event-0000110 retract
G1 E25.662620 F100.000
; P07 POINT 111 point-0000111 travel
G1 A0.000000 C0.000000 X250.300000 Y257.800000 Z253.500000 F100.000
; P07 EVENT event-0000111 prime
G1 E26.662620 F100.000
; P07 POINT 112 point-0000112 deposition
G1 A0.000000 C0.000000 X253.200000 Y257.800000 Z253.500000 E27.024324 F100.000
; P07 EVENT event-0000112 retract
G1 E26.024324 F100.000
; P07 POINT 113 point-0000113 travel
G1 A0.000000 C0.000000 X261.700000 Y257.800000 Z253.500000 F100.000
; P07 EVENT event-0000113 prime
G1 E27.024324 F100.000
; P07 POINT 114 point-0000114 deposition
G1 A0.000000 C0.000000 X258.800000 Y257.800000 Z253.500000 E27.386028 F100.000
; P07 EVENT event-0000114 retract
G1 E26.386028 F100.000
; P07 POINT 115 point-0000115 travel
G1 A0.000000 C0.000000 X250.300000 Y258.400000 Z253.500000 F100.000
; P07 EVENT event-0000115 prime
G1 E27.386028 F100.000
; P07 POINT 116 point-0000116 deposition
G1 A0.000000 C0.000000 X253.307180 Y258.400000 Z253.500000 E27.761100 F100.000
; P07 EVENT event-0000116 retract
G1 E26.761100 F100.000
; P07 POINT 117 point-0000117 travel
G1 A0.000000 C0.000000 X261.700000 Y258.400000 Z253.500000 F100.000
; P07 EVENT event-0000117 prime
G1 E27.761100 F100.000
; P07 POINT 118 point-0000118 deposition
G1 A0.000000 C0.000000 X258.692820 Y258.400000 Z253.500000 E28.136172 F100.000
; P07 EVENT event-0000118 retract
G1 E27.136172 F100.000
; P07 POINT 119 point-0000119 travel
G1 A0.000000 C0.000000 X250.300000 Y259.000000 Z253.500000 F100.000
; P07 EVENT event-0000119 prime
G1 E28.136172 F100.000
; P07 POINT 120 point-0000120 deposition
G1 A0.000000 C0.000000 X261.700000 Y259.000000 Z253.500000 E29.558043 F100.000
; P07 EVENT event-0000120 retract
G1 E28.558043 F100.000
; P07 POINT 121 point-0000121 travel
G1 A0.000000 C0.000000 X261.700000 Y259.600000 Z253.500000 F100.000
; P07 EVENT event-0000121 prime
G1 E29.558043 F100.000
; P07 POINT 122 point-0000122 deposition
G1 A0.000000 C0.000000 X250.300000 Y259.600000 Z253.500000 E30.979913 F100.000
; P07 EVENT event-0000122 retract
G1 E29.979913 F100.000
; P07 POINT 123 point-0000123 travel
G1 A0.000000 C0.000000 X250.600000 Y250.300000 Z254.000000 F100.000
; P07 EVENT event-0000123 prime
G1 E30.979913 F100.000
; P07 POINT 124 point-0000124 deposition
G1 A0.000000 C0.000000 X250.600000 Y259.700000 Z254.000000 E32.152333 F100.000
; P07 EVENT event-0000124 retract
G1 E31.152333 F100.000
; P07 POINT 125 point-0000125 travel
G1 A0.000000 C0.000000 X251.200000 Y259.700000 Z254.000000 F100.000
; P07 EVENT event-0000125 prime
G1 E32.152333 F100.000
; P07 POINT 126 point-0000126 deposition
G1 A0.000000 C0.000000 X251.200000 Y250.300000 Z254.000000 E33.324753 F100.000
; P07 EVENT event-0000126 retract
G1 E32.324753 F100.000
; P07 POINT 127 point-0000127 travel
G1 A0.000000 C0.000000 X251.800000 Y250.300000 Z254.000000 F100.000
; P07 EVENT event-0000127 prime
G1 E33.324753 F100.000
; P07 POINT 128 point-0000128 deposition
G1 A0.000000 C0.000000 X251.800000 Y259.700000 Z254.000000 E34.497173 F100.000
; P07 EVENT event-0000128 retract
G1 E33.497173 F100.000
; P07 POINT 129 point-0000129 travel
G1 A0.000000 C0.000000 X252.400000 Y259.700000 Z254.000000 F100.000
; P07 EVENT event-0000129 prime
G1 E34.497173 F100.000
; P07 POINT 130 point-0000130 deposition
G1 A0.000000 C0.000000 X252.400000 Y250.300000 Z254.000000 E35.669592 F100.000
; P07 EVENT event-0000130 retract
G1 E34.669592 F100.000
; P07 POINT 131 point-0000131 travel
G1 A0.000000 C0.000000 X253.000000 Y250.300000 Z254.000000 F100.000
; P07 EVENT event-0000131 prime
G1 E35.669592 F100.000
; P07 POINT 132 point-0000132 deposition
G1 A0.000000 C0.000000 X253.000000 Y259.700000 Z254.000000 E36.842012 F100.000
; P07 EVENT event-0000132 retract
G1 E35.842012 F100.000
; P07 POINT 133 point-0000133 travel
G1 A0.000000 C0.000000 X253.600000 Y251.307180 Z254.000000 F100.000
; P07 EVENT event-0000133 prime
G1 E36.842012 F100.000
; P07 POINT 134 point-0000134 deposition
G1 A0.000000 C0.000000 X253.600000 Y250.300000 Z254.000000 E36.967633 F100.000
; P07 EVENT event-0000134 retract
G1 E35.967633 F100.000
; P07 POINT 135 point-0000135 travel
G1 A0.000000 C0.000000 X253.600000 Y258.692820 Z254.000000 F100.000
; P07 EVENT event-0000135 prime
G1 E36.967633 F100.000
; P07 POINT 136 point-0000136 deposition
G1 A0.000000 C0.000000 X253.600000 Y259.700000 Z254.000000 E37.093254 F100.000
; P07 EVENT event-0000136 retract
G1 E36.093254 F100.000
; P07 POINT 137 point-0000137 travel
G1 A0.000000 C0.000000 X254.200000 Y251.200000 Z254.000000 F100.000
; P07 EVENT event-0000137 prime
G1 E37.093254 F100.000
; P07 POINT 138 point-0000138 deposition
G1 A0.000000 C0.000000 X254.200000 Y250.300000 Z254.000000 E37.205507 F100.000
; P07 EVENT event-0000138 retract
G1 E36.205507 F100.000
; P07 POINT 139 point-0000139 travel
G1 A0.000000 C0.000000 X254.200000 Y258.800000 Z254.000000 F100.000
; P07 EVENT event-0000139 prime
G1 E37.205507 F100.000
; P07 POINT 140 point-0000140 deposition
G1 A0.000000 C0.000000 X254.200000 Y259.700000 Z254.000000 E37.317760 F100.000
; P07 EVENT event-0000140 retract
G1 E36.317760 F100.000
; P07 POINT 141 point-0000141 travel
G1 A0.000000 C0.000000 X254.800000 Y251.200000 Z254.000000 F100.000
; P07 EVENT event-0000141 prime
G1 E37.317760 F100.000
; P07 POINT 142 point-0000142 deposition
G1 A0.000000 C0.000000 X254.800000 Y250.300000 Z254.000000 E37.430013 F100.000
; P07 EVENT event-0000142 retract
G1 E36.430013 F100.000
; P07 POINT 143 point-0000143 travel
G1 A0.000000 C0.000000 X254.800000 Y258.800000 Z254.000000 F100.000
; P07 EVENT event-0000143 prime
G1 E37.430013 F100.000
; P07 POINT 144 point-0000144 deposition
G1 A0.000000 C0.000000 X254.800000 Y259.700000 Z254.000000 E37.542266 F100.000
; P07 EVENT event-0000144 retract
G1 E36.542266 F100.000
; P07 POINT 145 point-0000145 travel
G1 A0.000000 C0.000000 X255.400000 Y251.200000 Z254.000000 F100.000
; P07 EVENT event-0000145 prime
G1 E37.542266 F100.000
; P07 POINT 146 point-0000146 deposition
G1 A0.000000 C0.000000 X255.400000 Y250.300000 Z254.000000 E37.654519 F100.000
; P07 EVENT event-0000146 retract
G1 E36.654519 F100.000
; P07 POINT 147 point-0000147 travel
G1 A0.000000 C0.000000 X255.400000 Y258.800000 Z254.000000 F100.000
; P07 EVENT event-0000147 prime
G1 E37.654519 F100.000
; P07 POINT 148 point-0000148 deposition
G1 A0.000000 C0.000000 X255.400000 Y259.700000 Z254.000000 E37.766772 F100.000
; P07 EVENT event-0000148 retract
G1 E36.766772 F100.000
; P07 POINT 149 point-0000149 travel
G1 A0.000000 C0.000000 X256.000000 Y251.200000 Z254.000000 F100.000
; P07 EVENT event-0000149 prime
G1 E37.766772 F100.000
; P07 POINT 150 point-0000150 deposition
G1 A0.000000 C0.000000 X256.000000 Y250.300000 Z254.000000 E37.879025 F100.000
; P07 EVENT event-0000150 retract
G1 E36.879025 F100.000
; P07 POINT 151 point-0000151 travel
G1 A0.000000 C0.000000 X256.000000 Y258.800000 Z254.000000 F100.000
; P07 EVENT event-0000151 prime
G1 E37.879025 F100.000
; P07 POINT 152 point-0000152 deposition
G1 A0.000000 C0.000000 X256.000000 Y259.700000 Z254.000000 E37.991278 F100.000
; P07 EVENT event-0000152 retract
G1 E36.991278 F100.000
; P07 POINT 153 point-0000153 travel
G1 A0.000000 C0.000000 X256.600000 Y251.200000 Z254.000000 F100.000
; P07 EVENT event-0000153 prime
G1 E37.991278 F100.000
; P07 POINT 154 point-0000154 deposition
G1 A0.000000 C0.000000 X256.600000 Y250.300000 Z254.000000 E38.103531 F100.000
; P07 EVENT event-0000154 retract
G1 E37.103531 F100.000
; P07 POINT 155 point-0000155 travel
G1 A0.000000 C0.000000 X256.600000 Y258.800000 Z254.000000 F100.000
; P07 EVENT event-0000155 prime
G1 E38.103531 F100.000
; P07 POINT 156 point-0000156 deposition
G1 A0.000000 C0.000000 X256.600000 Y259.700000 Z254.000000 E38.215784 F100.000
; P07 EVENT event-0000156 retract
G1 E37.215784 F100.000
; P07 POINT 157 point-0000157 travel
G1 A0.000000 C0.000000 X257.200000 Y251.200000 Z254.000000 F100.000
; P07 EVENT event-0000157 prime
G1 E38.215784 F100.000
; P07 POINT 158 point-0000158 deposition
G1 A0.000000 C0.000000 X257.200000 Y250.300000 Z254.000000 E38.328037 F100.000
; P07 EVENT event-0000158 retract
G1 E37.328037 F100.000
; P07 POINT 159 point-0000159 travel
G1 A0.000000 C0.000000 X257.200000 Y258.800000 Z254.000000 F100.000
; P07 EVENT event-0000159 prime
G1 E38.328037 F100.000
; P07 POINT 160 point-0000160 deposition
G1 A0.000000 C0.000000 X257.200000 Y259.700000 Z254.000000 E38.440290 F100.000
; P07 EVENT event-0000160 retract
G1 E37.440290 F100.000
; P07 POINT 161 point-0000161 travel
G1 A0.000000 C0.000000 X257.800000 Y251.200000 Z254.000000 F100.000
; P07 EVENT event-0000161 prime
G1 E38.440290 F100.000
; P07 POINT 162 point-0000162 deposition
G1 A0.000000 C0.000000 X257.800000 Y250.300000 Z254.000000 E38.552543 F100.000
; P07 EVENT event-0000162 retract
G1 E37.552543 F100.000
; P07 POINT 163 point-0000163 travel
G1 A0.000000 C0.000000 X257.800000 Y258.800000 Z254.000000 F100.000
; P07 EVENT event-0000163 prime
G1 E38.552543 F100.000
; P07 POINT 164 point-0000164 deposition
G1 A0.000000 C0.000000 X257.800000 Y259.700000 Z254.000000 E38.664796 F100.000
; P07 EVENT event-0000164 retract
G1 E37.664796 F100.000
; P07 POINT 165 point-0000165 travel
G1 A0.000000 C0.000000 X258.400000 Y251.307180 Z254.000000 F100.000
; P07 EVENT event-0000165 prime
G1 E38.664796 F100.000
; P07 POINT 166 point-0000166 deposition
G1 A0.000000 C0.000000 X258.400000 Y250.300000 Z254.000000 E38.790417 F100.000
; P07 EVENT event-0000166 retract
G1 E37.790417 F100.000
; P07 POINT 167 point-0000167 travel
G1 A0.000000 C0.000000 X258.400000 Y258.692820 Z254.000000 F100.000
; P07 EVENT event-0000167 prime
G1 E38.790417 F100.000
; P07 POINT 168 point-0000168 deposition
G1 A0.000000 C0.000000 X258.400000 Y259.700000 Z254.000000 E38.916038 F100.000
; P07 EVENT event-0000168 retract
G1 E37.916038 F100.000
; P07 POINT 169 point-0000169 travel
G1 A0.000000 C0.000000 X259.000000 Y259.700000 Z254.000000 F100.000
; P07 EVENT event-0000169 prime
G1 E38.916038 F100.000
; P07 POINT 170 point-0000170 deposition
G1 A0.000000 C0.000000 X259.000000 Y250.300000 Z254.000000 E40.088457 F100.000
; P07 EVENT event-0000170 retract
G1 E39.088457 F100.000
; P07 POINT 171 point-0000171 travel
G1 A0.000000 C0.000000 X259.600000 Y250.300000 Z254.000000 F100.000
; P07 EVENT event-0000171 prime
G1 E40.088457 F100.000
; P07 POINT 172 point-0000172 deposition
G1 A0.000000 C0.000000 X259.600000 Y259.700000 Z254.000000 E41.260877 F100.000
; P07 EVENT event-0000172 retract
G1 E40.260877 F100.000
; P07 POINT 173 point-0000173 travel
G1 A0.000000 C0.000000 X260.200000 Y259.700000 Z254.000000 F100.000
; P07 EVENT event-0000173 prime
G1 E41.260877 F100.000
; P07 POINT 174 point-0000174 deposition
G1 A0.000000 C0.000000 X260.200000 Y250.300000 Z254.000000 E42.433297 F100.000
; P07 EVENT event-0000174 retract
G1 E41.433297 F100.000
; P07 POINT 175 point-0000175 travel
G1 A0.000000 C0.000000 X260.800000 Y250.300000 Z254.000000 F100.000
; P07 EVENT event-0000175 prime
G1 E42.433297 F100.000
; P07 POINT 176 point-0000176 deposition
G1 A0.000000 C0.000000 X260.800000 Y259.700000 Z254.000000 E43.605717 F100.000
; P07 EVENT event-0000176 retract
G1 E42.605717 F100.000
; P07 POINT 177 point-0000177 travel
G1 A0.000000 C0.000000 X261.400000 Y259.700000 Z254.000000 F100.000
; P07 EVENT event-0000177 prime
G1 E43.605717 F100.000
; P07 POINT 178 point-0000178 deposition
G1 A0.000000 C0.000000 X261.400000 Y250.300000 Z254.000000 E44.778136 F100.000
M400 ; finish queued motion
M2
