; 5AxisSclicer paper-core AC offline review program
; CONTROLLER_PROFILE {"axis_mode":"absolute","controller_family":"custom-klipper-derived","controller_version":null,"coordinated_xyzac_verified":false,"cutter_relative_z_mm":20.0,"extrusion_mode":"relative","feed_mode":"units_per_minute","machine_executable":false,"machine_profile_id":"builtin.machine.own_ac_fdm.v1","macro_version":null,"maximum_cumulative_c_rad":null,"profile_id":"builtin.controller.own_ac.offline.v1","qualification_issues":["controller.version_unknown","controller.macros_unverified","controller.xyzac_coordination_unverified","controller.cumulative_c_limit_unknown"],"reorientation_absolute_z_mm":20.0,"schema_version":1}
; EXECUTION_QUALIFICATION offline_only
G21 ; millimetres
G90 ; absolute machine axes
M83 ; relative extrusion
G94 ; units per minute
G92 E0 ; explicit extrusion origin
; PAC POINT 1 point-0000001 approach - -
G1 A-69.343889 C-71.999992 X12.000000 Y39.300010 Z17.315844 F3000.000000
; PAC EVENT material-0001-retract retract
; PAC EVENT_CONTEXT {"channel_id":"T0","extrusion_length_mm":-1.0,"material_id":"PLA","material_plan_id":"impeller-materials","sensor_required":true,"sequence_index":1,"tool_command":"T0"}
G1 E-1.000000000000 F900.000000
; PAC EVENT material-0001-cut cut
; PAC EVENT_CONTEXT {"channel_id":"T0","material_id":"PLA","material_plan_id":"impeller-materials","sensor_required":true,"sequence_index":1,"tool_command":"T0"}
M98 P100 ; OFFLINE _5AXIS_CUT macro semantic
; PAC EVENT material-0001-park park
; PAC EVENT_CONTEXT {"channel_id":"T0","material_id":"PLA","material_plan_id":"impeller-materials","sensor_required":true,"sequence_index":1,"tool_command":"T0"}
G91
G1 Z20.000000 F900.000000
G90
; PAC EVENT material-0001-switch switch
; PAC EVENT_CONTEXT {"channel_id":"T0","material_id":"PLA","material_plan_id":"impeller-materials","sensor_required":true,"sequence_index":1,"tool_command":"T0"}
T0
; PAC EVENT material-0001-load load
; PAC EVENT_CONTEXT {"channel_id":"T0","extrusion_length_mm":0.0,"material_id":"PLA","material_plan_id":"impeller-materials","sensor_required":true,"sequence_index":1,"tool_command":"T0"}
G1 E0.000000000000 F900.000000
; PAC EVENT material-0001-temperature_wait temperature_wait
; PAC EVENT_CONTEXT {"channel_id":"T0","material_id":"PLA","material_plan_id":"impeller-materials","sensor_required":true,"sequence_index":1,"target_temperature_c":195.0,"timeout_s":180.0,"tool_command":"T0"}
M109 S195.000
; PAC EVENT material-0001-purge purge
; PAC EVENT_CONTEXT {"channel_id":"T0","extrusion_length_mm":5.0,"material_id":"PLA","material_plan_id":"impeller-materials","sensor_required":true,"sequence_index":1,"tool_command":"T0"}
G1 E5.000000000000 F900.000000
; PAC EVENT material-0001-prime prime
; PAC EVENT_CONTEXT {"channel_id":"T0","extrusion_length_mm":1.0,"material_id":"PLA","material_plan_id":"impeller-materials","sensor_required":true,"sequence_index":1,"tool_command":"T0"}
G1 E1.000000000000 F900.000000
; PAC EVENT material-0001-resume resume
; PAC EVENT_CONTEXT {"channel_id":"T0","material_id":"PLA","material_plan_id":"impeller-materials","sensor_required":true,"sequence_index":1,"tool_command":"T0"}
M98 P101 ; OFFLINE _5AXIS_RESUME macro semantic
; PAC EVENT event-0000001 prime
; PAC EVENT_CONTEXT {"extrusion_length_mm":1.0,"sequence_index":1}
G1 E1.000000000000 F900.000000
; PAC POINT 2 point-0000002 deposition PLA T0
G1 A-69.531132 C-62.323780 X12.057448 Y37.092924 Z15.292439 E0.098727812132 F900.000000
; PAC POINT 3 point-0000003 deposition PLA T0
G1 A-70.027495 C-53.330323 X12.244068 Y34.909299 Z13.193633 E0.098726410891 F900.000000
; PAC POINT 4 point-0000004 deposition PLA T0
G1 A-70.677832 C-44.919019 X12.574445 Y32.729542 Z11.096426 E0.098725561295 F900.000000
; PAC POINT 5 point-0000005 deposition PLA T0
G1 A-71.461512 C-37.013279 X13.052944 Y30.567881 Z8.993843 E0.098724610624 F900.000000
; PAC POINT 6 point-0000006 deposition PLA T0
G1 A-72.377404 C-29.558338 X13.671076 Y28.435929 Z6.871635 E0.098721183893 F900.000000
; PAC POINT 7 point-0000007 deposition PLA T0
G1 A-73.358620 C-22.465666 X14.415644 Y26.341434 Z4.743149 E0.098720152807 F900.000000
; PAC POINT 8 point-0000008 deposition PLA T0
G1 A-74.484449 C-15.827947 X15.285488 Y24.287256 Z2.595063 E0.098718706918 F900.000000
; PAC POINT 9 point-0000009 deposition PLA T0
G1 A-75.731578 C-9.649035 X16.272848 Y22.268918 Z0.445809 E0.098716496601 F900.000000
; PAC POINT 10 point-0000010 deposition PLA T0
G1 A-77.034138 C-3.895442 X17.368038 Y20.288814 Z-1.677527 E0.098716441662 F900.000000
; PAC POINT 11 point-0000011 deposition PLA T0
G1 A-78.444258 C1.259539 X18.594067 Y18.331235 Z-3.731144 E0.098716246500 F900.000000
; PAC POINT 12 point-0000012 deposition PLA T0
G1 A-79.903609 C5.834664 X19.955069 Y16.400471 Z-5.683072 E0.098716468658 F900.000000
; PAC POINT 13 point-0000013 deposition PLA T0
G1 A-81.348077 C9.856935 X21.455006 Y14.510361 Z-7.504370 E0.098717570395 F900.000000
; PAC POINT 14 point-0000014 deposition PLA T0
G1 A-82.791019 C13.179657 X23.136659 Y12.659077 Z-9.124415 E0.098718186521 F900.000000
; PAC POINT 15 point-0000015 deposition PLA T0
G1 A-84.173641 C15.845148 X25.009687 Y10.872397 Z-10.518632 E0.098719340574 F900.000000
; PAC POINT 16 point-0000016 deposition PLA T0
G1 A-85.450548 C17.849066 X27.091986 Y9.177655 Z-11.646292 E0.098720547549 F900.000000
; PAC POINT 17 point-0000017 deposition PLA T0
G1 A-86.631821 C19.020569 X29.442475 Y7.588168 Z-12.392482 E0.098721076440 F900.000000
; PAC POINT 18 point-0000018 deposition PLA T0
G1 A-87.664973 C19.408382 X32.060328 Y6.144719 Z-12.721271 E0.098720930974 F900.000000
; PAC POINT 19 point-0000019 deposition PLA T0
G1 A-88.514391 C18.959115 X34.957837 Y4.882897 Z-12.536236 E0.098719615317 F900.000000
; PAC POINT 20 point-0000020 deposition PLA T0
G1 A-89.189774 C17.439239 X38.170565 Y3.824693 Z-11.613614 E0.098717019526 F900.000000
; PAC POINT 21 point-0000021 deposition PLA T0
G1 A-89.654373 C14.908962 X41.620050 Y3.004508 Z-9.875444 E0.098710060239 F900.000000
; PAC POINT 22 point-0000022 deposition PLA T0
G1 A-89.913264 C11.185628 X45.225707 Y2.434698 Z-7.059804 E0.098696921334 F900.000000
; PAC POINT 23 point-0000023 deposition PLA T0
G1 A-90.000842 C6.222805 X48.787433 Y2.106796 Z-2.983949 E0.098678817141 F900.000000
; PAC POINT 24 point-0000024 deposition PLA T0
G1 A-90.000000 C0.000000 X52.000000 Y2.000000 Z2.500000 E0.098662400051 F900.000000
; PAC EVENT event-0000002 retract
; PAC EVENT_CONTEXT {"extrusion_length_mm":-1.0,"sequence_index":24}
G1 E-1.000000000000 F3000.000000
; PAC POINT 25 point-0000025 travel - -
G1 A-90.000000 C0.000000 X52.000000 Y2.600000 Z2.500000 F3000.000000
; PAC EVENT material-0002-retract retract
; PAC EVENT_CONTEXT {"channel_id":"T1","extrusion_length_mm":-1.0,"material_id":"PETG","material_plan_id":"impeller-materials","sensor_required":true,"sequence_index":25,"tool_command":"T1"}
G1 E-1.000000000000 F900.000000
; PAC EVENT material-0002-cut cut
; PAC EVENT_CONTEXT {"channel_id":"T1","material_id":"PETG","material_plan_id":"impeller-materials","sensor_required":true,"sequence_index":25,"tool_command":"T1"}
M98 P100 ; OFFLINE _5AXIS_CUT macro semantic
; PAC EVENT material-0002-park park
; PAC EVENT_CONTEXT {"channel_id":"T1","material_id":"PETG","material_plan_id":"impeller-materials","sensor_required":true,"sequence_index":25,"tool_command":"T1"}
G91
G1 Z20.000000 F900.000000
G90
; PAC EVENT material-0002-switch switch
; PAC EVENT_CONTEXT {"channel_id":"T1","material_id":"PETG","material_plan_id":"impeller-materials","sensor_required":true,"sequence_index":25,"tool_command":"T1"}
T1
; PAC EVENT material-0002-load load
; PAC EVENT_CONTEXT {"channel_id":"T1","extrusion_length_mm":0.0,"material_id":"PETG","material_plan_id":"impeller-materials","sensor_required":true,"sequence_index":25,"tool_command":"T1"}
G1 E0.000000000000 F900.000000
; PAC EVENT material-0002-temperature_wait temperature_wait
; PAC EVENT_CONTEXT {"channel_id":"T1","material_id":"PETG","material_plan_id":"impeller-materials","sensor_required":true,"sequence_index":25,"target_temperature_c":235.0,"timeout_s":180.0,"tool_command":"T1"}
M109 S235.000
; PAC EVENT material-0002-purge purge
; PAC EVENT_CONTEXT {"channel_id":"T1","extrusion_length_mm":6.0,"material_id":"PETG","material_plan_id":"impeller-materials","sensor_required":true,"sequence_index":25,"tool_command":"T1"}
G1 E6.000000000000 F900.000000
; PAC EVENT material-0002-prime prime
; PAC EVENT_CONTEXT {"channel_id":"T1","extrusion_length_mm":1.0,"material_id":"PETG","material_plan_id":"impeller-materials","sensor_required":true,"sequence_index":25,"tool_command":"T1"}
G1 E1.000000000000 F900.000000
; PAC EVENT material-0002-resume resume
; PAC EVENT_CONTEXT {"channel_id":"T1","material_id":"PETG","material_plan_id":"impeller-materials","sensor_required":true,"sequence_index":25,"tool_command":"T1"}
M98 P101 ; OFFLINE _5AXIS_RESUME macro semantic
; PAC EVENT event-0000003 prime
; PAC EVENT_CONTEXT {"extrusion_length_mm":1.0,"sequence_index":25}
G1 E1.000000000000 F900.000000
; PAC POINT 26 point-0000026 deposition PETG T1
G1 A-90.001768 C6.146960 X48.836506 Y2.704073 Z-2.919373 E0.097247926273 F900.000000
; PAC POINT 27 point-0000027 deposition PETG T1
G1 A-89.917124 C11.094444 X45.323944 Y3.026988 Z-6.987935 E0.097295692646 F900.000000
; PAC POINT 28 point-0000028 deposition PETG T1
G1 A-89.661140 C14.851987 X41.754764 Y3.590138 Z-9.834381 E0.097380753059 F900.000000
; PAC POINT 29 point-0000029 deposition PETG T1
G1 A-89.197895 C17.442524 X38.329021 Y4.401277 Z-11.616390 E0.097458035622 F900.000000
; PAC POINT 30 point-0000030 deposition PETG T1
G1 A-88.519514 C19.045980 X35.128757 Y5.451015 Z-12.589808 E0.097524907890 F900.000000
; PAC POINT 31 point-0000031 deposition PETG T1
G1 A-87.661795 C19.596578 X32.236255 Y6.705948 Z-12.826422 E0.097575649636 F900.000000
; PAC POINT 32 point-0000032 deposition PETG T1
G1 A-86.616701 C19.310901 X29.622847 Y8.143489 Z-12.539797 E0.097615237946 F900.000000
; PAC POINT 33 point-0000033 deposition PETG T1
G1 A-85.416983 C18.252763 X27.275637 Y9.728697 Z-11.831682 E0.097647054381 F900.000000
; PAC POINT 34 point-0000034 deposition PETG T1
G1 A-84.115030 C16.371023 X25.198406 Y11.419818 Z-10.736442 E0.097668952057 F900.000000
; PAC POINT 35 point-0000035 deposition PETG T1
G1 A-82.702189 C13.825988 X23.335461 Y13.201851 Z-9.364394 E0.097686405957 F900.000000
; PAC POINT 36 point-0000036 deposition PETG T1
G1 A-81.218156 C10.633734 X21.666898 Y15.047774 Z-7.759809 E0.097705477569 F900.000000
; PAC POINT 37 point-0000037 deposition PETG T1
G1 A-79.721081 C6.745152 X20.185453 Y16.929469 Z-5.943907 E0.097725342965 F900.000000
; PAC POINT 38 point-0000038 deposition PETG T1
G1 A-78.197159 C2.297862 X18.849036 Y18.846540 Z-3.983250 E0.097745119951 F900.000000
; PAC POINT 39 point-0000039 deposition PETG T1
G1 A-76.701419 C-2.726445 X17.651705 Y20.784009 Z-1.906212 E0.097769980692 F900.000000
; PAC POINT 40 point-0000040 deposition PETG T1
G1 A-75.294745 C-8.364689 X16.591251 Y22.732821 Z0.260686 E0.097796937264 F900.000000
; PAC POINT 41 point-0000041 deposition PETG T1
G1 A-73.924338 C-14.454370 X15.642968 Y24.706222 Z2.477753 E0.097827095336 F900.000000
; PAC POINT 42 point-0000042 deposition PETG T1
G1 A-72.644791 C-21.025595 X14.814683 Y26.699227 Z4.722203 E0.097863818286 F900.000000
; PAC POINT 43 point-0000043 deposition PETG T1
G1 A-71.490842 C-28.105130 X14.113499 Y28.710948 Z6.978707 E0.097900115581 F900.000000
; PAC POINT 44 point-0000044 deposition PETG T1
G1 A-70.379262 C-35.608716 X13.538418 Y30.736459 Z9.264723 E0.097937077052 F900.000000
; PAC POINT 45 point-0000045 deposition PETG T1
G1 A-69.369577 C-43.638756 X13.101749 Y32.763076 Z11.574464 E0.097977882694 F900.000000
; PAC POINT 46 point-0000046 deposition PETG T1
G1 A-68.490047 C-52.292080 X12.807320 Y34.776608 Z13.916291 E0.098010184390 F900.000000
; PAC POINT 47 point-0000047 deposition PETG T1
G1 A-67.766923 C-61.664894 X12.647919 Y36.761881 Z16.297196 E0.098034578999 F900.000000
; PAC POINT 48 point-0000048 deposition PETG T1
G1 A-67.392325 C-71.883669 X12.600707 Y38.748933 Z18.621954 E0.098057423081 F900.000000
; PAC EVENT event-0000004 retract
; PAC EVENT_CONTEXT {"extrusion_length_mm":-1.0,"sequence_index":48}
G1 E-1.000000000000 F3000.000000
; PAC POINT 49 point-0000049 travel - -
G1 A-90.000000 C-45.000000 X52.000000 Y2.000000 Z2.500000 F3000.000000
; PAC EVENT event-0000005 prime
; PAC EVENT_CONTEXT {"extrusion_length_mm":1.0,"sequence_index":49}
G1 E1.000000000000 F900.000000
; PAC POINT 50 point-0000050 deposition PETG T1
G1 A-90.000842 C-38.777195 X48.787433 Y2.106796 Z-2.983949 E0.098662400051 F900.000000
; PAC POINT 51 point-0000051 deposition PETG T1
G1 A-89.913264 C-33.814372 X45.225707 Y2.434698 Z-7.059804 E0.098678817140 F900.000000
; PAC POINT 52 point-0000052 deposition PETG T1
G1 A-89.654373 C-30.091038 X41.620050 Y3.004508 Z-9.875444 E0.098696921335 F900.000000
; PAC POINT 53 point-0000053 deposition PETG T1
G1 A-89.189774 C-27.560761 X38.170565 Y3.824693 Z-11.613614 E0.098710060239 F900.000000
; PAC POINT 54 point-0000054 deposition PETG T1
G1 A-88.514391 C-26.040885 X34.957837 Y4.882897 Z-12.536236 E0.098717019526 F900.000000
; PAC POINT 55 point-0000055 deposition PETG T1
G1 A-87.664973 C-25.591618 X32.060328 Y6.144719 Z-12.721271 E0.098719615317 F900.000000
; PAC POINT 56 point-0000056 deposition PETG T1
G1 A-86.631821 C-25.979431 X29.442475 Y7.588168 Z-12.392482 E0.098720930974 F900.000000
; PAC POINT 57 point-0000057 deposition PETG T1
G1 A-85.450548 C-27.150934 X27.091986 Y9.177655 Z-11.646292 E0.098721076440 F900.000000
; PAC POINT 58 point-0000058 deposition PETG T1
G1 A-84.173641 C-29.154852 X25.009687 Y10.872397 Z-10.518632 E0.098720547549 F900.000000
; PAC POINT 59 point-0000059 deposition PETG T1
G1 A-82.791019 C-31.820343 X23.136659 Y12.659077 Z-9.124415 E0.098719340574 F900.000000
; PAC POINT 60 point-0000060 deposition PETG T1
G1 A-81.348077 C-35.143065 X21.455006 Y14.510361 Z-7.504370 E0.098718186521 F900.000000
; PAC POINT 61 point-0000061 deposition PETG T1
G1 A-79.903609 C-39.165336 X19.955069 Y16.400471 Z-5.683072 E0.098717570395 F900.000000
; PAC POINT 62 point-0000062 deposition PETG T1
G1 A-78.444258 C-43.740461 X18.594067 Y18.331235 Z-3.731144 E0.098716468658 F900.000000
; PAC POINT 63 point-0000063 deposition PETG T1
G1 A-77.034138 C-48.895442 X17.368038 Y20.288814 Z-1.677527 E0.098716246500 F900.000000
; PAC POINT 64 point-0000064 deposition PETG T1
G1 A-75.731578 C-54.649035 X16.272848 Y22.268918 Z0.445809 E0.098716441662 F900.000000
; PAC POINT 65 point-0000065 deposition PETG T1
G1 A-74.484447 C-60.827959 X15.285486 Y24.287260 Z2.595067 E0.098716691358 F900.000000
; PAC POINT 66 point-0000066 deposition PETG T1
G1 A-73.358620 C-67.465666 X14.415644 Y26.341434 Z4.743149 E0.098718512157 F900.000000
; PAC POINT 67 point-0000067 deposition PETG T1
G1 A-72.377405 C-74.558326 X13.671077 Y28.435926 Z6.871631 E0.098719998066 F900.000000
; PAC POINT 68 point-0000068 deposition PETG T1
G1 A-71.461510 C-82.013291 X13.052943 Y30.567885 Z8.993846 E0.098721487432 F900.000000
; PAC POINT 69 point-0000069 deposition PETG T1
G1 A-70.677832 C-89.919019 X12.574445 Y32.729542 Z11.096426 E0.098724461830 F900.000000
; PAC POINT 70 point-0000070 deposition PETG T1
G1 A-70.027495 C-98.330323 X12.244068 Y34.909299 Z13.193633 E0.098725561295 F900.000000
; PAC POINT 71 point-0000071 deposition PETG T1
G1 A-69.531132 C-107.323780 X12.057448 Y37.092924 Z15.292439 E0.098726410891 F900.000000
; PAC POINT 72 point-0000072 deposition PETG T1
G1 A-69.343889 C-116.999992 X12.000000 Y39.300010 Z17.315844 E0.098727812132 F900.000000
; PAC EVENT event-0000006 retract
; PAC EVENT_CONTEXT {"extrusion_length_mm":-1.0,"sequence_index":72}
G1 E-1.000000000000 F3000.000000
; PAC POINT 73 point-0000073 travel - -
G1 A-67.392325 C-116.883669 X12.600707 Y38.748933 Z18.621954 F3000.000000
; PAC EVENT material-0003-prepare_pause prepare_pause
; PAC EVENT_CONTEXT {"channel_id":"T2","material_id":"PA","material_plan_id":"impeller-materials","sensor_required":true,"sequence_index":73,"tool_command":"T2"}
M0 ; operator material preparation
; PAC EVENT material-0003-retract retract
; PAC EVENT_CONTEXT {"channel_id":"T2","extrusion_length_mm":-1.0,"material_id":"PA","material_plan_id":"impeller-materials","sensor_required":true,"sequence_index":73,"tool_command":"T2"}
G1 E-1.000000000000 F900.000000
; PAC EVENT material-0003-cut cut
; PAC EVENT_CONTEXT {"channel_id":"T2","material_id":"PA","material_plan_id":"impeller-materials","sensor_required":true,"sequence_index":73,"tool_command":"T2"}
M98 P100 ; OFFLINE _5AXIS_CUT macro semantic
; PAC EVENT material-0003-park park
; PAC EVENT_CONTEXT {"channel_id":"T2","material_id":"PA","material_plan_id":"impeller-materials","sensor_required":true,"sequence_index":73,"tool_command":"T2"}
G91
G1 Z20.000000 F900.000000
G90
; PAC EVENT material-0003-switch switch
; PAC EVENT_CONTEXT {"channel_id":"T2","material_id":"PA","material_plan_id":"impeller-materials","sensor_required":true,"sequence_index":73,"tool_command":"T2"}
T2
; PAC EVENT material-0003-load load
; PAC EVENT_CONTEXT {"channel_id":"T2","extrusion_length_mm":0.0,"material_id":"PA","material_plan_id":"impeller-materials","sensor_required":true,"sequence_index":73,"tool_command":"T2"}
G1 E0.000000000000 F900.000000
; PAC EVENT material-0003-temperature_wait temperature_wait
; PAC EVENT_CONTEXT {"channel_id":"T2","material_id":"PA","material_plan_id":"impeller-materials","sensor_required":true,"sequence_index":73,"target_temperature_c":275.0,"timeout_s":180.0,"tool_command":"T2"}
M109 S275.000
; PAC EVENT material-0003-purge purge
; PAC EVENT_CONTEXT {"channel_id":"T2","extrusion_length_mm":7.0,"material_id":"PA","material_plan_id":"impeller-materials","sensor_required":true,"sequence_index":73,"tool_command":"T2"}
G1 E7.000000000000 F900.000000
; PAC EVENT material-0003-prime prime
; PAC EVENT_CONTEXT {"channel_id":"T2","extrusion_length_mm":1.0,"material_id":"PA","material_plan_id":"impeller-materials","sensor_required":true,"sequence_index":73,"tool_command":"T2"}
G1 E1.000000000000 F900.000000
; PAC EVENT material-0003-resume resume
; PAC EVENT_CONTEXT {"channel_id":"T2","material_id":"PA","material_plan_id":"impeller-materials","sensor_required":true,"sequence_index":73,"tool_command":"T2"}
M98 P101 ; OFFLINE _5AXIS_RESUME macro semantic
; PAC EVENT event-0000007 prime
; PAC EVENT_CONTEXT {"extrusion_length_mm":1.0,"sequence_index":73}
G1 E1.000000000000 F900.000000
; PAC POINT 74 point-0000074 deposition PA T2
G1 A-67.766923 C-106.664894 X12.647919 Y36.761881 Z16.297196 E0.098057423081 F900.000000
; PAC POINT 75 point-0000075 deposition PA T2
G1 A-68.490047 C-97.292080 X12.807320 Y34.776608 Z13.916291 E0.098034578999 F900.000000
; PAC POINT 76 point-0000076 deposition PA T2
G1 A-69.369577 C-88.638756 X13.101749 Y32.763076 Z11.574464 E0.098010184390 F900.000000
; PAC POINT 77 point-0000077 deposition PA T2
G1 A-70.379262 C-80.608716 X13.538418 Y30.736459 Z9.264723 E0.097977882598 F900.000000
; PAC POINT 78 point-0000078 deposition PA T2
G1 A-71.490842 C-73.105130 X14.113499 Y28.710948 Z6.978707 E0.097937077235 F900.000000
; PAC POINT 79 point-0000079 deposition PA T2
G1 A-72.644791 C-66.025595 X14.814683 Y26.699227 Z4.722203 E0.097900115493 F900.000000
; PAC POINT 80 point-0000080 deposition PA T2
G1 A-73.924338 C-59.454370 X15.642968 Y24.706222 Z2.477753 E0.097863818203 F900.000000
; PAC POINT 81 point-0000081 deposition PA T2
G1 A-75.294745 C-53.364689 X16.591251 Y22.732821 Z0.260686 E0.097827095420 F900.000000
; PAC POINT 82 point-0000082 deposition PA T2
G1 A-76.701419 C-47.726445 X17.651705 Y20.784009 Z-1.906212 E0.097796937264 F900.000000
; PAC POINT 83 point-0000083 deposition PA T2
G1 A-78.197159 C-42.702138 X18.849036 Y18.846540 Z-3.983250 E0.097769980692 F900.000000
; PAC POINT 84 point-0000084 deposition PA T2
G1 A-79.721081 C-38.254848 X20.185453 Y16.929469 Z-5.943907 E0.097745119951 F900.000000
; PAC POINT 85 point-0000085 deposition PA T2
G1 A-81.218156 C-34.366266 X21.666898 Y15.047774 Z-7.759809 E0.097725342965 F900.000000
; PAC POINT 86 point-0000086 deposition PA T2
G1 A-82.702189 C-31.174012 X23.335461 Y13.201851 Z-9.364394 E0.097705477569 F900.000000
; PAC POINT 87 point-0000087 deposition PA T2
G1 A-84.115030 C-28.628977 X25.198406 Y11.419818 Z-10.736442 E0.097686405957 F900.000000
; PAC POINT 88 point-0000088 deposition PA T2
G1 A-85.416983 C-26.747237 X27.275637 Y9.728697 Z-11.831682 E0.097668952057 F900.000000
; PAC POINT 89 point-0000089 deposition PA T2
G1 A-86.616701 C-25.689099 X29.622847 Y8.143489 Z-12.539797 E0.097647054381 F900.000000
; PAC POINT 90 point-0000090 deposition PA T2
G1 A-87.661795 C-25.403422 X32.236255 Y6.705948 Z-12.826422 E0.097615237946 F900.000000
; PAC POINT 91 point-0000091 deposition PA T2
G1 A-88.519514 C-25.954020 X35.128757 Y5.451015 Z-12.589808 E0.097575649636 F900.000000
; PAC POINT 92 point-0000092 deposition PA T2
G1 A-89.197895 C-27.557476 X38.329021 Y4.401277 Z-11.616390 E0.097524907890 F900.000000
; PAC POINT 93 point-0000093 deposition PA T2
G1 A-89.661140 C-30.148013 X41.754764 Y3.590138 Z-9.834381 E0.097458035622 F900.000000
; PAC POINT 94 point-0000094 deposition PA T2
G1 A-89.917124 C-33.905556 X45.323944 Y3.026988 Z-6.987935 E0.097380753059 F900.000000
; PAC POINT 95 point-0000095 deposition PA T2
G1 A-90.001768 C-38.853040 X48.836506 Y2.704073 Z-2.919373 E0.097295692646 F900.000000
; PAC POINT 96 point-0000096 deposition PA T2
G1 A-90.000000 C-45.000000 X52.000000 Y2.600000 Z2.500000 E0.097247926273 F900.000000
; PAC EVENT event-0000008 retract
; PAC EVENT_CONTEXT {"extrusion_length_mm":-1.0,"sequence_index":96}
G1 E-1.000000000000 F3000.000000
; PAC POINT 97 point-0000097 travel - -
G1 A-69.343889 C-161.999992 X12.000000 Y39.300010 Z17.315844 F3000.000000
; PAC EVENT event-0000009 prime
; PAC EVENT_CONTEXT {"extrusion_length_mm":1.0,"sequence_index":97}
G1 E1.000000000000 F900.000000
; PAC POINT 98 point-0000098 deposition PA T2
G1 A-69.531132 C-152.323780 X12.057448 Y37.092924 Z15.292439 E0.098727812132 F900.000000
; PAC POINT 99 point-0000099 deposition PA T2
G1 A-70.027495 C-143.330323 X12.244068 Y34.909299 Z13.193633 E0.098726410895 F900.000000
; PAC POINT 100 point-0000100 deposition PA T2
G1 A-70.677832 C-134.919019 X12.574445 Y32.729542 Z11.096426 E0.098725561291 F900.000000
; PAC POINT 101 point-0000101 deposition PA T2
G1 A-71.461512 C-127.013279 X13.052944 Y30.567881 Z8.993843 E0.098724610626 F900.000000
; PAC POINT 102 point-0000102 deposition PA T2
G1 A-72.377403 C-119.558341 X13.671076 Y28.435930 Z6.871636 E0.098721137030 F900.000000
; PAC POINT 103 point-0000103 deposition PA T2
G1 A-73.358620 C-112.465666 X14.415644 Y26.341434 Z4.743149 E0.098720199666 F900.000000
; PAC POINT 104 point-0000104 deposition PA T2
G1 A-74.484449 C-105.827947 X15.285488 Y24.287256 Z2.595063 E0.098718706918 F900.000000
; PAC POINT 105 point-0000105 deposition PA T2
G1 A-75.731578 C-99.649035 X16.272848 Y22.268918 Z0.445809 E0.098716496601 F900.000000
; PAC POINT 106 point-0000106 deposition PA T2
G1 A-77.034138 C-93.895442 X17.368038 Y20.288814 Z-1.677527 E0.098716441662 F900.000000
; PAC POINT 107 point-0000107 deposition PA T2
G1 A-78.444258 C-88.740461 X18.594067 Y18.331235 Z-3.731144 E0.098716246500 F900.000000
; PAC POINT 108 point-0000108 deposition PA T2
G1 A-79.903609 C-84.165336 X19.955069 Y16.400471 Z-5.683072 E0.098716468658 F900.000000
; PAC POINT 109 point-0000109 deposition PA T2
G1 A-81.348077 C-80.143065 X21.455006 Y14.510361 Z-7.504370 E0.098717570395 F900.000000
; PAC POINT 110 point-0000110 deposition PA T2
G1 A-82.791019 C-76.820343 X23.136659 Y12.659077 Z-9.124415 E0.098718186521 F900.000000
; PAC POINT 111 point-0000111 deposition PA T2
G1 A-84.173641 C-74.154852 X25.009687 Y10.872397 Z-10.518632 E0.098719340574 F900.000000
; PAC POINT 112 point-0000112 deposition PA T2
G1 A-85.450548 C-72.150934 X27.091986 Y9.177655 Z-11.646292 E0.098720547549 F900.000000
; PAC POINT 113 point-0000113 deposition PA T2
G1 A-86.631821 C-70.979431 X29.442475 Y7.588168 Z-12.392482 E0.098721076440 F900.000000
; PAC POINT 114 point-0000114 deposition PA T2
G1 A-87.664973 C-70.591618 X32.060328 Y6.144719 Z-12.721271 E0.098720930974 F900.000000
; PAC POINT 115 point-0000115 deposition PA T2
G1 A-88.514391 C-71.040885 X34.957837 Y4.882897 Z-12.536236 E0.098719615317 F900.000000
; PAC POINT 116 point-0000116 deposition PA T2
G1 A-89.189774 C-72.560761 X38.170565 Y3.824693 Z-11.613614 E0.098717019526 F900.000000
; PAC POINT 117 point-0000117 deposition PA T2
G1 A-89.654373 C-75.091038 X41.620050 Y3.004508 Z-9.875444 E0.098710060239 F900.000000
; PAC POINT 118 point-0000118 deposition PA T2
G1 A-89.913264 C-78.814372 X45.225707 Y2.434698 Z-7.059804 E0.098696921334 F900.000000
; PAC POINT 119 point-0000119 deposition PA T2
G1 A-90.000842 C-83.777195 X48.787433 Y2.106796 Z-2.983949 E0.098678817141 F900.000000
; PAC POINT 120 point-0000120 deposition PA T2
G1 A-90.000000 C-90.000000 X52.000000 Y2.000000 Z2.500000 E0.098662400051 F900.000000
; PAC EVENT event-0000010 retract
; PAC EVENT_CONTEXT {"extrusion_length_mm":-1.0,"sequence_index":120}
G1 E-1.000000000000 F3000.000000
; PAC POINT 121 point-0000121 travel - -
G1 A-90.000000 C-90.000000 X52.000000 Y2.600000 Z2.500000 F3000.000000
; PAC EVENT material-0004-prepare_pause prepare_pause
; PAC EVENT_CONTEXT {"channel_id":"T3","material_id":"ABS","material_plan_id":"impeller-materials","sensor_required":true,"sequence_index":121,"tool_command":"T3"}
M0 ; operator material preparation
; PAC EVENT material-0004-retract retract
; PAC EVENT_CONTEXT {"channel_id":"T3","extrusion_length_mm":-1.0,"material_id":"ABS","material_plan_id":"impeller-materials","sensor_required":true,"sequence_index":121,"tool_command":"T3"}
G1 E-1.000000000000 F900.000000
; PAC EVENT material-0004-cut cut
; PAC EVENT_CONTEXT {"channel_id":"T3","material_id":"ABS","material_plan_id":"impeller-materials","sensor_required":true,"sequence_index":121,"tool_command":"T3"}
M98 P100 ; OFFLINE _5AXIS_CUT macro semantic
; PAC EVENT material-0004-park park
; PAC EVENT_CONTEXT {"channel_id":"T3","material_id":"ABS","material_plan_id":"impeller-materials","sensor_required":true,"sequence_index":121,"tool_command":"T3"}
G91
G1 Z20.000000 F900.000000
G90
; PAC EVENT material-0004-switch switch
; PAC EVENT_CONTEXT {"channel_id":"T3","material_id":"ABS","material_plan_id":"impeller-materials","sensor_required":true,"sequence_index":121,"tool_command":"T3"}
T3
; PAC EVENT material-0004-load load
; PAC EVENT_CONTEXT {"channel_id":"T3","extrusion_length_mm":0.0,"material_id":"ABS","material_plan_id":"impeller-materials","sensor_required":true,"sequence_index":121,"tool_command":"T3"}
G1 E0.000000000000 F900.000000
; PAC EVENT material-0004-temperature_wait temperature_wait
; PAC EVENT_CONTEXT {"channel_id":"T3","material_id":"ABS","material_plan_id":"impeller-materials","sensor_required":true,"sequence_index":121,"target_temperature_c":250.0,"timeout_s":180.0,"tool_command":"T3"}
M109 S250.000
; PAC EVENT material-0004-purge purge
; PAC EVENT_CONTEXT {"channel_id":"T3","extrusion_length_mm":8.0,"material_id":"ABS","material_plan_id":"impeller-materials","sensor_required":true,"sequence_index":121,"tool_command":"T3"}
G1 E8.000000000000 F900.000000
; PAC EVENT material-0004-prime prime
; PAC EVENT_CONTEXT {"channel_id":"T3","extrusion_length_mm":1.0,"material_id":"ABS","material_plan_id":"impeller-materials","sensor_required":true,"sequence_index":121,"tool_command":"T3"}
G1 E1.000000000000 F900.000000
; PAC EVENT material-0004-resume resume
; PAC EVENT_CONTEXT {"channel_id":"T3","material_id":"ABS","material_plan_id":"impeller-materials","sensor_required":true,"sequence_index":121,"tool_command":"T3"}
M98 P101 ; OFFLINE _5AXIS_RESUME macro semantic
; PAC EVENT event-0000011 prime
; PAC EVENT_CONTEXT {"extrusion_length_mm":1.0,"sequence_index":121}
G1 E1.000000000000 F900.000000
; PAC POINT 122 point-0000122 deposition ABS T3
G1 A-90.001768 C-83.853040 X48.836506 Y2.704073 Z-2.919373 E0.097247926273 F900.000000
; PAC POINT 123 point-0000123 deposition ABS T3
G1 A-89.917124 C-78.905556 X45.323944 Y3.026988 Z-6.987935 E0.097295692646 F900.000000
; PAC POINT 124 point-0000124 deposition ABS T3
G1 A-89.661140 C-75.148013 X41.754764 Y3.590138 Z-9.834381 E0.097380753059 F900.000000
; PAC POINT 125 point-0000125 deposition ABS T3
G1 A-89.197895 C-72.557476 X38.329021 Y4.401277 Z-11.616390 E0.097458035622 F900.000000
; PAC POINT 126 point-0000126 deposition ABS T3
G1 A-88.519514 C-70.954020 X35.128757 Y5.451015 Z-12.589808 E0.097524907890 F900.000000
; PAC POINT 127 point-0000127 deposition ABS T3
G1 A-87.661795 C-70.403422 X32.236255 Y6.705948 Z-12.826422 E0.097575649636 F900.000000
; PAC POINT 128 point-0000128 deposition ABS T3
G1 A-86.616701 C-70.689099 X29.622847 Y8.143489 Z-12.539797 E0.097615237946 F900.000000
; PAC POINT 129 point-0000129 deposition ABS T3
G1 A-85.416983 C-71.747237 X27.275637 Y9.728697 Z-11.831682 E0.097647054381 F900.000000
; PAC POINT 130 point-0000130 deposition ABS T3
G1 A-84.115030 C-73.628977 X25.198406 Y11.419818 Z-10.736442 E0.097668952057 F900.000000
; PAC POINT 131 point-0000131 deposition ABS T3
G1 A-82.702189 C-76.174012 X23.335461 Y13.201851 Z-9.364394 E0.097686405957 F900.000000
; PAC POINT 132 point-0000132 deposition ABS T3
G1 A-81.218156 C-79.366266 X21.666898 Y15.047774 Z-7.759809 E0.097705477569 F900.000000
; PAC POINT 133 point-0000133 deposition ABS T3
G1 A-79.721081 C-83.254848 X20.185453 Y16.929469 Z-5.943907 E0.097725342965 F900.000000
; PAC POINT 134 point-0000134 deposition ABS T3
G1 A-78.197159 C-87.702138 X18.849036 Y18.846540 Z-3.983250 E0.097745119951 F900.000000
; PAC POINT 135 point-0000135 deposition ABS T3
G1 A-76.701419 C-92.726445 X17.651705 Y20.784009 Z-1.906212 E0.097769980692 F900.000000
; PAC POINT 136 point-0000136 deposition ABS T3
G1 A-75.294745 C-98.364689 X16.591251 Y22.732821 Z0.260686 E0.097796937264 F900.000000
; PAC POINT 137 point-0000137 deposition ABS T3
G1 A-73.924338 C-104.454370 X15.642968 Y24.706222 Z2.477753 E0.097827095336 F900.000000
; PAC POINT 138 point-0000138 deposition ABS T3
G1 A-72.644791 C-111.025595 X14.814683 Y26.699227 Z4.722203 E0.097863818286 F900.000000
; PAC POINT 139 point-0000139 deposition ABS T3
G1 A-71.490842 C-118.105130 X14.113499 Y28.710948 Z6.978707 E0.097900115607 F900.000000
; PAC POINT 140 point-0000140 deposition ABS T3
G1 A-70.379262 C-125.608716 X13.538418 Y30.736459 Z9.264723 E0.097937077026 F900.000000
; PAC POINT 141 point-0000141 deposition ABS T3
G1 A-69.369577 C-133.638756 X13.101749 Y32.763076 Z11.574464 E0.097977882694 F900.000000
; PAC POINT 142 point-0000142 deposition ABS T3
G1 A-68.490047 C-142.292080 X12.807320 Y34.776608 Z13.916291 E0.098010184390 F900.000000
; PAC POINT 143 point-0000143 deposition ABS T3
G1 A-67.766923 C-151.664894 X12.647919 Y36.761881 Z16.297196 E0.098034578999 F900.000000
; PAC POINT 144 point-0000144 deposition ABS T3
G1 A-67.392325 C-161.883669 X12.600707 Y38.748933 Z18.621954 E0.098057423081 F900.000000
; PAC EVENT event-0000012 retract
; PAC EVENT_CONTEXT {"extrusion_length_mm":-1.0,"sequence_index":144}
G1 E-1.000000000000 F3000.000000
; PAC POINT 145 point-0000145 travel - -
G1 A-90.000000 C-135.000000 X52.000000 Y2.000000 Z2.500000 F3000.000000
; PAC EVENT event-0000013 prime
; PAC EVENT_CONTEXT {"extrusion_length_mm":1.0,"sequence_index":145}
G1 E1.000000000000 F900.000000
; PAC POINT 146 point-0000146 deposition ABS T3
G1 A-90.000842 C-128.777195 X48.787433 Y2.106796 Z-2.983949 E0.098662400051 F900.000000
; PAC POINT 147 point-0000147 deposition ABS T3
G1 A-89.913264 C-123.814372 X45.225707 Y2.434698 Z-7.059804 E0.098678817140 F900.000000
; PAC POINT 148 point-0000148 deposition ABS T3
G1 A-89.654373 C-120.091038 X41.620050 Y3.004508 Z-9.875444 E0.098696921335 F900.000000
; PAC POINT 149 point-0000149 deposition ABS T3
G1 A-89.189774 C-117.560761 X38.170565 Y3.824693 Z-11.613614 E0.098710060239 F900.000000
; PAC POINT 150 point-0000150 deposition ABS T3
G1 A-88.514391 C-116.040885 X34.957837 Y4.882897 Z-12.536236 E0.098717019526 F900.000000
; PAC POINT 151 point-0000151 deposition ABS T3
G1 A-87.664973 C-115.591618 X32.060328 Y6.144719 Z-12.721271 E0.098719615317 F900.000000
; PAC POINT 152 point-0000152 deposition ABS T3
G1 A-86.631821 C-115.979431 X29.442475 Y7.588168 Z-12.392482 E0.098720930974 F900.000000
; PAC POINT 153 point-0000153 deposition ABS T3
G1 A-85.450548 C-117.150934 X27.091986 Y9.177655 Z-11.646292 E0.098721076440 F900.000000
; PAC POINT 154 point-0000154 deposition ABS T3
G1 A-84.173641 C-119.154852 X25.009687 Y10.872397 Z-10.518632 E0.098720547549 F900.000000
; PAC POINT 155 point-0000155 deposition ABS T3
G1 A-82.791019 C-121.820343 X23.136659 Y12.659077 Z-9.124415 E0.098719340574 F900.000000
; PAC POINT 156 point-0000156 deposition ABS T3
G1 A-81.348077 C-125.143065 X21.455006 Y14.510361 Z-7.504370 E0.098718186521 F900.000000
; PAC POINT 157 point-0000157 deposition ABS T3
G1 A-79.903609 C-129.165336 X19.955069 Y16.400471 Z-5.683072 E0.098717570395 F900.000000
; PAC POINT 158 point-0000158 deposition ABS T3
G1 A-78.444258 C-133.740461 X18.594067 Y18.331235 Z-3.731144 E0.098716468658 F900.000000
; PAC POINT 159 point-0000159 deposition ABS T3
G1 A-77.034138 C-138.895442 X17.368038 Y20.288814 Z-1.677527 E0.098716246500 F900.000000
; PAC POINT 160 point-0000160 deposition ABS T3
G1 A-75.731578 C-144.649035 X16.272848 Y22.268918 Z0.445809 E0.098716441662 F900.000000
; PAC POINT 161 point-0000161 deposition ABS T3
G1 A-74.484449 C-150.827947 X15.285488 Y24.287256 Z2.595063 E0.098716496601 F900.000000
; PAC POINT 162 point-0000162 deposition ABS T3
G1 A-73.358620 C-157.465666 X14.415644 Y26.341434 Z4.743149 E0.098718706917 F900.000000
; PAC POINT 163 point-0000163 deposition ABS T3
G1 A-72.377405 C-164.558326 X13.671077 Y28.435926 Z6.871631 E0.098719998066 F900.000000
; PAC POINT 164 point-0000164 deposition ABS T3
G1 A-71.461512 C-172.013279 X13.052944 Y30.567881 Z8.993843 E0.098721338644 F900.000000
; PAC POINT 165 point-0000165 deposition ABS T3
G1 A-70.677832 C-179.919019 X12.574445 Y32.729542 Z11.096426 E0.098724610623 F900.000000
; PAC POINT 166 point-0000166 deposition ABS T3
G1 A-70.027495 C-188.330323 X12.244068 Y34.909299 Z13.193633 E0.098725561291 F900.000000
; PAC POINT 167 point-0000167 deposition ABS T3
G1 A-69.531132 C-197.323780 X12.057448 Y37.092924 Z15.292439 E0.098726410891 F900.000000
; PAC POINT 168 point-0000168 deposition ABS T3
G1 A-69.343889 C-206.999992 X12.000000 Y39.300010 Z17.315844 E0.098727812136 F900.000000
; PAC EVENT event-0000014 retract
; PAC EVENT_CONTEXT {"extrusion_length_mm":-1.0,"sequence_index":168}
G1 E-1.000000000000 F3000.000000
; PAC POINT 169 point-0000169 travel - -
G1 A-67.392325 C-206.883669 X12.600707 Y38.748933 Z18.621954 F3000.000000
; PAC EVENT material-0005-retract retract
; PAC EVENT_CONTEXT {"channel_id":"T0","extrusion_length_mm":-1.0,"material_id":"PLA","material_plan_id":"impeller-materials","sensor_required":true,"sequence_index":169,"tool_command":"T0"}
G1 E-1.000000000000 F900.000000
; PAC EVENT material-0005-cut cut
; PAC EVENT_CONTEXT {"channel_id":"T0","material_id":"PLA","material_plan_id":"impeller-materials","sensor_required":true,"sequence_index":169,"tool_command":"T0"}
M98 P100 ; OFFLINE _5AXIS_CUT macro semantic
; PAC EVENT material-0005-park park
; PAC EVENT_CONTEXT {"channel_id":"T0","material_id":"PLA","material_plan_id":"impeller-materials","sensor_required":true,"sequence_index":169,"tool_command":"T0"}
G91
G1 Z20.000000 F900.000000
G90
; PAC EVENT material-0005-switch switch
; PAC EVENT_CONTEXT {"channel_id":"T0","material_id":"PLA","material_plan_id":"impeller-materials","sensor_required":true,"sequence_index":169,"tool_command":"T0"}
T0
; PAC EVENT material-0005-load load
; PAC EVENT_CONTEXT {"channel_id":"T0","extrusion_length_mm":0.0,"material_id":"PLA","material_plan_id":"impeller-materials","sensor_required":true,"sequence_index":169,"tool_command":"T0"}
G1 E0.000000000000 F900.000000
; PAC EVENT material-0005-temperature_wait temperature_wait
; PAC EVENT_CONTEXT {"channel_id":"T0","material_id":"PLA","material_plan_id":"impeller-materials","sensor_required":true,"sequence_index":169,"target_temperature_c":195.0,"timeout_s":180.0,"tool_command":"T0"}
M109 S195.000
; PAC EVENT material-0005-purge purge
; PAC EVENT_CONTEXT {"channel_id":"T0","extrusion_length_mm":5.0,"material_id":"PLA","material_plan_id":"impeller-materials","sensor_required":true,"sequence_index":169,"tool_command":"T0"}
G1 E5.000000000000 F900.000000
; PAC EVENT material-0005-prime prime
; PAC EVENT_CONTEXT {"channel_id":"T0","extrusion_length_mm":1.0,"material_id":"PLA","material_plan_id":"impeller-materials","sensor_required":true,"sequence_index":169,"tool_command":"T0"}
G1 E1.000000000000 F900.000000
; PAC EVENT material-0005-resume resume
; PAC EVENT_CONTEXT {"channel_id":"T0","material_id":"PLA","material_plan_id":"impeller-materials","sensor_required":true,"sequence_index":169,"tool_command":"T0"}
M98 P101 ; OFFLINE _5AXIS_RESUME macro semantic
; PAC EVENT event-0000015 prime
; PAC EVENT_CONTEXT {"extrusion_length_mm":1.0,"sequence_index":169}
G1 E1.000000000000 F900.000000
; PAC POINT 170 point-0000170 deposition PLA T0
G1 A-67.766923 C-196.664894 X12.647919 Y36.761881 Z16.297196 E0.098057423081 F900.000000
; PAC POINT 171 point-0000171 deposition PLA T0
G1 A-68.490047 C-187.292080 X12.807320 Y34.776608 Z13.916291 E0.098034578999 F900.000000
; PAC POINT 172 point-0000172 deposition PLA T0
G1 A-69.369577 C-178.638756 X13.101749 Y32.763076 Z11.574464 E0.098010184390 F900.000000
; PAC POINT 173 point-0000173 deposition PLA T0
G1 A-70.379262 C-170.608716 X13.538418 Y30.736459 Z9.264723 E0.097977882694 F900.000000
; PAC POINT 174 point-0000174 deposition PLA T0
G1 A-71.490842 C-163.105130 X14.113499 Y28.710948 Z6.978707 E0.097937077137 F900.000000
; PAC POINT 175 point-0000175 deposition PLA T0
G1 A-72.644791 C-156.025595 X14.814683 Y26.699227 Z4.722203 E0.097900115493 F900.000000
; PAC POINT 176 point-0000176 deposition PLA T0
G1 A-73.924338 C-149.454370 X15.642968 Y24.706222 Z2.477753 E0.097863818286 F900.000000
; PAC POINT 177 point-0000177 deposition PLA T0
G1 A-75.294745 C-143.364689 X16.591251 Y22.732821 Z0.260686 E0.097827095336 F900.000000
; PAC POINT 178 point-0000178 deposition PLA T0
G1 A-76.701419 C-137.726445 X17.651705 Y20.784009 Z-1.906212 E0.097796937264 F900.000000
; PAC POINT 179 point-0000179 deposition PLA T0
G1 A-78.197159 C-132.702138 X18.849036 Y18.846540 Z-3.983250 E0.097769980692 F900.000000
; PAC POINT 180 point-0000180 deposition PLA T0
G1 A-79.721081 C-128.254848 X20.185453 Y16.929469 Z-5.943907 E0.097745119951 F900.000000
; PAC POINT 181 point-0000181 deposition PLA T0
G1 A-81.218156 C-124.366266 X21.666898 Y15.047774 Z-7.759809 E0.097725342965 F900.000000
; PAC POINT 182 point-0000182 deposition PLA T0
G1 A-82.702189 C-121.174012 X23.335461 Y13.201851 Z-9.364394 E0.097705477569 F900.000000
; PAC POINT 183 point-0000183 deposition PLA T0
G1 A-84.115030 C-118.628977 X25.198406 Y11.419818 Z-10.736442 E0.097686405957 F900.000000
; PAC POINT 184 point-0000184 deposition PLA T0
G1 A-85.416983 C-116.747237 X27.275637 Y9.728697 Z-11.831682 E0.097668952057 F900.000000
; PAC POINT 185 point-0000185 deposition PLA T0
G1 A-86.616701 C-115.689099 X29.622847 Y8.143489 Z-12.539797 E0.097647054381 F900.000000
; PAC POINT 186 point-0000186 deposition PLA T0
G1 A-87.661795 C-115.403422 X32.236255 Y6.705948 Z-12.826422 E0.097615237946 F900.000000
; PAC POINT 187 point-0000187 deposition PLA T0
G1 A-88.519514 C-115.954020 X35.128757 Y5.451015 Z-12.589808 E0.097575649636 F900.000000
; PAC POINT 188 point-0000188 deposition PLA T0
G1 A-89.197895 C-117.557476 X38.329021 Y4.401277 Z-11.616390 E0.097524907890 F900.000000
; PAC POINT 189 point-0000189 deposition PLA T0
G1 A-89.661140 C-120.148013 X41.754764 Y3.590138 Z-9.834381 E0.097458035622 F900.000000
; PAC POINT 190 point-0000190 deposition PLA T0
G1 A-89.917124 C-123.905556 X45.323944 Y3.026988 Z-6.987935 E0.097380753059 F900.000000
; PAC POINT 191 point-0000191 deposition PLA T0
G1 A-90.001768 C-128.853040 X48.836506 Y2.704073 Z-2.919373 E0.097295692646 F900.000000
; PAC POINT 192 point-0000192 deposition PLA T0
G1 A-90.000000 C-135.000000 X52.000000 Y2.600000 Z2.500000 E0.097247926273 F900.000000
; PAC EVENT event-0000016 retract
; PAC EVENT_CONTEXT {"extrusion_length_mm":-1.0,"sequence_index":192}
G1 E-1.000000000000 F3000.000000
; PAC POINT 193 point-0000193 travel - -
G1 A-69.343889 C-251.999992 X12.000000 Y39.300010 Z17.315844 F3000.000000
; PAC EVENT event-0000017 prime
; PAC EVENT_CONTEXT {"extrusion_length_mm":1.0,"sequence_index":193}
G1 E1.000000000000 F900.000000
; PAC POINT 194 point-0000194 deposition PLA T0
G1 A-69.531132 C-242.323780 X12.057448 Y37.092924 Z15.292439 E0.098727812136 F900.000000
; PAC POINT 195 point-0000195 deposition PLA T0
G1 A-70.027495 C-233.330323 X12.244068 Y34.909299 Z13.193633 E0.098726410891 F900.000000
; PAC POINT 196 point-0000196 deposition PLA T0
G1 A-70.677832 C-224.919019 X12.574445 Y32.729542 Z11.096426 E0.098725561291 F900.000000
; PAC POINT 197 point-0000197 deposition PLA T0
G1 A-71.461512 C-217.013279 X13.052944 Y30.567881 Z8.993843 E0.098724610624 F900.000000
; PAC POINT 198 point-0000198 deposition PLA T0
G1 A-72.377403 C-209.558341 X13.671076 Y28.435930 Z6.871636 E0.098721137032 F900.000000
; PAC POINT 199 point-0000199 deposition PLA T0
G1 A-73.358620 C-202.465666 X14.415644 Y26.341434 Z4.743149 E0.098720199666 F900.000000
; PAC POINT 200 point-0000200 deposition PLA T0
G1 A-74.484449 C-195.827947 X15.285488 Y24.287256 Z2.595063 E0.098718706917 F900.000000
; PAC POINT 201 point-0000201 deposition PLA T0
G1 A-75.731578 C-189.649035 X16.272848 Y22.268918 Z0.445809 E0.098716496602 F900.000000
; PAC POINT 202 point-0000202 deposition PLA T0
G1 A-77.034138 C-183.895442 X17.368038 Y20.288814 Z-1.677527 E0.098716441662 F900.000000
; PAC POINT 203 point-0000203 deposition PLA T0
G1 A-78.444258 C-178.740461 X18.594067 Y18.331235 Z-3.731144 E0.098716246500 F900.000000
; PAC POINT 204 point-0000204 deposition PLA T0
G1 A-79.903609 C-174.165336 X19.955069 Y16.400471 Z-5.683072 E0.098716468658 F900.000000
; PAC POINT 205 point-0000205 deposition PLA T0
G1 A-81.348077 C-170.143065 X21.455006 Y14.510361 Z-7.504370 E0.098717570395 F900.000000
; PAC POINT 206 point-0000206 deposition PLA T0
G1 A-82.791019 C-166.820343 X23.136659 Y12.659077 Z-9.124415 E0.098718186521 F900.000000
; PAC POINT 207 point-0000207 deposition PLA T0
G1 A-84.173641 C-164.154852 X25.009687 Y10.872397 Z-10.518632 E0.098719340574 F900.000000
; PAC POINT 208 point-0000208 deposition PLA T0
G1 A-85.450548 C-162.150934 X27.091986 Y9.177655 Z-11.646292 E0.098720547549 F900.000000
; PAC POINT 209 point-0000209 deposition PLA T0
G1 A-86.631821 C-160.979431 X29.442475 Y7.588168 Z-12.392482 E0.098721076440 F900.000000
; PAC POINT 210 point-0000210 deposition PLA T0
G1 A-87.664973 C-160.591618 X32.060328 Y6.144719 Z-12.721271 E0.098720930974 F900.000000
; PAC POINT 211 point-0000211 deposition PLA T0
G1 A-88.514391 C-161.040885 X34.957837 Y4.882897 Z-12.536236 E0.098719615317 F900.000000
; PAC POINT 212 point-0000212 deposition PLA T0
G1 A-89.189774 C-162.560761 X38.170565 Y3.824693 Z-11.613614 E0.098717019526 F900.000000
; PAC POINT 213 point-0000213 deposition PLA T0
G1 A-89.654373 C-165.091038 X41.620050 Y3.004508 Z-9.875444 E0.098710060239 F900.000000
; PAC POINT 214 point-0000214 deposition PLA T0
G1 A-89.913264 C-168.814372 X45.225707 Y2.434698 Z-7.059804 E0.098696921334 F900.000000
; PAC POINT 215 point-0000215 deposition PLA T0
G1 A-90.000842 C-173.777195 X48.787433 Y2.106796 Z-2.983949 E0.098678817141 F900.000000
; PAC POINT 216 point-0000216 deposition PLA T0
G1 A-90.000000 C-180.000000 X52.000000 Y2.000000 Z2.500000 E0.098662400051 F900.000000
; PAC EVENT event-0000018 retract
; PAC EVENT_CONTEXT {"extrusion_length_mm":-1.0,"sequence_index":216}
G1 E-1.000000000000 F3000.000000
; PAC POINT 217 point-0000217 travel - -
G1 A-90.000000 C-180.000000 X52.000000 Y2.600000 Z2.500000 F3000.000000
; PAC EVENT material-0006-retract retract
; PAC EVENT_CONTEXT {"channel_id":"T1","extrusion_length_mm":-1.0,"material_id":"PETG","material_plan_id":"impeller-materials","sensor_required":true,"sequence_index":217,"tool_command":"T1"}
G1 E-1.000000000000 F900.000000
; PAC EVENT material-0006-cut cut
; PAC EVENT_CONTEXT {"channel_id":"T1","material_id":"PETG","material_plan_id":"impeller-materials","sensor_required":true,"sequence_index":217,"tool_command":"T1"}
M98 P100 ; OFFLINE _5AXIS_CUT macro semantic
; PAC EVENT material-0006-park park
; PAC EVENT_CONTEXT {"channel_id":"T1","material_id":"PETG","material_plan_id":"impeller-materials","sensor_required":true,"sequence_index":217,"tool_command":"T1"}
G91
G1 Z20.000000 F900.000000
G90
; PAC EVENT material-0006-switch switch
; PAC EVENT_CONTEXT {"channel_id":"T1","material_id":"PETG","material_plan_id":"impeller-materials","sensor_required":true,"sequence_index":217,"tool_command":"T1"}
T1
; PAC EVENT material-0006-load load
; PAC EVENT_CONTEXT {"channel_id":"T1","extrusion_length_mm":0.0,"material_id":"PETG","material_plan_id":"impeller-materials","sensor_required":true,"sequence_index":217,"tool_command":"T1"}
G1 E0.000000000000 F900.000000
; PAC EVENT material-0006-temperature_wait temperature_wait
; PAC EVENT_CONTEXT {"channel_id":"T1","material_id":"PETG","material_plan_id":"impeller-materials","sensor_required":true,"sequence_index":217,"target_temperature_c":235.0,"timeout_s":180.0,"tool_command":"T1"}
M109 S235.000
; PAC EVENT material-0006-purge purge
; PAC EVENT_CONTEXT {"channel_id":"T1","extrusion_length_mm":6.0,"material_id":"PETG","material_plan_id":"impeller-materials","sensor_required":true,"sequence_index":217,"tool_command":"T1"}
G1 E6.000000000000 F900.000000
; PAC EVENT material-0006-prime prime
; PAC EVENT_CONTEXT {"channel_id":"T1","extrusion_length_mm":1.0,"material_id":"PETG","material_plan_id":"impeller-materials","sensor_required":true,"sequence_index":217,"tool_command":"T1"}
G1 E1.000000000000 F900.000000
; PAC EVENT material-0006-resume resume
; PAC EVENT_CONTEXT {"channel_id":"T1","material_id":"PETG","material_plan_id":"impeller-materials","sensor_required":true,"sequence_index":217,"tool_command":"T1"}
M98 P101 ; OFFLINE _5AXIS_RESUME macro semantic
; PAC EVENT event-0000019 prime
; PAC EVENT_CONTEXT {"extrusion_length_mm":1.0,"sequence_index":217}
G1 E1.000000000000 F900.000000
; PAC POINT 218 point-0000218 deposition PETG T1
G1 A-90.001768 C-173.853040 X48.836506 Y2.704073 Z-2.919373 E0.097247926273 F900.000000
; PAC POINT 219 point-0000219 deposition PETG T1
G1 A-89.917124 C-168.905556 X45.323944 Y3.026988 Z-6.987935 E0.097295692646 F900.000000
; PAC POINT 220 point-0000220 deposition PETG T1
G1 A-89.661140 C-165.148013 X41.754764 Y3.590138 Z-9.834381 E0.097380753059 F900.000000
; PAC POINT 221 point-0000221 deposition PETG T1
G1 A-89.197895 C-162.557476 X38.329021 Y4.401277 Z-11.616390 E0.097458035622 F900.000000
; PAC POINT 222 point-0000222 deposition PETG T1
G1 A-88.519514 C-160.954020 X35.128757 Y5.451015 Z-12.589808 E0.097524907890 F900.000000
; PAC POINT 223 point-0000223 deposition PETG T1
G1 A-87.661795 C-160.403422 X32.236255 Y6.705948 Z-12.826422 E0.097575649636 F900.000000
; PAC POINT 224 point-0000224 deposition PETG T1
G1 A-86.616701 C-160.689099 X29.622847 Y8.143489 Z-12.539797 E0.097615237946 F900.000000
; PAC POINT 225 point-0000225 deposition PETG T1
G1 A-85.416983 C-161.747237 X27.275637 Y9.728697 Z-11.831682 E0.097647054381 F900.000000
; PAC POINT 226 point-0000226 deposition PETG T1
G1 A-84.115030 C-163.628977 X25.198406 Y11.419818 Z-10.736442 E0.097668952057 F900.000000
; PAC POINT 227 point-0000227 deposition PETG T1
G1 A-82.702189 C-166.174012 X23.335461 Y13.201851 Z-9.364394 E0.097686405957 F900.000000
; PAC POINT 228 point-0000228 deposition PETG T1
G1 A-81.218156 C-169.366266 X21.666898 Y15.047774 Z-7.759809 E0.097705477569 F900.000000
; PAC POINT 229 point-0000229 deposition PETG T1
G1 A-79.721081 C-173.254848 X20.185453 Y16.929469 Z-5.943907 E0.097725342965 F900.000000
; PAC POINT 230 point-0000230 deposition PETG T1
G1 A-78.197159 C-177.702138 X18.849036 Y18.846540 Z-3.983250 E0.097745119951 F900.000000
; PAC POINT 231 point-0000231 deposition PETG T1
G1 A-76.701419 C-182.726445 X17.651705 Y20.784009 Z-1.906212 E0.097769980692 F900.000000
; PAC POINT 232 point-0000232 deposition PETG T1
G1 A-75.294745 C-188.364689 X16.591251 Y22.732821 Z0.260686 E0.097796937264 F900.000000
; PAC POINT 233 point-0000233 deposition PETG T1
G1 A-73.924338 C-194.454370 X15.642968 Y24.706222 Z2.477753 E0.097827095336 F900.000000
; PAC POINT 234 point-0000234 deposition PETG T1
G1 A-72.644791 C-201.025595 X14.814683 Y26.699227 Z4.722203 E0.097863818286 F900.000000
; PAC POINT 235 point-0000235 deposition PETG T1
G1 A-71.490842 C-208.105130 X14.113499 Y28.710948 Z6.978707 E0.097900115607 F900.000000
; PAC POINT 236 point-0000236 deposition PETG T1
G1 A-70.379262 C-215.608716 X13.538418 Y30.736459 Z9.264723 E0.097937077026 F900.000000
; PAC POINT 237 point-0000237 deposition PETG T1
G1 A-69.369577 C-223.638756 X13.101749 Y32.763076 Z11.574464 E0.097977882694 F900.000000
; PAC POINT 238 point-0000238 deposition PETG T1
G1 A-68.490047 C-232.292080 X12.807320 Y34.776608 Z13.916291 E0.098010184390 F900.000000
; PAC POINT 239 point-0000239 deposition PETG T1
G1 A-67.766923 C-241.664894 X12.647919 Y36.761881 Z16.297196 E0.098034578999 F900.000000
; PAC POINT 240 point-0000240 deposition PETG T1
G1 A-67.392325 C-251.883669 X12.600707 Y38.748933 Z18.621954 E0.098057423081 F900.000000
; PAC EVENT event-0000020 retract
; PAC EVENT_CONTEXT {"extrusion_length_mm":-1.0,"sequence_index":240}
G1 E-1.000000000000 F3000.000000
; PAC POINT 241 point-0000241 travel - -
G1 A-90.000000 C-225.000000 X52.000000 Y2.000000 Z2.500000 F3000.000000
; PAC EVENT event-0000021 prime
; PAC EVENT_CONTEXT {"extrusion_length_mm":1.0,"sequence_index":241}
G1 E1.000000000000 F900.000000
; PAC POINT 242 point-0000242 deposition PETG T1
G1 A-90.000842 C-218.777195 X48.787433 Y2.106796 Z-2.983949 E0.098662400052 F900.000000
; PAC POINT 243 point-0000243 deposition PETG T1
G1 A-89.913264 C-213.814372 X45.225707 Y2.434698 Z-7.059804 E0.098678817139 F900.000000
; PAC POINT 244 point-0000244 deposition PETG T1
G1 A-89.654373 C-210.091038 X41.620050 Y3.004508 Z-9.875444 E0.098696921335 F900.000000
; PAC POINT 245 point-0000245 deposition PETG T1
G1 A-89.189774 C-207.560761 X38.170565 Y3.824693 Z-11.613614 E0.098710060239 F900.000000
; PAC POINT 246 point-0000246 deposition PETG T1
G1 A-88.514391 C-206.040885 X34.957837 Y4.882897 Z-12.536236 E0.098717019526 F900.000000
; PAC POINT 247 point-0000247 deposition PETG T1
G1 A-87.664973 C-205.591618 X32.060328 Y6.144719 Z-12.721271 E0.098719615317 F900.000000
; PAC POINT 248 point-0000248 deposition PETG T1
G1 A-86.631821 C-205.979431 X29.442475 Y7.588168 Z-12.392482 E0.098720930974 F900.000000
; PAC POINT 249 point-0000249 deposition PETG T1
G1 A-85.450548 C-207.150934 X27.091986 Y9.177655 Z-11.646292 E0.098721076440 F900.000000
; PAC POINT 250 point-0000250 deposition PETG T1
G1 A-84.173641 C-209.154852 X25.009687 Y10.872397 Z-10.518632 E0.098720547549 F900.000000
; PAC POINT 251 point-0000251 deposition PETG T1
G1 A-82.791019 C-211.820343 X23.136659 Y12.659077 Z-9.124415 E0.098719340574 F900.000000
; PAC POINT 252 point-0000252 deposition PETG T1
G1 A-81.348077 C-215.143065 X21.455006 Y14.510361 Z-7.504370 E0.098718186521 F900.000000
; PAC POINT 253 point-0000253 deposition PETG T1
G1 A-79.903609 C-219.165336 X19.955069 Y16.400471 Z-5.683072 E0.098717570395 F900.000000
; PAC POINT 254 point-0000254 deposition PETG T1
G1 A-78.444258 C-223.740461 X18.594067 Y18.331235 Z-3.731144 E0.098716468658 F900.000000
; PAC POINT 255 point-0000255 deposition PETG T1
G1 A-77.034138 C-228.895442 X17.368038 Y20.288814 Z-1.677527 E0.098716246500 F900.000000
; PAC POINT 256 point-0000256 deposition PETG T1
G1 A-75.731578 C-234.649035 X16.272848 Y22.268918 Z0.445809 E0.098716441662 F900.000000
; PAC POINT 257 point-0000257 deposition PETG T1
G1 A-74.484447 C-240.827959 X15.285486 Y24.287260 Z2.595067 E0.098716691358 F900.000000
; PAC POINT 258 point-0000258 deposition PETG T1
G1 A-73.358620 C-247.465666 X14.415644 Y26.341434 Z4.743149 E0.098718512157 F900.000000
; PAC POINT 259 point-0000259 deposition PETG T1
G1 A-72.377403 C-254.558341 X13.671076 Y28.435930 Z6.871636 E0.098720199666 F900.000000
; PAC POINT 260 point-0000260 deposition PETG T1
G1 A-71.461512 C-262.013279 X13.052944 Y30.567881 Z8.993843 E0.098721137032 F900.000000
; PAC POINT 261 point-0000261 deposition PETG T1
G1 A-70.677832 C-269.919019 X12.574445 Y32.729542 Z11.096426 E0.098724610624 F900.000000
; PAC POINT 262 point-0000262 deposition PETG T1
G1 A-70.027495 C-278.330323 X12.244068 Y34.909299 Z13.193633 E0.098725561291 F900.000000
; PAC POINT 263 point-0000263 deposition PETG T1
G1 A-69.531132 C-287.323780 X12.057448 Y37.092924 Z15.292439 E0.098726410895 F900.000000
; PAC POINT 264 point-0000264 deposition PETG T1
G1 A-69.343889 C-296.999992 X12.000000 Y39.300010 Z17.315844 E0.098727812132 F900.000000
; PAC EVENT event-0000022 retract
; PAC EVENT_CONTEXT {"extrusion_length_mm":-1.0,"sequence_index":264}
G1 E-1.000000000000 F3000.000000
; PAC POINT 265 point-0000265 travel - -
G1 A-67.392325 C-296.883669 X12.600707 Y38.748933 Z18.621954 F3000.000000
; PAC EVENT material-0007-prepare_pause prepare_pause
; PAC EVENT_CONTEXT {"channel_id":"T2","material_id":"PA","material_plan_id":"impeller-materials","sensor_required":true,"sequence_index":265,"tool_command":"T2"}
M0 ; operator material preparation
; PAC EVENT material-0007-retract retract
; PAC EVENT_CONTEXT {"channel_id":"T2","extrusion_length_mm":-1.0,"material_id":"PA","material_plan_id":"impeller-materials","sensor_required":true,"sequence_index":265,"tool_command":"T2"}
G1 E-1.000000000000 F900.000000
; PAC EVENT material-0007-cut cut
; PAC EVENT_CONTEXT {"channel_id":"T2","material_id":"PA","material_plan_id":"impeller-materials","sensor_required":true,"sequence_index":265,"tool_command":"T2"}
M98 P100 ; OFFLINE _5AXIS_CUT macro semantic
; PAC EVENT material-0007-park park
; PAC EVENT_CONTEXT {"channel_id":"T2","material_id":"PA","material_plan_id":"impeller-materials","sensor_required":true,"sequence_index":265,"tool_command":"T2"}
G91
G1 Z20.000000 F900.000000
G90
; PAC EVENT material-0007-switch switch
; PAC EVENT_CONTEXT {"channel_id":"T2","material_id":"PA","material_plan_id":"impeller-materials","sensor_required":true,"sequence_index":265,"tool_command":"T2"}
T2
; PAC EVENT material-0007-load load
; PAC EVENT_CONTEXT {"channel_id":"T2","extrusion_length_mm":0.0,"material_id":"PA","material_plan_id":"impeller-materials","sensor_required":true,"sequence_index":265,"tool_command":"T2"}
G1 E0.000000000000 F900.000000
; PAC EVENT material-0007-temperature_wait temperature_wait
; PAC EVENT_CONTEXT {"channel_id":"T2","material_id":"PA","material_plan_id":"impeller-materials","sensor_required":true,"sequence_index":265,"target_temperature_c":275.0,"timeout_s":180.0,"tool_command":"T2"}
M109 S275.000
; PAC EVENT material-0007-purge purge
; PAC EVENT_CONTEXT {"channel_id":"T2","extrusion_length_mm":7.0,"material_id":"PA","material_plan_id":"impeller-materials","sensor_required":true,"sequence_index":265,"tool_command":"T2"}
G1 E7.000000000000 F900.000000
; PAC EVENT material-0007-prime prime
; PAC EVENT_CONTEXT {"channel_id":"T2","extrusion_length_mm":1.0,"material_id":"PA","material_plan_id":"impeller-materials","sensor_required":true,"sequence_index":265,"tool_command":"T2"}
G1 E1.000000000000 F900.000000
; PAC EVENT material-0007-resume resume
; PAC EVENT_CONTEXT {"channel_id":"T2","material_id":"PA","material_plan_id":"impeller-materials","sensor_required":true,"sequence_index":265,"tool_command":"T2"}
M98 P101 ; OFFLINE _5AXIS_RESUME macro semantic
; PAC EVENT event-0000023 prime
; PAC EVENT_CONTEXT {"extrusion_length_mm":1.0,"sequence_index":265}
G1 E1.000000000000 F900.000000
; PAC POINT 266 point-0000266 deposition PA T2
G1 A-67.766923 C-286.664894 X12.647919 Y36.761881 Z16.297196 E0.098057423081 F900.000000
; PAC POINT 267 point-0000267 deposition PA T2
G1 A-68.490047 C-277.292080 X12.807320 Y34.776608 Z13.916291 E0.098034578999 F900.000000
; PAC POINT 268 point-0000268 deposition PA T2
G1 A-69.369577 C-268.638756 X13.101749 Y32.763076 Z11.574464 E0.098010184390 F900.000000
; PAC POINT 269 point-0000269 deposition PA T2
G1 A-70.379262 C-260.608716 X13.538418 Y30.736459 Z9.264723 E0.097977882694 F900.000000
; PAC POINT 270 point-0000270 deposition PA T2
G1 A-71.490842 C-253.105130 X14.113499 Y28.710948 Z6.978707 E0.097937077026 F900.000000
; PAC POINT 271 point-0000271 deposition PA T2
G1 A-72.644791 C-246.025595 X14.814683 Y26.699227 Z4.722203 E0.097900115607 F900.000000
; PAC POINT 272 point-0000272 deposition PA T2
G1 A-73.924338 C-239.454370 X15.642968 Y24.706222 Z2.477753 E0.097863818203 F900.000000
; PAC POINT 273 point-0000273 deposition PA T2
G1 A-75.294745 C-233.364689 X16.591251 Y22.732821 Z0.260686 E0.097827095420 F900.000000
; PAC POINT 274 point-0000274 deposition PA T2
G1 A-76.701419 C-227.726445 X17.651705 Y20.784009 Z-1.906212 E0.097796937264 F900.000000
; PAC POINT 275 point-0000275 deposition PA T2
G1 A-78.197159 C-222.702138 X18.849036 Y18.846540 Z-3.983250 E0.097769980692 F900.000000
; PAC POINT 276 point-0000276 deposition PA T2
G1 A-79.721081 C-218.254848 X20.185453 Y16.929469 Z-5.943907 E0.097745119951 F900.000000
; PAC POINT 277 point-0000277 deposition PA T2
G1 A-81.218156 C-214.366266 X21.666898 Y15.047774 Z-7.759809 E0.097725342965 F900.000000
; PAC POINT 278 point-0000278 deposition PA T2
G1 A-82.702189 C-211.174012 X23.335461 Y13.201851 Z-9.364394 E0.097705477569 F900.000000
; PAC POINT 279 point-0000279 deposition PA T2
G1 A-84.115030 C-208.628977 X25.198406 Y11.419818 Z-10.736442 E0.097686405957 F900.000000
; PAC POINT 280 point-0000280 deposition PA T2
G1 A-85.416983 C-206.747237 X27.275637 Y9.728697 Z-11.831682 E0.097668952057 F900.000000
; PAC POINT 281 point-0000281 deposition PA T2
G1 A-86.616701 C-205.689099 X29.622847 Y8.143489 Z-12.539797 E0.097647054381 F900.000000
; PAC POINT 282 point-0000282 deposition PA T2
G1 A-87.661795 C-205.403422 X32.236255 Y6.705948 Z-12.826422 E0.097615237946 F900.000000
; PAC POINT 283 point-0000283 deposition PA T2
G1 A-88.519514 C-205.954020 X35.128757 Y5.451015 Z-12.589808 E0.097575649636 F900.000000
; PAC POINT 284 point-0000284 deposition PA T2
G1 A-89.197895 C-207.557476 X38.329021 Y4.401277 Z-11.616390 E0.097524907890 F900.000000
; PAC POINT 285 point-0000285 deposition PA T2
G1 A-89.661140 C-210.148013 X41.754764 Y3.590138 Z-9.834381 E0.097458035622 F900.000000
; PAC POINT 286 point-0000286 deposition PA T2
G1 A-89.917124 C-213.905556 X45.323944 Y3.026988 Z-6.987935 E0.097380753059 F900.000000
; PAC POINT 287 point-0000287 deposition PA T2
G1 A-90.001768 C-218.853040 X48.836506 Y2.704073 Z-2.919373 E0.097295692646 F900.000000
; PAC POINT 288 point-0000288 deposition PA T2
G1 A-90.000000 C-225.000000 X52.000000 Y2.600000 Z2.500000 E0.097247926273 F900.000000
; PAC EVENT event-0000024 retract
; PAC EVENT_CONTEXT {"extrusion_length_mm":-1.0,"sequence_index":288}
G1 E-1.000000000000 F3000.000000
; PAC POINT 289 point-0000289 travel - -
G1 A-69.343889 C-341.999992 X12.000000 Y39.300010 Z17.315844 F3000.000000
; PAC EVENT event-0000025 prime
; PAC EVENT_CONTEXT {"extrusion_length_mm":1.0,"sequence_index":289}
G1 E1.000000000000 F900.000000
; PAC POINT 290 point-0000290 deposition PA T2
G1 A-69.531132 C-332.323780 X12.057448 Y37.092924 Z15.292439 E0.098727812136 F900.000000
; PAC POINT 291 point-0000291 deposition PA T2
G1 A-70.027495 C-323.330323 X12.244068 Y34.909299 Z13.193633 E0.098726410891 F900.000000
; PAC POINT 292 point-0000292 deposition PA T2
G1 A-70.677832 C-314.919019 X12.574445 Y32.729542 Z11.096426 E0.098725561291 F900.000000
; PAC POINT 293 point-0000293 deposition PA T2
G1 A-71.461512 C-307.013279 X13.052944 Y30.567881 Z8.993843 E0.098724610624 F900.000000
; PAC POINT 294 point-0000294 deposition PA T2
G1 A-72.377405 C-299.558326 X13.671077 Y28.435926 Z6.871631 E0.098721338643 F900.000000
; PAC POINT 295 point-0000295 deposition PA T2
G1 A-73.358620 C-292.465666 X14.415644 Y26.341434 Z4.743149 E0.098719998066 F900.000000
; PAC POINT 296 point-0000296 deposition PA T2
G1 A-74.484449 C-285.827947 X15.285488 Y24.287256 Z2.595063 E0.098718706918 F900.000000
; PAC POINT 297 point-0000297 deposition PA T2
G1 A-75.731578 C-279.649035 X16.272848 Y22.268918 Z0.445809 E0.098716496601 F900.000000
; PAC POINT 298 point-0000298 deposition PA T2
G1 A-77.034138 C-273.895442 X17.368038 Y20.288814 Z-1.677527 E0.098716441662 F900.000000
; PAC POINT 299 point-0000299 deposition PA T2
G1 A-78.444258 C-268.740461 X18.594067 Y18.331235 Z-3.731144 E0.098716246500 F900.000000
; PAC POINT 300 point-0000300 deposition PA T2
G1 A-79.903609 C-264.165336 X19.955069 Y16.400471 Z-5.683072 E0.098716468658 F900.000000
; PAC POINT 301 point-0000301 deposition PA T2
G1 A-81.348077 C-260.143065 X21.455006 Y14.510361 Z-7.504370 E0.098717570395 F900.000000
; PAC POINT 302 point-0000302 deposition PA T2
G1 A-82.791019 C-256.820343 X23.136659 Y12.659077 Z-9.124415 E0.098718186521 F900.000000
; PAC POINT 303 point-0000303 deposition PA T2
G1 A-84.173641 C-254.154852 X25.009687 Y10.872397 Z-10.518632 E0.098719340574 F900.000000
; PAC POINT 304 point-0000304 deposition PA T2
G1 A-85.450548 C-252.150934 X27.091986 Y9.177655 Z-11.646292 E0.098720547549 F900.000000
; PAC POINT 305 point-0000305 deposition PA T2
G1 A-86.631821 C-250.979431 X29.442475 Y7.588168 Z-12.392482 E0.098721076440 F900.000000
; PAC POINT 306 point-0000306 deposition PA T2
G1 A-87.664973 C-250.591618 X32.060328 Y6.144719 Z-12.721271 E0.098720930974 F900.000000
; PAC POINT 307 point-0000307 deposition PA T2
G1 A-88.514391 C-251.040885 X34.957837 Y4.882897 Z-12.536236 E0.098719615317 F900.000000
; PAC POINT 308 point-0000308 deposition PA T2
G1 A-89.189774 C-252.560761 X38.170565 Y3.824693 Z-11.613614 E0.098717019526 F900.000000
; PAC POINT 309 point-0000309 deposition PA T2
G1 A-89.654373 C-255.091038 X41.620050 Y3.004508 Z-9.875444 E0.098710060239 F900.000000
; PAC POINT 310 point-0000310 deposition PA T2
G1 A-89.913264 C-258.814372 X45.225707 Y2.434698 Z-7.059804 E0.098696921334 F900.000000
; PAC POINT 311 point-0000311 deposition PA T2
G1 A-90.000842 C-263.777195 X48.787433 Y2.106796 Z-2.983949 E0.098678817140 F900.000000
; PAC POINT 312 point-0000312 deposition PA T2
G1 A-90.000000 C-270.000000 X52.000000 Y2.000000 Z2.500000 E0.098662400052 F900.000000
; PAC EVENT event-0000026 retract
; PAC EVENT_CONTEXT {"extrusion_length_mm":-1.0,"sequence_index":312}
G1 E-1.000000000000 F3000.000000
; PAC POINT 313 point-0000313 travel - -
G1 A-90.000000 C-270.000000 X52.000000 Y2.600000 Z2.500000 F3000.000000
; PAC EVENT material-0008-prepare_pause prepare_pause
; PAC EVENT_CONTEXT {"channel_id":"T3","material_id":"ABS","material_plan_id":"impeller-materials","sensor_required":true,"sequence_index":313,"tool_command":"T3"}
M0 ; operator material preparation
; PAC EVENT material-0008-retract retract
; PAC EVENT_CONTEXT {"channel_id":"T3","extrusion_length_mm":-1.0,"material_id":"ABS","material_plan_id":"impeller-materials","sensor_required":true,"sequence_index":313,"tool_command":"T3"}
G1 E-1.000000000000 F900.000000
; PAC EVENT material-0008-cut cut
; PAC EVENT_CONTEXT {"channel_id":"T3","material_id":"ABS","material_plan_id":"impeller-materials","sensor_required":true,"sequence_index":313,"tool_command":"T3"}
M98 P100 ; OFFLINE _5AXIS_CUT macro semantic
; PAC EVENT material-0008-park park
; PAC EVENT_CONTEXT {"channel_id":"T3","material_id":"ABS","material_plan_id":"impeller-materials","sensor_required":true,"sequence_index":313,"tool_command":"T3"}
G91
G1 Z20.000000 F900.000000
G90
; PAC EVENT material-0008-switch switch
; PAC EVENT_CONTEXT {"channel_id":"T3","material_id":"ABS","material_plan_id":"impeller-materials","sensor_required":true,"sequence_index":313,"tool_command":"T3"}
T3
; PAC EVENT material-0008-load load
; PAC EVENT_CONTEXT {"channel_id":"T3","extrusion_length_mm":0.0,"material_id":"ABS","material_plan_id":"impeller-materials","sensor_required":true,"sequence_index":313,"tool_command":"T3"}
G1 E0.000000000000 F900.000000
; PAC EVENT material-0008-temperature_wait temperature_wait
; PAC EVENT_CONTEXT {"channel_id":"T3","material_id":"ABS","material_plan_id":"impeller-materials","sensor_required":true,"sequence_index":313,"target_temperature_c":250.0,"timeout_s":180.0,"tool_command":"T3"}
M109 S250.000
; PAC EVENT material-0008-purge purge
; PAC EVENT_CONTEXT {"channel_id":"T3","extrusion_length_mm":8.0,"material_id":"ABS","material_plan_id":"impeller-materials","sensor_required":true,"sequence_index":313,"tool_command":"T3"}
G1 E8.000000000000 F900.000000
; PAC EVENT material-0008-prime prime
; PAC EVENT_CONTEXT {"channel_id":"T3","extrusion_length_mm":1.0,"material_id":"ABS","material_plan_id":"impeller-materials","sensor_required":true,"sequence_index":313,"tool_command":"T3"}
G1 E1.000000000000 F900.000000
; PAC EVENT material-0008-resume resume
; PAC EVENT_CONTEXT {"channel_id":"T3","material_id":"ABS","material_plan_id":"impeller-materials","sensor_required":true,"sequence_index":313,"tool_command":"T3"}
M98 P101 ; OFFLINE _5AXIS_RESUME macro semantic
; PAC EVENT event-0000027 prime
; PAC EVENT_CONTEXT {"extrusion_length_mm":1.0,"sequence_index":313}
G1 E1.000000000000 F900.000000
; PAC POINT 314 point-0000314 deposition ABS T3
G1 A-90.001768 C-263.853040 X48.836506 Y2.704073 Z-2.919373 E0.097247926273 F900.000000
; PAC POINT 315 point-0000315 deposition ABS T3
G1 A-89.917124 C-258.905556 X45.323944 Y3.026988 Z-6.987935 E0.097295692646 F900.000000
; PAC POINT 316 point-0000316 deposition ABS T3
G1 A-89.661140 C-255.148013 X41.754764 Y3.590138 Z-9.834381 E0.097380753059 F900.000000
; PAC POINT 317 point-0000317 deposition ABS T3
G1 A-89.197895 C-252.557476 X38.329021 Y4.401277 Z-11.616390 E0.097458035622 F900.000000
; PAC POINT 318 point-0000318 deposition ABS T3
G1 A-88.519514 C-250.954020 X35.128757 Y5.451015 Z-12.589808 E0.097524907890 F900.000000
; PAC POINT 319 point-0000319 deposition ABS T3
G1 A-87.661795 C-250.403422 X32.236255 Y6.705948 Z-12.826422 E0.097575649636 F900.000000
; PAC POINT 320 point-0000320 deposition ABS T3
G1 A-86.616701 C-250.689099 X29.622847 Y8.143489 Z-12.539797 E0.097615237946 F900.000000
; PAC POINT 321 point-0000321 deposition ABS T3
G1 A-85.416983 C-251.747237 X27.275637 Y9.728697 Z-11.831682 E0.097647054381 F900.000000
; PAC POINT 322 point-0000322 deposition ABS T3
G1 A-84.115030 C-253.628977 X25.198406 Y11.419818 Z-10.736442 E0.097668952057 F900.000000
; PAC POINT 323 point-0000323 deposition ABS T3
G1 A-82.702189 C-256.174012 X23.335461 Y13.201851 Z-9.364394 E0.097686405957 F900.000000
; PAC POINT 324 point-0000324 deposition ABS T3
G1 A-81.218156 C-259.366266 X21.666898 Y15.047774 Z-7.759809 E0.097705477569 F900.000000
; PAC POINT 325 point-0000325 deposition ABS T3
G1 A-79.721081 C-263.254848 X20.185453 Y16.929469 Z-5.943907 E0.097725342965 F900.000000
; PAC POINT 326 point-0000326 deposition ABS T3
G1 A-78.197159 C-267.702138 X18.849036 Y18.846540 Z-3.983250 E0.097745119951 F900.000000
; PAC POINT 327 point-0000327 deposition ABS T3
G1 A-76.701419 C-272.726445 X17.651705 Y20.784009 Z-1.906212 E0.097769980692 F900.000000
; PAC POINT 328 point-0000328 deposition ABS T3
G1 A-75.294745 C-278.364689 X16.591251 Y22.732821 Z0.260686 E0.097796937264 F900.000000
; PAC POINT 329 point-0000329 deposition ABS T3
G1 A-73.924338 C-284.454370 X15.642968 Y24.706222 Z2.477753 E0.097827095336 F900.000000
; PAC POINT 330 point-0000330 deposition ABS T3
G1 A-72.644791 C-291.025595 X14.814683 Y26.699227 Z4.722203 E0.097863818286 F900.000000
; PAC POINT 331 point-0000331 deposition ABS T3
G1 A-71.490842 C-298.105130 X14.113499 Y28.710948 Z6.978707 E0.097900115493 F900.000000
; PAC POINT 332 point-0000332 deposition ABS T3
G1 A-70.379262 C-305.608716 X13.538418 Y30.736459 Z9.264723 E0.097937077137 F900.000000
; PAC POINT 333 point-0000333 deposition ABS T3
G1 A-69.369577 C-313.638756 X13.101749 Y32.763076 Z11.574464 E0.097977882694 F900.000000
; PAC POINT 334 point-0000334 deposition ABS T3
G1 A-68.490047 C-322.292080 X12.807320 Y34.776608 Z13.916291 E0.098010184390 F900.000000
; PAC POINT 335 point-0000335 deposition ABS T3
G1 A-67.766923 C-331.664894 X12.647919 Y36.761881 Z16.297196 E0.098034578999 F900.000000
; PAC POINT 336 point-0000336 deposition ABS T3
G1 A-67.392325 C-341.883669 X12.600707 Y38.748933 Z18.621954 E0.098057423081 F900.000000
; PAC EVENT event-0000028 retract
; PAC EVENT_CONTEXT {"extrusion_length_mm":-1.0,"sequence_index":336}
G1 E-1.000000000000 F3000.000000
; PAC POINT 337 point-0000337 travel - -
G1 A-90.000000 C-315.000000 X52.000000 Y2.000000 Z2.500000 F3000.000000
; PAC EVENT event-0000029 prime
; PAC EVENT_CONTEXT {"extrusion_length_mm":1.0,"sequence_index":337}
G1 E1.000000000000 F900.000000
; PAC POINT 338 point-0000338 deposition ABS T3
G1 A-90.000842 C-308.777195 X48.787433 Y2.106796 Z-2.983949 E0.098662400052 F900.000000
; PAC POINT 339 point-0000339 deposition ABS T3
G1 A-89.913264 C-303.814372 X45.225707 Y2.434698 Z-7.059804 E0.098678817139 F900.000000
; PAC POINT 340 point-0000340 deposition ABS T3
G1 A-89.654373 C-300.091038 X41.620050 Y3.004508 Z-9.875444 E0.098696921335 F900.000000
; PAC POINT 341 point-0000341 deposition ABS T3
G1 A-89.189774 C-297.560761 X38.170565 Y3.824693 Z-11.613614 E0.098710060239 F900.000000
; PAC POINT 342 point-0000342 deposition ABS T3
G1 A-88.514391 C-296.040885 X34.957837 Y4.882897 Z-12.536236 E0.098717019526 F900.000000
; PAC POINT 343 point-0000343 deposition ABS T3
G1 A-87.664973 C-295.591618 X32.060328 Y6.144719 Z-12.721271 E0.098719615317 F900.000000
; PAC POINT 344 point-0000344 deposition ABS T3
G1 A-86.631821 C-295.979431 X29.442475 Y7.588168 Z-12.392482 E0.098720930974 F900.000000
; PAC POINT 345 point-0000345 deposition ABS T3
G1 A-85.450548 C-297.150934 X27.091986 Y9.177655 Z-11.646292 E0.098721076440 F900.000000
; PAC POINT 346 point-0000346 deposition ABS T3
G1 A-84.173641 C-299.154852 X25.009687 Y10.872397 Z-10.518632 E0.098720547549 F900.000000
; PAC POINT 347 point-0000347 deposition ABS T3
G1 A-82.791019 C-301.820343 X23.136659 Y12.659077 Z-9.124415 E0.098719340574 F900.000000
; PAC POINT 348 point-0000348 deposition ABS T3
G1 A-81.348077 C-305.143065 X21.455006 Y14.510361 Z-7.504370 E0.098718186521 F900.000000
; PAC POINT 349 point-0000349 deposition ABS T3
G1 A-79.903609 C-309.165336 X19.955069 Y16.400471 Z-5.683072 E0.098717570395 F900.000000
; PAC POINT 350 point-0000350 deposition ABS T3
G1 A-78.444258 C-313.740461 X18.594067 Y18.331235 Z-3.731144 E0.098716468658 F900.000000
; PAC POINT 351 point-0000351 deposition ABS T3
G1 A-77.034138 C-318.895442 X17.368038 Y20.288814 Z-1.677527 E0.098716246500 F900.000000
; PAC POINT 352 point-0000352 deposition ABS T3
G1 A-75.731578 C-324.649035 X16.272848 Y22.268918 Z0.445809 E0.098716441662 F900.000000
; PAC POINT 353 point-0000353 deposition ABS T3
G1 A-74.484449 C-330.827947 X15.285488 Y24.287256 Z2.595063 E0.098716496601 F900.000000
; PAC POINT 354 point-0000354 deposition ABS T3
G1 A-73.358620 C-337.465666 X14.415644 Y26.341434 Z4.743149 E0.098718706918 F900.000000
; PAC POINT 355 point-0000355 deposition ABS T3
G1 A-72.377405 C-344.558326 X13.671077 Y28.435926 Z6.871631 E0.098719998066 F900.000000
; PAC POINT 356 point-0000356 deposition ABS T3
G1 A-71.461512 C-352.013279 X13.052944 Y30.567881 Z8.993843 E0.098721338643 F900.000000
; PAC POINT 357 point-0000357 deposition ABS T3
G1 A-70.677832 C-359.919019 X12.574445 Y32.729542 Z11.096426 E0.098724610624 F900.000000
; PAC POINT 358 point-0000358 deposition ABS T3
G1 A70.027495 C-188.330323 X-12.244068 Y-34.909299 Z13.193633 E0.098725561291 F900.000000
; PAC POINT 359 point-0000359 deposition ABS T3
G1 A69.531132 C-197.323780 X-12.057448 Y-37.092924 Z15.292439 E0.098726410895 F900.000000
; PAC POINT 360 point-0000360 deposition ABS T3
G1 A69.343889 C-206.999992 X-12.000000 Y-39.300010 Z17.315844 E0.098727812132 F900.000000
; PAC EVENT event-0000030 retract
; PAC EVENT_CONTEXT {"extrusion_length_mm":-1.0,"sequence_index":360}
G1 E-1.000000000000 F3000.000000
; PAC POINT 361 point-0000361 travel - -
G1 A67.392325 C-206.883669 X-12.600707 Y-38.748933 Z18.621954 F3000.000000
; PAC EVENT material-0009-retract retract
; PAC EVENT_CONTEXT {"channel_id":"T0","extrusion_length_mm":-1.0,"material_id":"PLA","material_plan_id":"impeller-materials","sensor_required":true,"sequence_index":361,"tool_command":"T0"}
G1 E-1.000000000000 F900.000000
; PAC EVENT material-0009-cut cut
; PAC EVENT_CONTEXT {"channel_id":"T0","material_id":"PLA","material_plan_id":"impeller-materials","sensor_required":true,"sequence_index":361,"tool_command":"T0"}
M98 P100 ; OFFLINE _5AXIS_CUT macro semantic
; PAC EVENT material-0009-park park
; PAC EVENT_CONTEXT {"channel_id":"T0","material_id":"PLA","material_plan_id":"impeller-materials","sensor_required":true,"sequence_index":361,"tool_command":"T0"}
G91
G1 Z20.000000 F900.000000
G90
; PAC EVENT material-0009-switch switch
; PAC EVENT_CONTEXT {"channel_id":"T0","material_id":"PLA","material_plan_id":"impeller-materials","sensor_required":true,"sequence_index":361,"tool_command":"T0"}
T0
; PAC EVENT material-0009-load load
; PAC EVENT_CONTEXT {"channel_id":"T0","extrusion_length_mm":0.0,"material_id":"PLA","material_plan_id":"impeller-materials","sensor_required":true,"sequence_index":361,"tool_command":"T0"}
G1 E0.000000000000 F900.000000
; PAC EVENT material-0009-temperature_wait temperature_wait
; PAC EVENT_CONTEXT {"channel_id":"T0","material_id":"PLA","material_plan_id":"impeller-materials","sensor_required":true,"sequence_index":361,"target_temperature_c":195.0,"timeout_s":180.0,"tool_command":"T0"}
M109 S195.000
; PAC EVENT material-0009-purge purge
; PAC EVENT_CONTEXT {"channel_id":"T0","extrusion_length_mm":5.0,"material_id":"PLA","material_plan_id":"impeller-materials","sensor_required":true,"sequence_index":361,"tool_command":"T0"}
G1 E5.000000000000 F900.000000
; PAC EVENT material-0009-prime prime
; PAC EVENT_CONTEXT {"channel_id":"T0","extrusion_length_mm":1.0,"material_id":"PLA","material_plan_id":"impeller-materials","sensor_required":true,"sequence_index":361,"tool_command":"T0"}
G1 E1.000000000000 F900.000000
; PAC EVENT material-0009-resume resume
; PAC EVENT_CONTEXT {"channel_id":"T0","material_id":"PLA","material_plan_id":"impeller-materials","sensor_required":true,"sequence_index":361,"tool_command":"T0"}
M98 P101 ; OFFLINE _5AXIS_RESUME macro semantic
; PAC EVENT event-0000031 prime
; PAC EVENT_CONTEXT {"extrusion_length_mm":1.0,"sequence_index":361}
G1 E1.000000000000 F900.000000
; PAC POINT 362 point-0000362 deposition PLA T0
G1 A67.766923 C-196.664894 X-12.647919 Y-36.761881 Z16.297196 E0.098057423081 F900.000000
; PAC POINT 363 point-0000363 deposition PLA T0
G1 A68.490047 C-187.292080 X-12.807320 Y-34.776608 Z13.916291 E0.098034578999 F900.000000
; PAC POINT 364 point-0000364 deposition PLA T0
G1 A69.369577 C-178.638756 X-13.101749 Y-32.763076 Z11.574464 E0.098010184390 F900.000000
; PAC POINT 365 point-0000365 deposition PLA T0
G1 A70.379262 C-170.608716 X-13.538418 Y-30.736459 Z9.264723 E0.097977882694 F900.000000
; PAC POINT 366 point-0000366 deposition PLA T0
G1 A71.490842 C-163.105130 X-14.113499 Y-28.710948 Z6.978707 E0.097937077137 F900.000000
; PAC POINT 367 point-0000367 deposition PLA T0
G1 A72.644791 C-156.025595 X-14.814683 Y-26.699227 Z4.722203 E0.097900115493 F900.000000
; PAC POINT 368 point-0000368 deposition PLA T0
G1 A73.924338 C-149.454370 X-15.642968 Y-24.706222 Z2.477753 E0.097863818286 F900.000000
; PAC POINT 369 point-0000369 deposition PLA T0
G1 A75.294745 C-143.364689 X-16.591251 Y-22.732821 Z0.260686 E0.097827095336 F900.000000
; PAC POINT 370 point-0000370 deposition PLA T0
G1 A76.701419 C-137.726445 X-17.651705 Y-20.784009 Z-1.906212 E0.097796937264 F900.000000
; PAC POINT 371 point-0000371 deposition PLA T0
G1 A78.197159 C-132.702138 X-18.849036 Y-18.846540 Z-3.983250 E0.097769980692 F900.000000
; PAC POINT 372 point-0000372 deposition PLA T0
G1 A79.721081 C-128.254848 X-20.185453 Y-16.929469 Z-5.943907 E0.097745119951 F900.000000
; PAC POINT 373 point-0000373 deposition PLA T0
G1 A81.218156 C-124.366266 X-21.666898 Y-15.047774 Z-7.759809 E0.097725342965 F900.000000
; PAC POINT 374 point-0000374 deposition PLA T0
G1 A82.702189 C-121.174012 X-23.335461 Y-13.201851 Z-9.364394 E0.097705477569 F900.000000
; PAC POINT 375 point-0000375 deposition PLA T0
G1 A84.115030 C-118.628977 X-25.198406 Y-11.419818 Z-10.736442 E0.097686405957 F900.000000
; PAC POINT 376 point-0000376 deposition PLA T0
G1 A85.416983 C-116.747237 X-27.275637 Y-9.728697 Z-11.831682 E0.097668952057 F900.000000
; PAC POINT 377 point-0000377 deposition PLA T0
G1 A86.616701 C-115.689099 X-29.622847 Y-8.143489 Z-12.539797 E0.097647054381 F900.000000
; PAC POINT 378 point-0000378 deposition PLA T0
G1 A87.661795 C-115.403422 X-32.236255 Y-6.705948 Z-12.826422 E0.097615237946 F900.000000
; PAC POINT 379 point-0000379 deposition PLA T0
G1 A88.519514 C-115.954020 X-35.128757 Y-5.451015 Z-12.589808 E0.097575649636 F900.000000
; PAC POINT 380 point-0000380 deposition PLA T0
G1 A89.197895 C-117.557476 X-38.329021 Y-4.401277 Z-11.616390 E0.097524907890 F900.000000
; PAC POINT 381 point-0000381 deposition PLA T0
G1 A89.661140 C-120.148013 X-41.754764 Y-3.590138 Z-9.834381 E0.097458035622 F900.000000
; PAC POINT 382 point-0000382 deposition PLA T0
G1 A89.917124 C-123.905556 X-45.323944 Y-3.026988 Z-6.987935 E0.097380753059 F900.000000
; PAC POINT 383 point-0000383 deposition PLA T0
G1 A90.001768 C-128.853040 X-48.836506 Y-2.704073 Z-2.919373 E0.097295692646 F900.000000
; PAC POINT 384 point-0000384 deposition PLA T0
G1 A90.000000 C-135.000000 X-52.000000 Y-2.600000 Z2.500000 E0.097247926273 F900.000000
G90 ; restore absolute axes
M83 ; restore relative extrusion
G94 ; restore units per minute
M400
M2
