; 5AxisSclicer P02 Planar Zigzag
; reference XYZAC profile; offline simulation only
G21 ; millimetres
G90 ; absolute axes
M82 ; absolute extrusion
G92 E0 ; known initial extrusion position
; P02 POINT 1 point-0000001 approach
G1 A0.000000 C0.000000 X254.784315 Y240.721539 Z312.000000 F100.000000
; P02 EVENT event-0000001 prime
G1 E1.0 F100.000000
; P02 POINT 2 point-0000002 deposition
G1 A0.000000 C0.000000 X255.071578 Y240.335432 Z312.000000 E1.07202854709770912 F100.000000
; P02 POINT 3 point-0000003 deposition
G1 A0.000000 C0.000000 X284.271914 Y201.087850 Z312.000000 E8.39370957502815112 F100.000000
; P02 POINT 4 point-0000004 deposition
G1 A0.000000 C0.000000 X286.999738 Y203.117360 Z312.000000 E8.90258818046242992 F100.000000
; P02 POINT 5 point-0000005 deposition
G1 A0.000000 C0.000000 X257.512138 Y242.751050 Z312.000000 E16.29629791270394192 F100.000000
; P02 POINT 6 point-0000006 deposition
G1 A0.000000 C0.000000 X254.784315 Y240.721539 Z312.000000 E16.80517653228855152 F100.000000
; P02 EVENT event-0000002 retract
G1 E15.80517653228855152 F100.000000
; P02 POINT 7 point-0000007 travel
G1 A0.000000 C0.000000 X255.402592 Y240.807616 Z312.000000 F100.000000
; P02 EVENT event-0000003 prime
G1 E16.80517653228855152 F100.000000
; P02 POINT 8 point-0000008 deposition
G1 A0.000000 C0.000000 X258.584135 Y240.807616 Z312.000000 E17.28136010570999212 F100.000000
; P02 EVENT event-0000004 retract
G1 E16.28136010570999212 F100.000000
; P02 POINT 9 point-0000009 travel
G1 A0.000000 C0.000000 X259.030537 Y240.207616 Z312.000000 F100.000000
; P02 EVENT event-0000005 prime
G1 E17.28136010570999212 F100.000000
; P02 POINT 10 point-0000010 deposition
G1 A0.000000 C0.000000 X255.540597 Y240.207616 Z312.000000 E17.80370152480366852 F100.000000
; P02 EVENT event-0000006 retract
G1 E16.80370152480366852 F100.000000
; P02 POINT 11 point-0000011 travel
G1 A0.000000 C0.000000 X255.987000 Y239.607616 Z312.000000 F100.000000
; P02 EVENT event-0000007 prime
G1 E17.80370152480366852 F100.000000
; P02 POINT 12 point-0000012 deposition
G1 A0.000000 C0.000000 X259.476939 Y239.607616 Z312.000000 E18.32604294290632712 F100.000000
; P02 EVENT event-0000008 retract
G1 E17.32604294290632712 F100.000000
; P02 POINT 13 point-0000013 travel
G1 A0.000000 C0.000000 X259.923341 Y239.007616 Z312.000000 F100.000000
; P02 EVENT event-0000009 prime
G1 E18.32604294290632712 F100.000000
; P02 POINT 14 point-0000014 deposition
G1 A0.000000 C0.000000 X256.433402 Y239.007616 Z312.000000 E18.84838436001796792 F100.000000
; P02 EVENT event-0000010 retract
G1 E17.84838436001796792 F100.000000
; P02 POINT 15 point-0000015 travel
G1 A0.000000 C0.000000 X256.879804 Y238.407616 Z312.000000 F100.000000
; P02 EVENT event-0000011 prime
G1 E18.84838436001796792 F100.000000
; P02 POINT 16 point-0000016 deposition
G1 A0.000000 C0.000000 X260.369743 Y238.407616 Z312.000000 E19.37072577613859102 F100.000000
; P02 EVENT event-0000012 retract
G1 E18.37072577613859102 F100.000000
; P02 POINT 17 point-0000017 travel
G1 A0.000000 C0.000000 X260.816146 Y237.807616 Z312.000000 F100.000000
; P02 EVENT event-0000013 prime
G1 E19.37072577613859102 F100.000000
; P02 POINT 18 point-0000018 deposition
G1 A0.000000 C0.000000 X257.326206 Y237.807616 Z312.000000 E19.89306719126819652 F100.000000
; P02 EVENT event-0000014 retract
G1 E18.89306719126819652 F100.000000
; P02 POINT 19 point-0000019 travel
G1 A0.000000 C0.000000 X257.772608 Y237.207616 Z312.000000 F100.000000
; P02 EVENT event-0000015 prime
G1 E19.89306719126819652 F100.000000
; P02 POINT 20 point-0000020 deposition
G1 A0.000000 C0.000000 X261.262548 Y237.207616 Z312.000000 E20.41540860540678442 F100.000000
; P02 EVENT event-0000016 retract
G1 E19.41540860540678442 F100.000000
; P02 POINT 21 point-0000021 travel
G1 A0.000000 C0.000000 X261.708950 Y236.607616 Z312.000000 F100.000000
; P02 EVENT event-0000017 prime
G1 E20.41540860540678442 F100.000000
; P02 POINT 22 point-0000022 deposition
G1 A0.000000 C0.000000 X258.219010 Y236.607616 Z312.000000 E20.93775001855435512 F100.000000
; P02 EVENT event-0000018 retract
G1 E19.93775001855435512 F100.000000
; P02 POINT 23 point-0000023 travel
G1 A0.000000 C0.000000 X258.665412 Y236.007616 Z312.000000 F100.000000
; P02 EVENT event-0000019 prime
G1 E20.93775001855435512 F100.000000
; P02 POINT 24 point-0000024 deposition
G1 A0.000000 C0.000000 X262.155352 Y236.007616 Z312.000000 E21.46009143071090792 F100.000000
; P02 EVENT event-0000020 retract
G1 E20.46009143071090792 F100.000000
; P02 POINT 25 point-0000025 travel
G1 A0.000000 C0.000000 X262.601754 Y235.407616 Z312.000000 F100.000000
; P02 EVENT event-0000021 prime
G1 E21.46009143071090792 F100.000000
; P02 POINT 26 point-0000026 deposition
G1 A0.000000 C0.000000 X259.111814 Y235.407616 Z312.000000 E21.98243284187644262 F100.000000
; P02 EVENT event-0000022 retract
G1 E20.98243284187644262 F100.000000
; P02 POINT 27 point-0000027 travel
G1 A0.000000 C0.000000 X259.558216 Y234.807616 Z312.000000 F100.000000
; P02 EVENT event-0000023 prime
G1 E21.98243284187644262 F100.000000
; P02 POINT 28 point-0000028 deposition
G1 A0.000000 C0.000000 X263.048156 Y234.807616 Z312.000000 E22.50477425205095972 F100.000000
; P02 EVENT event-0000024 retract
G1 E21.50477425205095972 F100.000000
; P02 POINT 29 point-0000029 travel
G1 A0.000000 C0.000000 X263.494558 Y234.207616 Z312.000000 F100.000000
; P02 EVENT event-0000025 prime
G1 E22.50477425205095972 F100.000000
; P02 POINT 30 point-0000030 deposition
G1 A0.000000 C0.000000 X260.004618 Y234.207616 Z312.000000 E23.02711566123445982 F100.000000
; P02 EVENT event-0000026 retract
G1 E22.02711566123445982 F100.000000
; P02 POINT 31 point-0000031 travel
G1 A0.000000 C0.000000 X260.451020 Y233.607616 Z312.000000 F100.000000
; P02 EVENT event-0000027 prime
G1 E23.02711566123445982 F100.000000
; P02 POINT 32 point-0000032 deposition
G1 A0.000000 C0.000000 X263.940960 Y233.607616 Z312.000000 E23.54945706942694172 F100.000000
; P02 EVENT event-0000028 retract
G1 E22.54945706942694172 F100.000000
; P02 POINT 33 point-0000033 travel
G1 A0.000000 C0.000000 X264.387362 Y233.007616 Z312.000000 F100.000000
; P02 EVENT event-0000029 prime
G1 E23.54945706942694172 F100.000000
; P02 POINT 34 point-0000034 deposition
G1 A0.000000 C0.000000 X260.897422 Y233.007616 Z312.000000 E24.07179847662840632 F100.000000
; P02 EVENT event-0000030 retract
G1 E23.07179847662840632 F100.000000
; P02 POINT 35 point-0000035 travel
G1 A0.000000 C0.000000 X261.343824 Y232.407616 Z312.000000 F100.000000
; P02 EVENT event-0000031 prime
G1 E24.07179847662840632 F100.000000
; P02 POINT 36 point-0000036 deposition
G1 A0.000000 C0.000000 X264.833764 Y232.407616 Z312.000000 E24.59413988283885312 F100.000000
; P02 EVENT event-0000032 retract
G1 E23.59413988283885312 F100.000000
; P02 POINT 37 point-0000037 travel
G1 A0.000000 C0.000000 X265.280166 Y231.807616 Z312.000000 F100.000000
; P02 EVENT event-0000033 prime
G1 E24.59413988283885312 F100.000000
; P02 POINT 38 point-0000038 deposition
G1 A0.000000 C0.000000 X261.790226 Y231.807616 Z312.000000 E25.11648128805828242 F100.000000
; P02 EVENT event-0000034 retract
G1 E24.11648128805828242 F100.000000
; P02 POINT 39 point-0000039 travel
G1 A0.000000 C0.000000 X262.236628 Y231.207616 Z312.000000 F100.000000
; P02 EVENT event-0000035 prime
G1 E25.11648128805828242 F100.000000
; P02 POINT 40 point-0000040 deposition
G1 A0.000000 C0.000000 X265.726568 Y231.207616 Z312.000000 E25.63882269228669402 F100.000000
; P02 EVENT event-0000036 retract
G1 E24.63882269228669402 F100.000000
; P02 POINT 41 point-0000041 travel
G1 A0.000000 C0.000000 X266.172970 Y230.607616 Z312.000000 F100.000000
; P02 EVENT event-0000037 prime
G1 E25.63882269228669402 F100.000000
; P02 POINT 42 point-0000042 deposition
G1 A0.000000 C0.000000 X262.683030 Y230.607616 Z312.000000 E26.16116409552408852 F100.000000
; P02 EVENT event-0000038 retract
G1 E25.16116409552408852 F100.000000
; P02 POINT 43 point-0000043 travel
G1 A0.000000 C0.000000 X263.129432 Y230.007616 Z312.000000 F100.000000
; P02 EVENT event-0000039 prime
G1 E26.16116409552408852 F100.000000
; P02 POINT 44 point-0000044 deposition
G1 A0.000000 C0.000000 X266.619372 Y230.007616 Z312.000000 E26.68350549777046502 F100.000000
; P02 EVENT event-0000040 retract
G1 E25.68350549777046502 F100.000000
; P02 POINT 45 point-0000045 travel
G1 A0.000000 C0.000000 X267.065774 Y229.407616 Z312.000000 F100.000000
; P02 EVENT event-0000041 prime
G1 E26.68350549777046502 F100.000000
; P02 POINT 46 point-0000046 deposition
G1 A0.000000 C0.000000 X263.575835 Y229.407616 Z312.000000 E27.20584689902582322 F100.000000
; P02 EVENT event-0000042 retract
G1 E26.20584689902582322 F100.000000
; P02 POINT 47 point-0000047 travel
G1 A0.000000 C0.000000 X264.022237 Y228.807616 Z312.000000 F100.000000
; P02 EVENT event-0000043 prime
G1 E27.20584689902582322 F100.000000
; P02 POINT 48 point-0000048 deposition
G1 A0.000000 C0.000000 X267.512176 Y228.807616 Z312.000000 E27.72818829929016462 F100.000000
; P02 EVENT event-0000044 retract
G1 E26.72818829929016462 F100.000000
; P02 POINT 49 point-0000049 travel
G1 A0.000000 C0.000000 X267.958578 Y228.207616 Z312.000000 F100.000000
; P02 EVENT event-0000045 prime
G1 E27.72818829929016462 F100.000000
; P02 POINT 50 point-0000050 deposition
G1 A0.000000 C0.000000 X264.468639 Y228.207616 Z312.000000 E28.25052969856348832 F100.000000
; P02 EVENT event-0000046 retract
G1 E27.25052969856348832 F100.000000
; P02 POINT 51 point-0000051 travel
G1 A0.000000 C0.000000 X264.915041 Y227.607616 Z312.000000 F100.000000
; P02 EVENT event-0000047 prime
G1 E28.25052969856348832 F100.000000
; P02 POINT 52 point-0000052 deposition
G1 A0.000000 C0.000000 X268.404980 Y227.607616 Z312.000000 E28.77287109684579442 F100.000000
; P02 EVENT event-0000048 retract
G1 E27.77287109684579442 F100.000000
; P02 POINT 53 point-0000053 travel
G1 A0.000000 C0.000000 X268.851382 Y227.007616 Z312.000000 F100.000000
; P02 EVENT event-0000049 prime
G1 E28.77287109684579442 F100.000000
; P02 POINT 54 point-0000054 deposition
G1 A0.000000 C0.000000 X265.361443 Y227.007616 Z312.000000 E29.29521249413708302 F100.000000
; P02 EVENT event-0000050 retract
G1 E28.29521249413708302 F100.000000
; P02 POINT 55 point-0000055 travel
G1 A0.000000 C0.000000 X265.807845 Y226.407616 Z312.000000 F100.000000
; P02 EVENT event-0000051 prime
G1 E29.29521249413708302 F100.000000
; P02 POINT 56 point-0000056 deposition
G1 A0.000000 C0.000000 X269.297785 Y226.407616 Z312.000000 E29.81755389043735342 F100.000000
; P02 EVENT event-0000052 retract
G1 E28.81755389043735342 F100.000000
; P02 POINT 57 point-0000057 travel
G1 A0.000000 C0.000000 X269.744187 Y225.807616 Z312.000000 F100.000000
; P02 EVENT event-0000053 prime
G1 E29.81755389043735342 F100.000000
; P02 POINT 58 point-0000058 deposition
G1 A0.000000 C0.000000 X266.254247 Y225.807616 Z312.000000 E30.33989528574660622 F100.000000
; P02 EVENT event-0000054 retract
G1 E29.33989528574660622 F100.000000
; P02 POINT 59 point-0000059 travel
G1 A0.000000 C0.000000 X266.700649 Y225.207616 Z312.000000 F100.000000
; P02 EVENT event-0000055 prime
G1 E30.33989528574660622 F100.000000
; P02 POINT 60 point-0000060 deposition
G1 A0.000000 C0.000000 X270.190589 Y225.207616 Z312.000000 E30.86223668006484212 F100.000000
; P02 EVENT event-0000056 retract
G1 E29.86223668006484212 F100.000000
; P02 POINT 61 point-0000061 travel
G1 A0.000000 C0.000000 X270.636991 Y224.607616 Z312.000000 F100.000000
; P02 EVENT event-0000057 prime
G1 E30.86223668006484212 F100.000000
; P02 POINT 62 point-0000062 deposition
G1 A0.000000 C0.000000 X267.147051 Y224.607616 Z312.000000 E31.38457807339206032 F100.000000
; P02 EVENT event-0000058 retract
G1 E30.38457807339206032 F100.000000
; P02 POINT 63 point-0000063 travel
G1 A0.000000 C0.000000 X267.593453 Y224.007616 Z312.000000 F100.000000
; P02 EVENT event-0000059 prime
G1 E31.38457807339206032 F100.000000
; P02 POINT 64 point-0000064 deposition
G1 A0.000000 C0.000000 X271.083393 Y224.007616 Z312.000000 E31.90691946572826042 F100.000000
; P02 EVENT event-0000060 retract
G1 E30.90691946572826042 F100.000000
; P02 POINT 65 point-0000065 travel
G1 A0.000000 C0.000000 X271.529795 Y223.407616 Z312.000000 F100.000000
; P02 EVENT event-0000061 prime
G1 E31.90691946572826042 F100.000000
; P02 POINT 66 point-0000066 deposition
G1 A0.000000 C0.000000 X268.039855 Y223.407616 Z312.000000 E32.42926085707344352 F100.000000
; P02 EVENT event-0000062 retract
G1 E31.42926085707344352 F100.000000
; P02 POINT 67 point-0000067 travel
G1 A0.000000 C0.000000 X268.486257 Y222.807616 Z312.000000 F100.000000
; P02 EVENT event-0000063 prime
G1 E32.42926085707344352 F100.000000
; P02 POINT 68 point-0000068 deposition
G1 A0.000000 C0.000000 X271.976197 Y222.807616 Z312.000000 E32.95160224742760852 F100.000000
; P02 EVENT event-0000064 retract
G1 E31.95160224742760852 F100.000000
; P02 POINT 69 point-0000069 travel
G1 A0.000000 C0.000000 X272.422599 Y222.207616 Z312.000000 F100.000000
; P02 EVENT event-0000065 prime
G1 E32.95160224742760852 F100.000000
; P02 POINT 70 point-0000070 deposition
G1 A0.000000 C0.000000 X268.932659 Y222.207616 Z312.000000 E33.47394363679075582 F100.000000
; P02 EVENT event-0000066 retract
G1 E32.47394363679075582 F100.000000
; P02 POINT 71 point-0000071 travel
G1 A0.000000 C0.000000 X269.379061 Y221.607616 Z312.000000 F100.000000
; P02 EVENT event-0000067 prime
G1 E33.47394363679075582 F100.000000
; P02 POINT 72 point-0000072 deposition
G1 A0.000000 C0.000000 X272.869001 Y221.607616 Z312.000000 E33.99628502516288522 F100.000000
; P02 EVENT event-0000068 retract
G1 E32.99628502516288522 F100.000000
; P02 POINT 73 point-0000073 travel
G1 A0.000000 C0.000000 X273.315403 Y221.007616 Z312.000000 F100.000000
; P02 EVENT event-0000069 prime
G1 E33.99628502516288522 F100.000000
; P02 POINT 74 point-0000074 deposition
G1 A0.000000 C0.000000 X269.825463 Y221.007616 Z312.000000 E34.51862641254399802 F100.000000
; P02 EVENT event-0000070 retract
G1 E33.51862641254399802 F100.000000
; P02 POINT 75 point-0000075 travel
G1 A0.000000 C0.000000 X270.271865 Y220.407616 Z312.000000 F100.000000
; P02 EVENT event-0000071 prime
G1 E34.51862641254399802 F100.000000
; P02 POINT 76 point-0000076 deposition
G1 A0.000000 C0.000000 X273.761805 Y220.407616 Z312.000000 E35.04096779893409262 F100.000000
; P02 EVENT event-0000072 retract
G1 E34.04096779893409262 F100.000000
; P02 POINT 77 point-0000077 travel
G1 A0.000000 C0.000000 X274.208207 Y219.807616 Z312.000000 F100.000000
; P02 EVENT event-0000073 prime
G1 E35.04096779893409262 F100.000000
; P02 POINT 78 point-0000078 deposition
G1 A0.000000 C0.000000 X270.718267 Y219.807616 Z312.000000 E35.56330918433316922 F100.000000
; P02 EVENT event-0000074 retract
G1 E34.56330918433316922 F100.000000
; P02 POINT 79 point-0000079 travel
G1 A0.000000 C0.000000 X271.164670 Y219.207616 Z312.000000 F100.000000
; P02 EVENT event-0000075 prime
G1 E35.56330918433316922 F100.000000
; P02 POINT 80 point-0000080 deposition
G1 A0.000000 C0.000000 X274.654609 Y219.207616 Z312.000000 E36.08565056874122822 F100.000000
; P02 EVENT event-0000076 retract
G1 E35.08565056874122822 F100.000000
; P02 POINT 81 point-0000081 travel
G1 A0.000000 C0.000000 X275.101011 Y218.607616 Z312.000000 F100.000000
; P02 EVENT event-0000077 prime
G1 E36.08565056874122822 F100.000000
; P02 POINT 82 point-0000082 deposition
G1 A0.000000 C0.000000 X271.611072 Y218.607616 Z312.000000 E36.60799195215826902 F100.000000
; P02 EVENT event-0000078 retract
G1 E35.60799195215826902 F100.000000
; P02 POINT 83 point-0000083 travel
G1 A0.000000 C0.000000 X272.057474 Y218.007616 Z312.000000 F100.000000
; P02 EVENT event-0000079 prime
G1 E36.60799195215826902 F100.000000
; P02 POINT 84 point-0000084 deposition
G1 A0.000000 C0.000000 X275.547413 Y218.007616 Z312.000000 E37.13033333458429352 F100.000000
; P02 EVENT event-0000080 retract
G1 E36.13033333458429352 F100.000000
; P02 POINT 85 point-0000085 travel
G1 A0.000000 C0.000000 X275.993815 Y217.407616 Z312.000000 F100.000000
; P02 EVENT event-0000081 prime
G1 E37.13033333458429352 F100.000000
; P02 POINT 86 point-0000086 deposition
G1 A0.000000 C0.000000 X272.503876 Y217.407616 Z312.000000 E37.65267471601930022 F100.000000
; P02 EVENT event-0000082 retract
G1 E36.65267471601930022 F100.000000
; P02 POINT 87 point-0000087 travel
G1 A0.000000 C0.000000 X272.950278 Y216.807616 Z312.000000 F100.000000
; P02 EVENT event-0000083 prime
G1 E37.65267471601930022 F100.000000
; P02 POINT 88 point-0000088 deposition
G1 A0.000000 C0.000000 X276.440217 Y216.807616 Z312.000000 E38.17501609646328892 F100.000000
; P02 EVENT event-0000084 retract
G1 E37.17501609646328892 F100.000000
; P02 POINT 89 point-0000089 travel
G1 A0.000000 C0.000000 X276.886619 Y216.207616 Z312.000000 F100.000000
; P02 EVENT event-0000085 prime
G1 E38.17501609646328892 F100.000000
; P02 POINT 90 point-0000090 deposition
G1 A0.000000 C0.000000 X273.396680 Y216.207616 Z312.000000 E38.69735747591626002 F100.000000
; P02 EVENT event-0000086 retract
G1 E37.69735747591626002 F100.000000
; P02 POINT 91 point-0000091 travel
G1 A0.000000 C0.000000 X273.843082 Y215.607616 Z312.000000 F100.000000
; P02 EVENT event-0000087 prime
G1 E38.69735747591626002 F100.000000
; P02 POINT 92 point-0000092 deposition
G1 A0.000000 C0.000000 X277.333021 Y215.607616 Z312.000000 E39.21969885437821362 F100.000000
; P02 EVENT event-0000088 retract
G1 E38.21969885437821362 F100.000000
; P02 POINT 93 point-0000093 travel
G1 A0.000000 C0.000000 X277.779424 Y215.007616 Z312.000000 F100.000000
; P02 EVENT event-0000089 prime
G1 E39.21969885437821362 F100.000000
; P02 POINT 94 point-0000094 deposition
G1 A0.000000 C0.000000 X274.289484 Y215.007616 Z312.000000 E39.74204023184914952 F100.000000
; P02 EVENT event-0000090 retract
G1 E38.74204023184914952 F100.000000
; P02 POINT 95 point-0000095 travel
G1 A0.000000 C0.000000 X274.735886 Y214.407616 Z312.000000 F100.000000
; P02 EVENT event-0000091 prime
G1 E39.74204023184914952 F100.000000
; P02 POINT 96 point-0000096 deposition
G1 A0.000000 C0.000000 X278.225826 Y214.407616 Z312.000000 E40.26438160832906752 F100.000000
; P02 EVENT event-0000092 retract
G1 E39.26438160832906752 F100.000000
; P02 POINT 97 point-0000097 travel
G1 A0.000000 C0.000000 X278.672228 Y213.807616 Z312.000000 F100.000000
; P02 EVENT event-0000093 prime
G1 E40.26438160832906752 F100.000000
; P02 POINT 98 point-0000098 deposition
G1 A0.000000 C0.000000 X275.182288 Y213.807616 Z312.000000 E40.78672298381796892 F100.000000
; P02 EVENT event-0000094 retract
G1 E39.78672298381796892 F100.000000
; P02 POINT 99 point-0000099 travel
G1 A0.000000 C0.000000 X275.628690 Y213.207616 Z312.000000 F100.000000
; P02 EVENT event-0000095 prime
G1 E40.78672298381796892 F100.000000
; P02 POINT 100 point-0000100 deposition
G1 A0.000000 C0.000000 X279.118630 Y213.207616 Z312.000000 E41.30906435831585212 F100.000000
; P02 EVENT event-0000096 retract
G1 E40.30906435831585212 F100.000000
; P02 POINT 101 point-0000101 travel
G1 A0.000000 C0.000000 X279.565032 Y212.607616 Z312.000000 F100.000000
; P02 EVENT event-0000097 prime
G1 E41.30906435831585212 F100.000000
; P02 POINT 102 point-0000102 deposition
G1 A0.000000 C0.000000 X276.075092 Y212.607616 Z312.000000 E41.83140573182271782 F100.000000
; P02 EVENT event-0000098 retract
G1 E40.83140573182271782 F100.000000
; P02 POINT 103 point-0000103 travel
G1 A0.000000 C0.000000 X276.521494 Y212.007616 Z312.000000 F100.000000
; P02 EVENT event-0000099 prime
G1 E41.83140573182271782 F100.000000
; P02 POINT 104 point-0000104 deposition
G1 A0.000000 C0.000000 X280.011434 Y212.007616 Z312.000000 E42.35374710433856582 F100.000000
; P02 EVENT event-0000100 retract
G1 E41.35374710433856582 F100.000000
; P02 POINT 105 point-0000105 travel
G1 A0.000000 C0.000000 X280.457836 Y211.407616 Z312.000000 F100.000000
; P02 EVENT event-0000101 prime
G1 E42.35374710433856582 F100.000000
; P02 POINT 106 point-0000106 deposition
G1 A0.000000 C0.000000 X276.967896 Y211.407616 Z312.000000 E42.87608847586339632 F100.000000
; P02 EVENT event-0000102 retract
G1 E41.87608847586339632 F100.000000
; P02 POINT 107 point-0000107 travel
G1 A0.000000 C0.000000 X277.414298 Y210.807616 Z312.000000 F100.000000
; P02 EVENT event-0000103 prime
G1 E42.87608847586339632 F100.000000
; P02 POINT 108 point-0000108 deposition
G1 A0.000000 C0.000000 X280.904238 Y210.807616 Z312.000000 E43.39842984639720922 F100.000000
; P02 EVENT event-0000104 retract
G1 E42.39842984639720922 F100.000000
; P02 POINT 109 point-0000109 travel
G1 A0.000000 C0.000000 X281.350640 Y210.207616 Z312.000000 F100.000000
; P02 EVENT event-0000105 prime
G1 E43.39842984639720922 F100.000000
; P02 POINT 110 point-0000110 deposition
G1 A0.000000 C0.000000 X277.860700 Y210.207616 Z312.000000 E43.92077121594000452 F100.000000
; P02 EVENT event-0000106 retract
G1 E42.92077121594000452 F100.000000
; P02 POINT 111 point-0000111 travel
G1 A0.000000 C0.000000 X278.307102 Y209.607616 Z312.000000 F100.000000
; P02 EVENT event-0000107 prime
G1 E43.92077121594000452 F100.000000
; P02 POINT 112 point-0000112 deposition
G1 A0.000000 C0.000000 X281.797042 Y209.607616 Z312.000000 E44.44311258449178222 F100.000000
; P02 EVENT event-0000108 retract
G1 E43.44311258449178222 F100.000000
; P02 POINT 113 point-0000113 travel
G1 A0.000000 C0.000000 X282.243444 Y209.007616 Z312.000000 F100.000000
; P02 EVENT event-0000109 prime
G1 E44.44311258449178222 F100.000000
; P02 POINT 114 point-0000114 deposition
G1 A0.000000 C0.000000 X278.753505 Y209.007616 Z312.000000 E44.96545395205254242 F100.000000
; P02 EVENT event-0000110 retract
G1 E43.96545395205254242 F100.000000
; P02 POINT 115 point-0000115 travel
G1 A0.000000 C0.000000 X279.199907 Y208.407616 Z312.000000 F100.000000
; P02 EVENT event-0000111 prime
G1 E44.96545395205254242 F100.000000
; P02 POINT 116 point-0000116 deposition
G1 A0.000000 C0.000000 X282.689846 Y208.407616 Z312.000000 E45.48779531862228502 F100.000000
; P02 EVENT event-0000112 retract
G1 E44.48779531862228502 F100.000000
; P02 POINT 117 point-0000117 travel
G1 A0.000000 C0.000000 X283.136248 Y207.807616 Z312.000000 F100.000000
; P02 EVENT event-0000113 prime
G1 E45.48779531862228502 F100.000000
; P02 POINT 118 point-0000118 deposition
G1 A0.000000 C0.000000 X279.646309 Y207.807616 Z312.000000 E46.01013668420101002 F100.000000
; P02 EVENT event-0000114 retract
G1 E45.01013668420101002 F100.000000
; P02 POINT 119 point-0000119 travel
G1 A0.000000 C0.000000 X280.092711 Y207.207616 Z312.000000 F100.000000
; P02 EVENT event-0000115 prime
G1 E46.01013668420101002 F100.000000
; P02 POINT 120 point-0000120 deposition
G1 A0.000000 C0.000000 X283.582650 Y207.207616 Z312.000000 E46.53247804878871742 F100.000000
; P02 EVENT event-0000116 retract
G1 E45.53247804878871742 F100.000000
; P02 POINT 121 point-0000121 travel
G1 A0.000000 C0.000000 X284.029052 Y206.607616 Z312.000000 F100.000000
; P02 EVENT event-0000117 prime
G1 E46.53247804878871742 F100.000000
; P02 POINT 122 point-0000122 deposition
G1 A0.000000 C0.000000 X280.539113 Y206.607616 Z312.000000 E47.05481941238540682 F100.000000
; P02 EVENT event-0000118 retract
G1 E46.05481941238540682 F100.000000
; P02 POINT 123 point-0000123 travel
G1 A0.000000 C0.000000 X280.985515 Y206.007616 Z312.000000 F100.000000
; P02 EVENT event-0000119 prime
G1 E47.05481941238540682 F100.000000
; P02 POINT 124 point-0000124 deposition
G1 A0.000000 C0.000000 X284.475454 Y206.007616 Z312.000000 E47.57716077499107862 F100.000000
; P02 EVENT event-0000120 retract
G1 E46.57716077499107862 F100.000000
; P02 POINT 125 point-0000125 travel
G1 A0.000000 C0.000000 X284.921856 Y205.407616 Z312.000000 F100.000000
; P02 EVENT event-0000121 prime
G1 E47.57716077499107862 F100.000000
; P02 POINT 126 point-0000126 deposition
G1 A0.000000 C0.000000 X281.431917 Y205.407616 Z312.000000 E48.09950213660573292 F100.000000
; P02 EVENT event-0000122 retract
G1 E47.09950213660573292 F100.000000
; P02 POINT 127 point-0000127 travel
G1 A0.000000 C0.000000 X281.878319 Y204.807616 Z312.000000 F100.000000
; P02 EVENT event-0000123 prime
G1 E48.09950213660573292 F100.000000
; P02 POINT 128 point-0000128 deposition
G1 A0.000000 C0.000000 X285.368258 Y204.807616 Z312.000000 E48.62184349722936952 F100.000000
; P02 EVENT event-0000124 retract
G1 E47.62184349722936952 F100.000000
; P02 POINT 129 point-0000129 travel
G1 A0.000000 C0.000000 X285.814660 Y204.207616 Z312.000000 F100.000000
; P02 EVENT event-0000125 prime
G1 E48.62184349722936952 F100.000000
; P02 POINT 130 point-0000130 deposition
G1 A0.000000 C0.000000 X282.324721 Y204.207616 Z312.000000 E49.14418485686198802 F100.000000
; P02 EVENT event-0000126 retract
G1 E48.14418485686198802 F100.000000
; P02 POINT 131 point-0000131 travel
G1 A0.000000 C0.000000 X282.771123 Y203.607616 Z312.000000 F100.000000
; P02 EVENT event-0000127 prime
G1 E49.14418485686198802 F100.000000
; P02 POINT 132 point-0000132 deposition
G1 A0.000000 C0.000000 X286.261062 Y203.607616 Z312.000000 E49.66652621550358952 F100.000000
; P02 EVENT event-0000128 retract
G1 E48.66652621550358952 F100.000000
; P02 POINT 133 point-0000133 travel
G1 A0.000000 C0.000000 X286.349650 Y203.007616 Z312.000000 F100.000000
; P02 EVENT event-0000129 prime
G1 E49.66652621550358952 F100.000000
; P02 POINT 134 point-0000134 deposition
G1 A0.000000 C0.000000 X283.217525 Y203.007616 Z312.000000 E50.13531325007418908 F100.000000
; P02 EVENT event-0000130 retract
G1 E49.13531325007418908 F100.000000
; P02 POINT 135 point-0000135 travel
G1 A0.000000 C0.000000 X283.663927 Y202.407616 Z312.000000 F100.000000
; P02 EVENT event-0000131 prime
G1 E50.13531325007418908 F100.000000
; P02 POINT 136 point-0000136 deposition
G1 A0.000000 C0.000000 X285.543202 Y202.407616 Z312.000000 E50.41658547081654708 F100.000000
; P02 EVENT event-0000132 retract
G1 E49.41658547081654708 F100.000000
; P02 POINT 137 point-0000137 travel
G1 A0.000000 C0.000000 X284.736754 Y201.807616 Z312.000000 F100.000000
; P02 EVENT event-0000133 prime
G1 E50.41658547081654708 F100.000000
; P02 POINT 138 point-0000138 deposition
G1 A0.000000 C0.000000 X284.110329 Y201.807616 Z312.000000 E50.51034287773066571 F100.000000
; P02 EVENT event-0000134 retract
G1 E49.51034287773066571 F100.000000
; P02 POINT 139 point-0000139 travel
G1 A0.000000 C0.000000 X258.137733 Y241.407616 Z312.000000 F100.000000
; P02 EVENT event-0000135 prime
G1 E50.51034287773066571 F100.000000
; P02 POINT 140 point-0000140 deposition
G1 A0.000000 C0.000000 X256.209039 Y241.407616 Z312.000000 E50.79901171617875765 F100.000000
; P02 EVENT event-0000136 retract
G1 E49.79901171617875765 F100.000000
; P02 POINT 141 point-0000141 travel
G1 A0.000000 C0.000000 X257.015486 Y242.007616 Z312.000000 F100.000000
; P02 EVENT event-0000137 prime
G1 E50.79901171617875765 F100.000000
; P02 POINT 142 point-0000142 deposition
G1 A0.000000 C0.000000 X257.691331 Y242.007616 Z312.000000 E50.90016581965350158 F100.000000
; P02 EVENT event-0000138 retract
G1 E49.90016581965350158 F100.000000
; P02 POINT 143 point-0000143 travel
G1 A0.000000 C0.000000 X254.865837 Y240.764050 Z312.600000 F100.000000
; P02 EVENT event-0000139 prime
G1 E50.90016581965350158 F100.000000
; P02 POINT 144 point-0000144 deposition
G1 A0.000000 C0.000000 X255.156488 Y240.380490 Z312.600000 E50.97219407569036180 F100.000000
; P02 POINT 145 point-0000145 deposition
G1 A0.000000 C0.000000 X284.701289 Y201.391665 Z312.600000 E58.29386184187753180 F100.000000
; P02 POINT 146 point-0000146 deposition
G1 A0.000000 C0.000000 X287.411127 Y203.445116 Z312.600000 E58.80273937255611430 F100.000000
; P02 POINT 147 point-0000147 deposition
G1 A0.000000 C0.000000 X257.575674 Y242.817503 Z312.600000 E66.19643567437347530 F100.000000
; P02 POINT 148 point-0000148 deposition
G1 A0.000000 C0.000000 X254.865837 Y240.764050 Z312.600000 E66.70531322534705310 F100.000000
; P02 EVENT event-0000140 retract
G1 E65.70531322534705310 F100.000000
; P02 POINT 149 point-0000149 travel
G1 A0.000000 C0.000000 X255.433269 Y240.511958 Z312.600000 F100.000000
; P02 EVENT event-0000141 prime
G1 E66.70531322534705310 F100.000000
; P02 POINT 150 point-0000150 deposition
G1 A0.000000 C0.000000 X258.946356 Y240.511958 Z312.600000 E67.23111903646624740 F100.000000
; P02 EVENT event-0000142 retract
G1 E66.23111903646624740 F100.000000
; P02 POINT 151 point-0000151 travel
G1 A0.000000 C0.000000 X259.401021 Y239.911958 Z312.600000 F100.000000
; P02 EVENT event-0000143 prime
G1 E67.23111903646624740 F100.000000
; P02 POINT 152 point-0000152 deposition
G1 A0.000000 C0.000000 X255.887935 Y239.911958 Z312.600000 E67.75692484566620530 F100.000000
; P02 EVENT event-0000144 retract
G1 E66.75692484566620530 F100.000000
; P02 POINT 153 point-0000153 travel
G1 A0.000000 C0.000000 X256.342600 Y239.311958 Z312.600000 F100.000000
; P02 EVENT event-0000145 prime
G1 E67.75692484566620530 F100.000000
; P02 POINT 154 point-0000154 deposition
G1 A0.000000 C0.000000 X259.855687 Y239.311958 Z312.600000 E68.28273065294692690 F100.000000
; P02 EVENT event-0000146 retract
G1 E67.28273065294692690 F100.000000
; P02 POINT 155 point-0000155 travel
G1 A0.000000 C0.000000 X260.310353 Y238.711958 Z312.600000 F100.000000
; P02 EVENT event-0000147 prime
G1 E68.28273065294692690 F100.000000
; P02 POINT 156 point-0000156 deposition
G1 A0.000000 C0.000000 X256.797266 Y238.711958 Z312.600000 E68.80853645830841190 F100.000000
; P02 EVENT event-0000148 retract
G1 E67.80853645830841190 F100.000000
; P02 POINT 157 point-0000157 travel
G1 A0.000000 C0.000000 X257.251932 Y238.111958 Z312.600000 F100.000000
; P02 EVENT event-0000149 prime
G1 E68.80853645830841190 F100.000000
; P02 POINT 158 point-0000158 deposition
G1 A0.000000 C0.000000 X260.765018 Y238.111958 Z312.600000 E69.33434226175066120 F100.000000
; P02 EVENT event-0000150 retract
G1 E68.33434226175066120 F100.000000
; P02 POINT 159 point-0000159 travel
G1 A0.000000 C0.000000 X261.219684 Y237.511958 Z312.600000 F100.000000
; P02 EVENT event-0000151 prime
G1 E69.33434226175066120 F100.000000
; P02 POINT 160 point-0000160 deposition
G1 A0.000000 C0.000000 X257.706597 Y237.511958 Z312.600000 E69.86014806327367410 F100.000000
; P02 EVENT event-0000152 retract
G1 E68.86014806327367410 F100.000000
; P02 POINT 161 point-0000161 travel
G1 A0.000000 C0.000000 X258.161263 Y236.911958 Z312.600000 F100.000000
; P02 EVENT event-0000153 prime
G1 E69.86014806327367410 F100.000000
; P02 POINT 162 point-0000162 deposition
G1 A0.000000 C0.000000 X261.674350 Y236.911958 Z312.600000 E70.38595386287745050 F100.000000
; P02 EVENT event-0000154 retract
G1 E69.38595386287745050 F100.000000
; P02 POINT 163 point-0000163 travel
G1 A0.000000 C0.000000 X262.129015 Y236.311958 Z312.600000 F100.000000
; P02 EVENT event-0000155 prime
G1 E70.38595386287745050 F100.000000
; P02 POINT 164 point-0000164 deposition
G1 A0.000000 C0.000000 X258.615929 Y236.311958 Z312.600000 E70.91175966056199080 F100.000000
; P02 EVENT event-0000156 retract
G1 E69.91175966056199080 F100.000000
; P02 POINT 165 point-0000165 travel
G1 A0.000000 C0.000000 X259.070595 Y235.711958 Z312.600000 F100.000000
; P02 EVENT event-0000157 prime
G1 E70.91175966056199080 F100.000000
; P02 POINT 166 point-0000166 deposition
G1 A0.000000 C0.000000 X262.583681 Y235.711958 Z312.600000 E71.43756545632729560 F100.000000
; P02 EVENT event-0000158 retract
G1 E70.43756545632729560 F100.000000
; P02 POINT 167 point-0000167 travel
G1 A0.000000 C0.000000 X263.038347 Y235.111958 Z312.600000 F100.000000
; P02 EVENT event-0000159 prime
G1 E71.43756545632729560 F100.000000
; P02 POINT 168 point-0000168 deposition
G1 A0.000000 C0.000000 X259.525260 Y235.111958 Z312.600000 E71.96337125017336330 F100.000000
; P02 EVENT event-0000160 retract
G1 E70.96337125017336330 F100.000000
; P02 POINT 169 point-0000169 travel
G1 A0.000000 C0.000000 X259.979926 Y234.511958 Z312.600000 F100.000000
; P02 EVENT event-0000161 prime
G1 E71.96337125017336330 F100.000000
; P02 POINT 170 point-0000170 deposition
G1 A0.000000 C0.000000 X263.493012 Y234.511958 Z312.600000 E72.48917704210019500 F100.000000
; P02 EVENT event-0000162 retract
G1 E71.48917704210019500 F100.000000
; P02 POINT 171 point-0000171 travel
G1 A0.000000 C0.000000 X263.947678 Y233.911958 Z312.600000 F100.000000
; P02 EVENT event-0000163 prime
G1 E72.48917704210019500 F100.000000
; P02 POINT 172 point-0000172 deposition
G1 A0.000000 C0.000000 X260.434592 Y233.911958 Z312.600000 E73.01498283210779020 F100.000000
; P02 EVENT event-0000164 retract
G1 E72.01498283210779020 F100.000000
; P02 POINT 173 point-0000173 travel
G1 A0.000000 C0.000000 X260.889257 Y233.311958 Z312.600000 F100.000000
; P02 EVENT event-0000165 prime
G1 E73.01498283210779020 F100.000000
; P02 POINT 174 point-0000174 deposition
G1 A0.000000 C0.000000 X264.402344 Y233.311958 Z312.600000 E73.54078862019614930 F100.000000
; P02 EVENT event-0000166 retract
G1 E72.54078862019614930 F100.000000
; P02 POINT 175 point-0000175 travel
G1 A0.000000 C0.000000 X264.857009 Y232.711958 Z312.600000 F100.000000
; P02 EVENT event-0000167 prime
G1 E73.54078862019614930 F100.000000
; P02 POINT 176 point-0000176 deposition
G1 A0.000000 C0.000000 X261.343923 Y232.711958 Z312.600000 E74.06659440636527210 F100.000000
; P02 EVENT event-0000168 retract
G1 E73.06659440636527210 F100.000000
; P02 POINT 177 point-0000177 travel
G1 A0.000000 C0.000000 X261.798589 Y232.111958 Z312.600000 F100.000000
; P02 EVENT event-0000169 prime
G1 E74.06659440636527210 F100.000000
; P02 POINT 178 point-0000178 deposition
G1 A0.000000 C0.000000 X265.311675 Y232.111958 Z312.600000 E74.59240019061515870 F100.000000
; P02 EVENT event-0000170 retract
G1 E73.59240019061515870 F100.000000
; P02 POINT 179 point-0000179 travel
G1 A0.000000 C0.000000 X265.766341 Y231.511958 Z312.600000 F100.000000
; P02 EVENT event-0000171 prime
G1 E74.59240019061515870 F100.000000
; P02 POINT 180 point-0000180 deposition
G1 A0.000000 C0.000000 X262.253254 Y231.511958 Z312.600000 E75.11820597294580900 F100.000000
; P02 EVENT event-0000172 retract
G1 E74.11820597294580900 F100.000000
; P02 POINT 181 point-0000181 travel
G1 A0.000000 C0.000000 X262.707920 Y230.911958 Z312.600000 F100.000000
; P02 EVENT event-0000173 prime
G1 E75.11820597294580900 F100.000000
; P02 POINT 182 point-0000182 deposition
G1 A0.000000 C0.000000 X266.221006 Y230.911958 Z312.600000 E75.64401175335722400 F100.000000
; P02 EVENT event-0000174 retract
G1 E74.64401175335722400 F100.000000
; P02 POINT 183 point-0000183 travel
G1 A0.000000 C0.000000 X266.675672 Y230.311958 Z312.600000 F100.000000
; P02 EVENT event-0000175 prime
G1 E75.64401175335722400 F100.000000
; P02 POINT 184 point-0000184 deposition
G1 A0.000000 C0.000000 X263.162586 Y230.311958 Z312.600000 E76.16981753184940250 F100.000000
; P02 EVENT event-0000176 retract
G1 E75.16981753184940250 F100.000000
; P02 POINT 185 point-0000185 travel
G1 A0.000000 C0.000000 X263.617251 Y229.711958 Z312.600000 F100.000000
; P02 EVENT event-0000177 prime
G1 E76.16981753184940250 F100.000000
; P02 POINT 186 point-0000186 deposition
G1 A0.000000 C0.000000 X267.130338 Y229.711958 Z312.600000 E76.69562330842234410 F100.000000
; P02 EVENT event-0000178 retract
G1 E75.69562330842234410 F100.000000
; P02 POINT 187 point-0000187 travel
G1 A0.000000 C0.000000 X267.585003 Y229.111958 Z312.600000 F100.000000
; P02 EVENT event-0000179 prime
G1 E76.69562330842234410 F100.000000
; P02 POINT 188 point-0000188 deposition
G1 A0.000000 C0.000000 X264.071917 Y229.111958 Z312.600000 E77.22142908307604940 F100.000000
; P02 EVENT event-0000180 retract
G1 E76.22142908307604940 F100.000000
; P02 POINT 189 point-0000189 travel
G1 A0.000000 C0.000000 X264.526583 Y228.511958 Z312.600000 F100.000000
; P02 EVENT event-0000181 prime
G1 E77.22142908307604940 F100.000000
; P02 POINT 190 point-0000190 deposition
G1 A0.000000 C0.000000 X268.039669 Y228.511958 Z312.600000 E77.74723485581051820 F100.000000
; P02 EVENT event-0000182 retract
G1 E76.74723485581051820 F100.000000
; P02 POINT 191 point-0000191 travel
G1 A0.000000 C0.000000 X268.494335 Y227.911958 Z312.600000 F100.000000
; P02 EVENT event-0000183 prime
G1 E77.74723485581051820 F100.000000
; P02 POINT 192 point-0000192 deposition
G1 A0.000000 C0.000000 X264.981248 Y227.911958 Z312.600000 E78.27304062662575090 F100.000000
; P02 EVENT event-0000184 retract
G1 E77.27304062662575090 F100.000000
; P02 POINT 193 point-0000193 travel
G1 A0.000000 C0.000000 X265.435914 Y227.311958 Z312.600000 F100.000000
; P02 EVENT event-0000185 prime
G1 E78.27304062662575090 F100.000000
; P02 POINT 194 point-0000194 deposition
G1 A0.000000 C0.000000 X268.949000 Y227.311958 Z312.600000 E78.79884639552174750 F100.000000
; P02 EVENT event-0000186 retract
G1 E77.79884639552174750 F100.000000
; P02 POINT 195 point-0000195 travel
G1 A0.000000 C0.000000 X269.403666 Y226.711958 Z312.600000 F100.000000
; P02 EVENT event-0000187 prime
G1 E78.79884639552174750 F100.000000
; P02 POINT 196 point-0000196 deposition
G1 A0.000000 C0.000000 X265.890580 Y226.711958 Z312.600000 E79.32465216249850790 F100.000000
; P02 EVENT event-0000188 retract
G1 E78.32465216249850790 F100.000000
; P02 POINT 197 point-0000197 travel
G1 A0.000000 C0.000000 X266.345245 Y226.111958 Z312.600000 F100.000000
; P02 EVENT event-0000189 prime
G1 E79.32465216249850790 F100.000000
; P02 POINT 198 point-0000198 deposition
G1 A0.000000 C0.000000 X269.858332 Y226.111958 Z312.600000 E79.85045792755603240 F100.000000
; P02 EVENT event-0000190 retract
G1 E78.85045792755603240 F100.000000
; P02 POINT 199 point-0000199 travel
G1 A0.000000 C0.000000 X270.312997 Y225.511958 Z312.600000 F100.000000
; P02 EVENT event-0000191 prime
G1 E79.85045792755603240 F100.000000
; P02 POINT 200 point-0000200 deposition
G1 A0.000000 C0.000000 X266.799911 Y225.511958 Z312.600000 E80.37626369069432040 F100.000000
; P02 EVENT event-0000192 retract
G1 E79.37626369069432040 F100.000000
; P02 POINT 201 point-0000201 travel
G1 A0.000000 C0.000000 X267.254577 Y224.911958 Z312.600000 F100.000000
; P02 EVENT event-0000193 prime
G1 E80.37626369069432040 F100.000000
; P02 POINT 202 point-0000202 deposition
G1 A0.000000 C0.000000 X270.767663 Y224.911958 Z312.600000 E80.90206945191337180 F100.000000
; P02 EVENT event-0000194 retract
G1 E79.90206945191337180 F100.000000
; P02 POINT 203 point-0000203 travel
G1 A0.000000 C0.000000 X271.222329 Y224.311958 Z312.600000 F100.000000
; P02 EVENT event-0000195 prime
G1 E80.90206945191337180 F100.000000
; P02 POINT 204 point-0000204 deposition
G1 A0.000000 C0.000000 X267.709243 Y224.311958 Z312.600000 E81.42787521121318680 F100.000000
; P02 EVENT event-0000196 retract
G1 E80.42787521121318680 F100.000000
; P02 POINT 205 point-0000205 travel
G1 A0.000000 C0.000000 X268.163908 Y223.711958 Z312.600000 F100.000000
; P02 EVENT event-0000197 prime
G1 E81.42787521121318680 F100.000000
; P02 POINT 206 point-0000206 deposition
G1 A0.000000 C0.000000 X271.676994 Y223.711958 Z312.600000 E81.95368096859376640 F100.000000
; P02 EVENT event-0000198 retract
G1 E80.95368096859376640 F100.000000
; P02 POINT 207 point-0000207 travel
G1 A0.000000 C0.000000 X272.131660 Y223.111958 Z312.600000 F100.000000
; P02 EVENT event-0000199 prime
G1 E81.95368096859376640 F100.000000
; P02 POINT 208 point-0000208 deposition
G1 A0.000000 C0.000000 X268.618574 Y223.111958 Z312.600000 E82.47948672405510930 F100.000000
; P02 EVENT event-0000200 retract
G1 E81.47948672405510930 F100.000000
; P02 POINT 209 point-0000209 travel
G1 A0.000000 C0.000000 X269.073240 Y222.511958 Z312.600000 F100.000000
; P02 EVENT event-0000201 prime
G1 E82.47948672405510930 F100.000000
; P02 POINT 210 point-0000210 deposition
G1 A0.000000 C0.000000 X272.586326 Y222.511958 Z312.600000 E83.00529247759721630 F100.000000
; P02 EVENT event-0000202 retract
G1 E82.00529247759721630 F100.000000
; P02 POINT 211 point-0000211 travel
G1 A0.000000 C0.000000 X273.040991 Y221.911958 Z312.600000 F100.000000
; P02 EVENT event-0000203 prime
G1 E83.00529247759721630 F100.000000
; P02 POINT 212 point-0000212 deposition
G1 A0.000000 C0.000000 X269.527905 Y221.911958 Z312.600000 E83.53109822922008680 F100.000000
; P02 EVENT event-0000204 retract
G1 E82.53109822922008680 F100.000000
; P02 POINT 213 point-0000213 travel
G1 A0.000000 C0.000000 X269.982571 Y221.311958 Z312.600000 F100.000000
; P02 EVENT event-0000205 prime
G1 E83.53109822922008680 F100.000000
; P02 POINT 214 point-0000214 deposition
G1 A0.000000 C0.000000 X273.495657 Y221.311958 Z312.600000 E84.05690397892372140 F100.000000
; P02 EVENT event-0000206 retract
G1 E83.05690397892372140 F100.000000
; P02 POINT 215 point-0000215 travel
G1 A0.000000 C0.000000 X273.950323 Y220.711958 Z312.600000 F100.000000
; P02 EVENT event-0000207 prime
G1 E84.05690397892372140 F100.000000
; P02 POINT 216 point-0000216 deposition
G1 A0.000000 C0.000000 X270.437237 Y220.711958 Z312.600000 E84.58270972670811940 F100.000000
; P02 EVENT event-0000208 retract
G1 E83.58270972670811940 F100.000000
; P02 POINT 217 point-0000217 travel
G1 A0.000000 C0.000000 X270.891902 Y220.111958 Z312.600000 F100.000000
; P02 EVENT event-0000209 prime
G1 E84.58270972670811940 F100.000000
; P02 POINT 218 point-0000218 deposition
G1 A0.000000 C0.000000 X274.404988 Y220.111958 Z312.600000 E85.10851547257328100 F100.000000
; P02 EVENT event-0000210 retract
G1 E84.10851547257328100 F100.000000
; P02 POINT 219 point-0000219 travel
G1 A0.000000 C0.000000 X274.859654 Y219.511958 Z312.600000 F100.000000
; P02 EVENT event-0000211 prime
G1 E85.10851547257328100 F100.000000
; P02 POINT 220 point-0000220 deposition
G1 A0.000000 C0.000000 X271.346568 Y219.511958 Z312.600000 E85.63432121651920700 F100.000000
; P02 EVENT event-0000212 retract
G1 E84.63432121651920700 F100.000000
; P02 POINT 221 point-0000221 travel
G1 A0.000000 C0.000000 X271.801234 Y218.911958 Z312.600000 F100.000000
; P02 EVENT event-0000213 prime
G1 E85.63432121651920700 F100.000000
; P02 POINT 222 point-0000222 deposition
G1 A0.000000 C0.000000 X275.314320 Y218.911958 Z312.600000 E86.16012695854589610 F100.000000
; P02 EVENT event-0000214 retract
G1 E85.16012695854589610 F100.000000
; P02 POINT 223 point-0000223 travel
G1 A0.000000 C0.000000 X275.768986 Y218.311958 Z312.600000 F100.000000
; P02 EVENT event-0000215 prime
G1 E86.16012695854589610 F100.000000
; P02 POINT 224 point-0000224 deposition
G1 A0.000000 C0.000000 X272.255899 Y218.311958 Z312.600000 E86.68593269865334870 F100.000000
; P02 EVENT event-0000216 retract
G1 E85.68593269865334870 F100.000000
; P02 POINT 225 point-0000225 travel
G1 A0.000000 C0.000000 X272.710565 Y217.711958 Z312.600000 F100.000000
; P02 EVENT event-0000217 prime
G1 E86.68593269865334870 F100.000000
; P02 POINT 226 point-0000226 deposition
G1 A0.000000 C0.000000 X276.223651 Y217.711958 Z312.600000 E87.21173843684156530 F100.000000
; P02 EVENT event-0000218 retract
G1 E86.21173843684156530 F100.000000
; P02 POINT 227 point-0000227 travel
G1 A0.000000 C0.000000 X276.678317 Y217.111958 Z312.600000 F100.000000
; P02 EVENT event-0000219 prime
G1 E87.21173843684156530 F100.000000
; P02 POINT 228 point-0000228 deposition
G1 A0.000000 C0.000000 X273.165231 Y217.111958 Z312.600000 E87.73754417311054550 F100.000000
; P02 EVENT event-0000220 retract
G1 E86.73754417311054550 F100.000000
; P02 POINT 229 point-0000229 travel
G1 A0.000000 C0.000000 X273.619896 Y216.511958 Z312.600000 F100.000000
; P02 EVENT event-0000221 prime
G1 E87.73754417311054550 F100.000000
; P02 POINT 230 point-0000230 deposition
G1 A0.000000 C0.000000 X277.132983 Y216.511958 Z312.600000 E88.26334990746028960 F100.000000
; P02 EVENT event-0000222 retract
G1 E87.26334990746028960 F100.000000
; P02 POINT 231 point-0000231 travel
G1 A0.000000 C0.000000 X277.587648 Y215.911958 Z312.600000 F100.000000
; P02 EVENT event-0000223 prime
G1 E88.26334990746028960 F100.000000
; P02 POINT 232 point-0000232 deposition
G1 A0.000000 C0.000000 X274.074562 Y215.911958 Z312.600000 E88.78915563989079730 F100.000000
; P02 EVENT event-0000224 retract
G1 E87.78915563989079730 F100.000000
; P02 POINT 233 point-0000233 travel
G1 A0.000000 C0.000000 X274.529228 Y215.311958 Z312.600000 F100.000000
; P02 EVENT event-0000225 prime
G1 E88.78915563989079730 F100.000000
; P02 POINT 234 point-0000234 deposition
G1 A0.000000 C0.000000 X278.042314 Y215.311958 Z312.600000 E89.31496137040206950 F100.000000
; P02 EVENT event-0000226 retract
G1 E88.31496137040206950 F100.000000
; P02 POINT 235 point-0000235 travel
G1 A0.000000 C0.000000 X278.496980 Y214.711958 Z312.600000 F100.000000
; P02 EVENT event-0000227 prime
G1 E89.31496137040206950 F100.000000
; P02 POINT 236 point-0000236 deposition
G1 A0.000000 C0.000000 X274.983893 Y214.711958 Z312.600000 E89.84076709899410460 F100.000000
; P02 EVENT event-0000228 retract
G1 E88.84076709899410460 F100.000000
; P02 POINT 237 point-0000237 travel
G1 A0.000000 C0.000000 X275.438559 Y214.111958 Z312.600000 F100.000000
; P02 EVENT event-0000229 prime
G1 E89.84076709899410460 F100.000000
; P02 POINT 238 point-0000238 deposition
G1 A0.000000 C0.000000 X278.951645 Y214.111958 Z312.600000 E90.36657282566690430 F100.000000
; P02 EVENT event-0000230 retract
G1 E89.36657282566690430 F100.000000
; P02 POINT 239 point-0000239 travel
G1 A0.000000 C0.000000 X279.406311 Y213.511958 Z312.600000 F100.000000
; P02 EVENT event-0000231 prime
G1 E90.36657282566690430 F100.000000
; P02 POINT 240 point-0000240 deposition
G1 A0.000000 C0.000000 X275.893225 Y213.511958 Z312.600000 E90.89237855042046700 F100.000000
; P02 EVENT event-0000232 retract
G1 E89.89237855042046700 F100.000000
; P02 POINT 241 point-0000241 travel
G1 A0.000000 C0.000000 X276.347891 Y212.911958 Z312.600000 F100.000000
; P02 EVENT event-0000233 prime
G1 E90.89237855042046700 F100.000000
; P02 POINT 242 point-0000242 deposition
G1 A0.000000 C0.000000 X279.860977 Y212.911958 Z312.600000 E91.41818427325479370 F100.000000
; P02 EVENT event-0000234 retract
G1 E90.41818427325479370 F100.000000
; P02 POINT 243 point-0000243 travel
G1 A0.000000 C0.000000 X280.315642 Y212.311958 Z312.600000 F100.000000
; P02 EVENT event-0000235 prime
G1 E91.41818427325479370 F100.000000
; P02 POINT 244 point-0000244 deposition
G1 A0.000000 C0.000000 X276.802556 Y212.311958 Z312.600000 E91.94398999416988400 F100.000000
; P02 EVENT event-0000236 retract
G1 E90.94398999416988400 F100.000000
; P02 POINT 245 point-0000245 travel
G1 A0.000000 C0.000000 X277.257222 Y211.711958 Z312.600000 F100.000000
; P02 EVENT event-0000237 prime
G1 E91.94398999416988400 F100.000000
; P02 POINT 246 point-0000246 deposition
G1 A0.000000 C0.000000 X280.770308 Y211.711958 Z312.600000 E92.46979571316573770 F100.000000
; P02 EVENT event-0000238 retract
G1 E91.46979571316573770 F100.000000
; P02 POINT 247 point-0000247 travel
G1 A0.000000 C0.000000 X281.224974 Y211.111958 Z312.600000 F100.000000
; P02 EVENT event-0000239 prime
G1 E92.46979571316573770 F100.000000
; P02 POINT 248 point-0000248 deposition
G1 A0.000000 C0.000000 X277.711888 Y211.111958 Z312.600000 E92.99560143024235550 F100.000000
; P02 EVENT event-0000240 retract
G1 E91.99560143024235550 F100.000000
; P02 POINT 249 point-0000249 travel
G1 A0.000000 C0.000000 X278.166553 Y210.511958 Z312.600000 F100.000000
; P02 EVENT event-0000241 prime
G1 E92.99560143024235550 F100.000000
; P02 POINT 250 point-0000250 deposition
G1 A0.000000 C0.000000 X281.679639 Y210.511958 Z312.600000 E93.52140714539973670 F100.000000
; P02 EVENT event-0000242 retract
G1 E92.52140714539973670 F100.000000
; P02 POINT 251 point-0000251 travel
G1 A0.000000 C0.000000 X282.134305 Y209.911958 Z312.600000 F100.000000
; P02 EVENT event-0000243 prime
G1 E93.52140714539973670 F100.000000
; P02 POINT 252 point-0000252 deposition
G1 A0.000000 C0.000000 X278.621219 Y209.911958 Z312.600000 E94.04721285863788140 F100.000000
; P02 EVENT event-0000244 retract
G1 E93.04721285863788140 F100.000000
; P02 POINT 253 point-0000253 travel
G1 A0.000000 C0.000000 X279.075885 Y209.311958 Z312.600000 F100.000000
; P02 EVENT event-0000245 prime
G1 E94.04721285863788140 F100.000000
; P02 POINT 254 point-0000254 deposition
G1 A0.000000 C0.000000 X282.588971 Y209.311958 Z312.600000 E94.57301856995679110 F100.000000
; P02 EVENT event-0000246 retract
G1 E93.57301856995679110 F100.000000
; P02 POINT 255 point-0000255 travel
G1 A0.000000 C0.000000 X283.043636 Y208.711958 Z312.600000 F100.000000
; P02 EVENT event-0000247 prime
G1 E94.57301856995679110 F100.000000
; P02 POINT 256 point-0000256 deposition
G1 A0.000000 C0.000000 X279.530550 Y208.711958 Z312.600000 E95.09882427935646380 F100.000000
; P02 EVENT event-0000248 retract
G1 E94.09882427935646380 F100.000000
; P02 POINT 257 point-0000257 travel
G1 A0.000000 C0.000000 X279.985216 Y208.111958 Z312.600000 F100.000000
; P02 EVENT event-0000249 prime
G1 E95.09882427935646380 F100.000000
; P02 POINT 258 point-0000258 deposition
G1 A0.000000 C0.000000 X283.498302 Y208.111958 Z312.600000 E95.62462998683690060 F100.000000
; P02 EVENT event-0000250 retract
G1 E94.62462998683690060 F100.000000
; P02 POINT 259 point-0000259 travel
G1 A0.000000 C0.000000 X283.952968 Y207.511958 Z312.600000 F100.000000
; P02 EVENT event-0000251 prime
G1 E95.62462998683690060 F100.000000
; P02 POINT 260 point-0000260 deposition
G1 A0.000000 C0.000000 X280.439882 Y207.511958 Z312.600000 E96.15043569239810090 F100.000000
; P02 EVENT event-0000252 retract
G1 E95.15043569239810090 F100.000000
; P02 POINT 261 point-0000261 travel
G1 A0.000000 C0.000000 X280.894547 Y206.911958 Z312.600000 F100.000000
; P02 EVENT event-0000253 prime
G1 E96.15043569239810090 F100.000000
; P02 POINT 262 point-0000262 deposition
G1 A0.000000 C0.000000 X284.407633 Y206.911958 Z312.600000 E96.67624139604006520 F100.000000
; P02 EVENT event-0000254 retract
G1 E95.67624139604006520 F100.000000
; P02 POINT 263 point-0000263 travel
G1 A0.000000 C0.000000 X284.862299 Y206.311958 Z312.600000 F100.000000
; P02 EVENT event-0000255 prime
G1 E96.67624139604006520 F100.000000
; P02 POINT 264 point-0000264 deposition
G1 A0.000000 C0.000000 X281.349213 Y206.311958 Z312.600000 E97.20204709776279250 F100.000000
; P02 EVENT event-0000256 retract
G1 E96.20204709776279250 F100.000000
; P02 POINT 265 point-0000265 travel
G1 A0.000000 C0.000000 X281.803879 Y205.711958 Z312.600000 F100.000000
; P02 EVENT event-0000257 prime
G1 E97.20204709776279250 F100.000000
; P02 POINT 266 point-0000266 deposition
G1 A0.000000 C0.000000 X285.316965 Y205.711958 Z312.600000 E97.72785279756628440 F100.000000
; P02 EVENT event-0000258 retract
G1 E96.72785279756628440 F100.000000
; P02 POINT 267 point-0000267 travel
G1 A0.000000 C0.000000 X285.771630 Y205.111958 Z312.600000 F100.000000
; P02 EVENT event-0000259 prime
G1 E97.72785279756628440 F100.000000
; P02 POINT 268 point-0000268 deposition
G1 A0.000000 C0.000000 X282.258544 Y205.111958 Z312.600000 E98.25365849545053980 F100.000000
; P02 EVENT event-0000260 retract
G1 E97.25365849545053980 F100.000000
; P02 POINT 269 point-0000269 travel
G1 A0.000000 C0.000000 X282.713210 Y204.511958 Z312.600000 F100.000000
; P02 EVENT event-0000261 prime
G1 E98.25365849545053980 F100.000000
; P02 POINT 270 point-0000270 deposition
G1 A0.000000 C0.000000 X286.226296 Y204.511958 Z312.600000 E98.77946419141555920 F100.000000
; P02 EVENT event-0000262 retract
G1 E97.77946419141555920 F100.000000
; P02 POINT 271 point-0000271 travel
G1 A0.000000 C0.000000 X286.680962 Y203.911958 Z312.600000 F100.000000
; P02 EVENT event-0000263 prime
G1 E98.77946419141555920 F100.000000
; P02 POINT 272 point-0000272 deposition
G1 A0.000000 C0.000000 X283.167876 Y203.911958 Z312.600000 E99.30526988546134150 F100.000000
; P02 EVENT event-0000264 retract
G1 E98.30526988546134150 F100.000000
; P02 POINT 273 point-0000273 travel
G1 A0.000000 C0.000000 X283.622541 Y203.311958 Z312.600000 F100.000000
; P02 EVENT event-0000265 prime
G1 E99.30526988546134150 F100.000000
; P02 POINT 274 point-0000274 deposition
G1 A0.000000 C0.000000 X286.738682 Y203.311958 Z312.600000 E99.77166454723841670 F100.000000
; P02 EVENT event-0000266 retract
G1 E98.77166454723841670 F100.000000
; P02 POINT 275 point-0000275 travel
G1 A0.000000 C0.000000 X285.946892 Y202.711958 Z312.600000 F100.000000
; P02 EVENT event-0000267 prime
G1 E99.77166454723841670 F100.000000
; P02 POINT 276 point-0000276 deposition
G1 A0.000000 C0.000000 X284.077207 Y202.711958 Z312.600000 E100.05150134430466185 F100.000000
; P02 EVENT event-0000268 retract
G1 E99.05150134430466185 F100.000000
; P02 POINT 277 point-0000277 travel
G1 A0.000000 C0.000000 X284.531873 Y202.111958 Z312.600000 F100.000000
; P02 EVENT event-0000269 prime
G1 E100.05150134430466185 F100.000000
; P02 POINT 278 point-0000278 deposition
G1 A0.000000 C0.000000 X285.155101 Y202.111958 Z312.600000 E100.14478027666007583 F100.000000
; P02 EVENT event-0000270 retract
G1 E99.14478027666007583 F100.000000
; P02 POINT 279 point-0000279 travel
G1 A0.000000 C0.000000 X258.491690 Y241.111958 Z312.600000 F100.000000
; P02 EVENT event-0000271 prime
G1 E100.14478027666007583 F100.000000
; P02 POINT 280 point-0000280 deposition
G1 A0.000000 C0.000000 X255.821675 Y241.111958 Z312.600000 E100.54440307458844180 F100.000000
; P02 EVENT event-0000272 retract
G1 E99.54440307458844180 F100.000000
; P02 POINT 281 point-0000281 travel
G1 A0.000000 C0.000000 X256.613464 Y241.711958 Z312.600000 F100.000000
; P02 EVENT event-0000273 prime
G1 E100.54440307458844180 F100.000000
; P02 POINT 282 point-0000282 deposition
G1 A0.000000 C0.000000 X258.037024 Y241.711958 Z312.600000 E100.75746814499053202 F100.000000
; P02 EVENT event-0000274 retract
G1 E99.75746814499053202 F100.000000
; P02 POINT 283 point-0000283 travel
G1 A0.000000 C0.000000 X257.582359 Y242.311958 Z312.600000 F100.000000
; P02 EVENT event-0000275 prime
G1 E100.75746814499053202 F100.000000
; P02 POINT 284 point-0000284 deposition
G1 A0.000000 C0.000000 X257.405254 Y242.311958 Z312.600000 E100.783975487866345518 F100.000000
; P02 EVENT event-0000276 retract
G1 E99.783975487866345518 F100.000000
; P02 POINT 285 point-0000285 travel
G1 A0.000000 C0.000000 X254.946680 Y240.807109 Z313.200000 F100.000000
; P02 EVENT event-0000277 prime
G1 E100.783975487866345518 F100.000000
; P02 POINT 286 point-0000286 deposition
G1 A0.000000 C0.000000 X255.240684 Y240.426113 Z313.200000 E100.856003615222433148 F100.000000
; P02 POINT 287 point-0000287 deposition
G1 A0.000000 C0.000000 X285.126393 Y201.698057 Z313.200000 E108.177662607116648148 F100.000000
; P02 POINT 288 point-0000288 deposition
G1 A0.000000 C0.000000 X287.818106 Y203.775202 Z313.200000 E108.686539427690879848 F100.000000
; P02 POINT 289 point-0000289 deposition
G1 A0.000000 C0.000000 X257.638392 Y242.884256 Z313.200000 E116.080226953772090848 F100.000000
; P02 POINT 290 point-0000290 deposition
G1 A0.000000 C0.000000 X254.946680 Y240.807109 Z313.200000 E116.589103790078545048 F100.000000
; P02 EVENT event-0000278 retract
G1 E115.589103790078545048 F100.000000
; P02 POINT 291 point-0000291 travel
G1 A0.000000 C0.000000 X255.452939 Y240.818842 Z313.200000 F100.000000
; P02 EVENT event-0000279 prime
G1 E116.589103790078545048 F100.000000
; P02 POINT 292 point-0000292 deposition
G1 A0.000000 C0.000000 X258.853293 Y240.818842 Z313.200000 E117.098036854698697148 F100.000000
; P02 EVENT event-0000280 retract
G1 E116.098036854698697148 F100.000000
; P02 POINT 293 point-0000293 travel
G1 A0.000000 C0.000000 X259.316301 Y240.218842 Z313.200000 F100.000000
; P02 EVENT event-0000281 prime
G1 E117.098036854698697148 F100.000000
; P02 POINT 294 point-0000294 deposition
G1 A0.000000 C0.000000 X255.779570 Y240.218842 Z313.200000 E117.627381597696711148 F100.000000
; P02 EVENT event-0000282 retract
G1 E116.627381597696711148 F100.000000
; P02 POINT 295 point-0000295 travel
G1 A0.000000 C0.000000 X256.242579 Y239.618842 Z313.200000 F100.000000
; P02 EVENT event-0000283 prime
G1 E117.627381597696711148 F100.000000
; P02 POINT 296 point-0000296 deposition
G1 A0.000000 C0.000000 X259.779310 Y239.618842 Z313.200000 E118.156726337913837248 F100.000000
; P02 EVENT event-0000284 retract
G1 E117.156726337913837248 F100.000000
; P02 POINT 297 point-0000297 travel
G1 A0.000000 C0.000000 X260.242319 Y239.018842 Z313.200000 F100.000000
; P02 EVENT event-0000285 prime
G1 E118.156726337913837248 F100.000000
; P02 POINT 298 point-0000298 deposition
G1 A0.000000 C0.000000 X256.705587 Y239.018842 Z313.200000 E118.686071075350075248 F100.000000
; P02 EVENT event-0000286 retract
G1 E117.686071075350075248 F100.000000
; P02 POINT 299 point-0000299 travel
G1 A0.000000 C0.000000 X257.168596 Y238.418842 Z313.200000 F100.000000
; P02 EVENT event-0000287 prime
G1 E118.686071075350075248 F100.000000
; P02 POINT 300 point-0000300 deposition
G1 A0.000000 C0.000000 X260.705327 Y238.418842 Z313.200000 E119.215415810005425148 F100.000000
; P02 EVENT event-0000288 retract
G1 E118.215415810005425148 F100.000000
; P02 POINT 301 point-0000301 travel
G1 A0.000000 C0.000000 X261.168336 Y237.818842 Z313.200000 F100.000000
; P02 EVENT event-0000289 prime
G1 E119.215415810005425148 F100.000000
; P02 POINT 302 point-0000302 deposition
G1 A0.000000 C0.000000 X257.631605 Y237.818842 Z313.200000 E119.744760541879887148 F100.000000
; P02 EVENT event-0000290 retract
G1 E118.744760541879887148 F100.000000
; P02 POINT 303 point-0000303 travel
G1 A0.000000 C0.000000 X258.094613 Y237.218842 Z313.200000 F100.000000
; P02 EVENT event-0000291 prime
G1 E119.744760541879887148 F100.000000
; P02 POINT 304 point-0000304 deposition
G1 A0.000000 C0.000000 X261.631345 Y237.218842 Z313.200000 E120.274105270973460948 F100.000000
; P02 EVENT event-0000292 retract
G1 E119.274105270973460948 F100.000000
; P02 POINT 305 point-0000305 travel
G1 A0.000000 C0.000000 X262.094353 Y236.618842 Z313.200000 F100.000000
; P02 EVENT event-0000293 prime
G1 E120.274105270973460948 F100.000000
; P02 POINT 306 point-0000306 deposition
G1 A0.000000 C0.000000 X258.557622 Y236.618842 Z313.200000 E120.803449997286146548 F100.000000
; P02 EVENT event-0000294 retract
G1 E119.803449997286146548 F100.000000
; P02 POINT 307 point-0000307 travel
G1 A0.000000 C0.000000 X259.020630 Y236.018842 Z313.200000 F100.000000
; P02 EVENT event-0000295 prime
G1 E120.803449997286146548 F100.000000
; P02 POINT 308 point-0000308 deposition
G1 A0.000000 C0.000000 X262.557362 Y236.018842 Z313.200000 E121.332794720817944148 F100.000000
; P02 EVENT event-0000296 retract
G1 E120.332794720817944148 F100.000000
; P02 POINT 309 point-0000309 travel
G1 A0.000000 C0.000000 X263.020370 Y235.418842 Z313.200000 F100.000000
; P02 EVENT event-0000297 prime
G1 E121.332794720817944148 F100.000000
; P02 POINT 310 point-0000310 deposition
G1 A0.000000 C0.000000 X259.483639 Y235.418842 Z313.200000 E121.862139441568853948 F100.000000
; P02 EVENT event-0000298 retract
G1 E120.862139441568853948 F100.000000
; P02 POINT 311 point-0000311 travel
G1 A0.000000 C0.000000 X259.946648 Y234.818842 Z313.200000 F100.000000
; P02 EVENT event-0000299 prime
G1 E121.862139441568853948 F100.000000
; P02 POINT 312 point-0000312 deposition
G1 A0.000000 C0.000000 X263.483379 Y234.818842 Z313.200000 E122.391484159538875648 F100.000000
; P02 EVENT event-0000300 retract
G1 E121.391484159538875648 F100.000000
; P02 POINT 313 point-0000313 travel
G1 A0.000000 C0.000000 X263.946388 Y234.218842 Z313.200000 F100.000000
; P02 EVENT event-0000301 prime
G1 E122.391484159538875648 F100.000000
; P02 POINT 314 point-0000314 deposition
G1 A0.000000 C0.000000 X260.409656 Y234.218842 Z313.200000 E122.920828874728009048 F100.000000
; P02 EVENT event-0000302 retract
G1 E121.920828874728009048 F100.000000
; P02 POINT 315 point-0000315 travel
G1 A0.000000 C0.000000 X260.872665 Y233.618842 Z313.200000 F100.000000
; P02 EVENT event-0000303 prime
G1 E122.920828874728009048 F100.000000
; P02 POINT 316 point-0000316 deposition
G1 A0.000000 C0.000000 X264.409396 Y233.618842 Z313.200000 E123.450173587136254248 F100.000000
; P02 EVENT event-0000304 retract
G1 E122.450173587136254248 F100.000000
; P02 POINT 317 point-0000317 travel
G1 A0.000000 C0.000000 X264.872405 Y233.018842 Z313.200000 F100.000000
; P02 EVENT event-0000305 prime
G1 E123.450173587136254248 F100.000000
; P02 POINT 318 point-0000318 deposition
G1 A0.000000 C0.000000 X261.335674 Y233.018842 Z313.200000 E123.979518296763611648 F100.000000
; P02 EVENT event-0000306 retract
G1 E122.979518296763611648 F100.000000
; P02 POINT 319 point-0000319 travel
G1 A0.000000 C0.000000 X261.798682 Y232.418842 Z313.200000 F100.000000
; P02 EVENT event-0000307 prime
G1 E123.979518296763611648 F100.000000
; P02 POINT 320 point-0000320 deposition
G1 A0.000000 C0.000000 X265.335414 Y232.418842 Z313.200000 E124.508863003610080948 F100.000000
; P02 EVENT event-0000308 retract
G1 E123.508863003610080948 F100.000000
; P02 POINT 321 point-0000321 travel
G1 A0.000000 C0.000000 X265.798422 Y231.818842 Z313.200000 F100.000000
; P02 EVENT event-0000309 prime
G1 E124.508863003610080948 F100.000000
; P02 POINT 322 point-0000322 deposition
G1 A0.000000 C0.000000 X262.261691 Y231.818842 Z313.200000 E125.038207707675662048 F100.000000
; P02 EVENT event-0000310 retract
G1 E124.038207707675662048 F100.000000
; P02 POINT 323 point-0000323 travel
G1 A0.000000 C0.000000 X262.724700 Y231.218842 Z313.200000 F100.000000
; P02 EVENT event-0000311 prime
G1 E125.038207707675662048 F100.000000
; P02 POINT 324 point-0000324 deposition
G1 A0.000000 C0.000000 X266.261431 Y231.218842 Z313.200000 E125.567552408960355148 F100.000000
; P02 EVENT event-0000312 retract
G1 E124.567552408960355148 F100.000000
; P02 POINT 325 point-0000325 travel
G1 A0.000000 C0.000000 X266.724440 Y230.618842 Z313.200000 F100.000000
; P02 EVENT event-0000313 prime
G1 E125.567552408960355148 F100.000000
; P02 POINT 326 point-0000326 deposition
G1 A0.000000 C0.000000 X263.187708 Y230.618842 Z313.200000 E126.096897107464160248 F100.000000
; P02 EVENT event-0000314 retract
G1 E125.096897107464160248 F100.000000
; P02 POINT 327 point-0000327 travel
G1 A0.000000 C0.000000 X263.650717 Y230.018842 Z313.200000 F100.000000
; P02 EVENT event-0000315 prime
G1 E126.096897107464160248 F100.000000
; P02 POINT 328 point-0000328 deposition
G1 A0.000000 C0.000000 X267.187448 Y230.018842 Z313.200000 E126.626241803187077448 F100.000000
; P02 EVENT event-0000316 retract
G1 E125.626241803187077448 F100.000000
; P02 POINT 329 point-0000329 travel
G1 A0.000000 C0.000000 X267.650457 Y229.418842 Z313.200000 F100.000000
; P02 EVENT event-0000317 prime
G1 E126.626241803187077448 F100.000000
; P02 POINT 330 point-0000330 deposition
G1 A0.000000 C0.000000 X264.113726 Y229.418842 Z313.200000 E127.155586496129106248 F100.000000
; P02 EVENT event-0000318 retract
G1 E126.155586496129106248 F100.000000
; P02 POINT 331 point-0000331 travel
G1 A0.000000 C0.000000 X264.576734 Y228.818842 Z313.200000 F100.000000
; P02 EVENT event-0000319 prime
G1 E127.155586496129106248 F100.000000
; P02 POINT 332 point-0000332 deposition
G1 A0.000000 C0.000000 X268.113465 Y228.818842 Z313.200000 E127.684931186290247248 F100.000000
; P02 EVENT event-0000320 retract
G1 E126.684931186290247248 F100.000000
; P02 POINT 333 point-0000333 travel
G1 A0.000000 C0.000000 X268.576474 Y228.218842 Z313.200000 F100.000000
; P02 EVENT event-0000321 prime
G1 E127.684931186290247248 F100.000000
; P02 POINT 334 point-0000334 deposition
G1 A0.000000 C0.000000 X265.039743 Y228.218842 Z313.200000 E128.214275873670499748 F100.000000
; P02 EVENT event-0000322 retract
G1 E127.214275873670499748 F100.000000
; P02 POINT 335 point-0000335 travel
G1 A0.000000 C0.000000 X265.502752 Y227.618842 Z313.200000 F100.000000
; P02 EVENT event-0000323 prime
G1 E128.214275873670499748 F100.000000
; P02 POINT 336 point-0000336 deposition
G1 A0.000000 C0.000000 X269.039483 Y227.618842 Z313.200000 E128.743620558269864548 F100.000000
; P02 EVENT event-0000324 retract
G1 E127.743620558269864548 F100.000000
; P02 POINT 337 point-0000337 travel
G1 A0.000000 C0.000000 X269.502491 Y227.018842 Z313.200000 F100.000000
; P02 EVENT event-0000325 prime
G1 E128.743620558269864548 F100.000000
; P02 POINT 338 point-0000338 deposition
G1 A0.000000 C0.000000 X265.965760 Y227.018842 Z313.200000 E129.272965240088340948 F100.000000
; P02 EVENT event-0000326 retract
G1 E128.272965240088340948 F100.000000
; P02 POINT 339 point-0000339 travel
G1 A0.000000 C0.000000 X266.428769 Y226.418842 Z313.200000 F100.000000
; P02 EVENT event-0000327 prime
G1 E129.272965240088340948 F100.000000
; P02 POINT 340 point-0000340 deposition
G1 A0.000000 C0.000000 X269.965500 Y226.418842 Z313.200000 E129.802309919125929448 F100.000000
; P02 EVENT event-0000328 retract
G1 E128.802309919125929448 F100.000000
; P02 POINT 341 point-0000341 travel
G1 A0.000000 C0.000000 X270.428509 Y225.818842 Z313.200000 F100.000000
; P02 EVENT event-0000329 prime
G1 E129.802309919125929448 F100.000000
; P02 POINT 342 point-0000342 deposition
G1 A0.000000 C0.000000 X266.891778 Y225.818842 Z313.200000 E130.331654595382630248 F100.000000
; P02 EVENT event-0000330 retract
G1 E129.331654595382630248 F100.000000
; P02 POINT 343 point-0000343 travel
G1 A0.000000 C0.000000 X267.354786 Y225.218842 Z313.200000 F100.000000
; P02 EVENT event-0000331 prime
G1 E130.331654595382630248 F100.000000
; P02 POINT 344 point-0000344 deposition
G1 A0.000000 C0.000000 X270.891517 Y225.218842 Z313.200000 E130.860999268858442548 F100.000000
; P02 EVENT event-0000332 retract
G1 E129.860999268858442548 F100.000000
; P02 POINT 345 point-0000345 travel
G1 A0.000000 C0.000000 X271.354526 Y224.618842 Z313.200000 F100.000000
; P02 EVENT event-0000333 prime
G1 E130.860999268858442548 F100.000000
; P02 POINT 346 point-0000346 deposition
G1 A0.000000 C0.000000 X267.817795 Y224.618842 Z313.200000 E131.390343939553367048 F100.000000
; P02 EVENT event-0000334 retract
G1 E130.390343939553367048 F100.000000
; P02 POINT 347 point-0000347 travel
G1 A0.000000 C0.000000 X268.280804 Y224.018842 Z313.200000 F100.000000
; P02 EVENT event-0000335 prime
G1 E131.390343939553367048 F100.000000
; P02 POINT 348 point-0000348 deposition
G1 A0.000000 C0.000000 X271.817535 Y224.018842 Z313.200000 E131.919688607467403248 F100.000000
; P02 EVENT event-0000336 retract
G1 E130.919688607467403248 F100.000000
; P02 POINT 349 point-0000349 travel
G1 A0.000000 C0.000000 X272.280543 Y223.418842 Z313.200000 F100.000000
; P02 EVENT event-0000337 prime
G1 E131.919688607467403248 F100.000000
; P02 POINT 350 point-0000350 deposition
G1 A0.000000 C0.000000 X268.743812 Y223.418842 Z313.200000 E132.449033272600551048 F100.000000
; P02 EVENT event-0000338 retract
G1 E131.449033272600551048 F100.000000
; P02 POINT 351 point-0000351 travel
G1 A0.000000 C0.000000 X269.206821 Y222.818842 Z313.200000 F100.000000
; P02 EVENT event-0000339 prime
G1 E132.449033272600551048 F100.000000
; P02 POINT 352 point-0000352 deposition
G1 A0.000000 C0.000000 X272.743552 Y222.818842 Z313.200000 E132.978377934952810548 F100.000000
; P02 EVENT event-0000340 retract
G1 E131.978377934952810548 F100.000000
; P02 POINT 353 point-0000353 travel
G1 A0.000000 C0.000000 X273.206560 Y222.218842 Z313.200000 F100.000000
; P02 EVENT event-0000341 prime
G1 E132.978377934952810548 F100.000000
; P02 POINT 354 point-0000354 deposition
G1 A0.000000 C0.000000 X269.669830 Y222.218842 Z313.200000 E133.507722594524182748 F100.000000
; P02 EVENT event-0000342 retract
G1 E132.507722594524182748 F100.000000
; P02 POINT 355 point-0000355 travel
G1 A0.000000 C0.000000 X270.132838 Y221.618842 Z313.200000 F100.000000
; P02 EVENT event-0000343 prime
G1 E133.507722594524182748 F100.000000
; P02 POINT 356 point-0000356 deposition
G1 A0.000000 C0.000000 X273.669569 Y221.618842 Z313.200000 E134.037067251314666448 F100.000000
; P02 EVENT event-0000344 retract
G1 E133.037067251314666448 F100.000000
; P02 POINT 357 point-0000357 travel
G1 A0.000000 C0.000000 X274.132578 Y221.018842 Z313.200000 F100.000000
; P02 EVENT event-0000345 prime
G1 E134.037067251314666448 F100.000000
; P02 POINT 358 point-0000358 deposition
G1 A0.000000 C0.000000 X270.595847 Y221.018842 Z313.200000 E134.566411905324261848 F100.000000
; P02 EVENT event-0000346 retract
G1 E133.566411905324261848 F100.000000
; P02 POINT 359 point-0000359 travel
G1 A0.000000 C0.000000 X271.058856 Y220.418842 Z313.200000 F100.000000
; P02 EVENT event-0000347 prime
G1 E134.566411905324261848 F100.000000
; P02 POINT 360 point-0000360 deposition
G1 A0.000000 C0.000000 X274.595586 Y220.418842 Z313.200000 E135.095756556552968848 F100.000000
; P02 EVENT event-0000348 retract
G1 E134.095756556552968848 F100.000000
; P02 POINT 361 point-0000361 travel
G1 A0.000000 C0.000000 X275.058595 Y219.818842 Z313.200000 F100.000000
; P02 EVENT event-0000349 prime
G1 E135.095756556552968848 F100.000000
; P02 POINT 362 point-0000362 deposition
G1 A0.000000 C0.000000 X271.521864 Y219.818842 Z313.200000 E135.625101205000789248 F100.000000
; P02 EVENT event-0000350 retract
G1 E134.625101205000789248 F100.000000
; P02 POINT 363 point-0000363 travel
G1 A0.000000 C0.000000 X271.984873 Y219.218842 Z313.200000 F100.000000
; P02 EVENT event-0000351 prime
G1 E135.625101205000789248 F100.000000
; P02 POINT 364 point-0000364 deposition
G1 A0.000000 C0.000000 X275.521604 Y219.218842 Z313.200000 E136.154445850667720648 F100.000000
; P02 EVENT event-0000352 retract
G1 E135.154445850667720648 F100.000000
; P02 POINT 365 point-0000365 travel
G1 A0.000000 C0.000000 X275.984612 Y218.618842 Z313.200000 F100.000000
; P02 EVENT event-0000353 prime
G1 E136.154445850667720648 F100.000000
; P02 POINT 366 point-0000366 deposition
G1 A0.000000 C0.000000 X272.447882 Y218.618842 Z313.200000 E136.683790493553763748 F100.000000
; P02 EVENT event-0000354 retract
G1 E135.683790493553763748 F100.000000
; P02 POINT 367 point-0000367 travel
G1 A0.000000 C0.000000 X272.910890 Y218.018842 Z313.200000 F100.000000
; P02 EVENT event-0000355 prime
G1 E136.683790493553763748 F100.000000
; P02 POINT 368 point-0000368 deposition
G1 A0.000000 C0.000000 X276.447621 Y218.018842 Z313.200000 E137.213135133658919448 F100.000000
; P02 EVENT event-0000356 retract
G1 E136.213135133658919448 F100.000000
; P02 POINT 369 point-0000369 travel
G1 A0.000000 C0.000000 X276.910630 Y217.418842 Z313.200000 F100.000000
; P02 EVENT event-0000357 prime
G1 E137.213135133658919448 F100.000000
; P02 POINT 370 point-0000370 deposition
G1 A0.000000 C0.000000 X273.373899 Y217.418842 Z313.200000 E137.742479770983186248 F100.000000
; P02 EVENT event-0000358 retract
G1 E136.742479770983186248 F100.000000
; P02 POINT 371 point-0000371 travel
G1 A0.000000 C0.000000 X273.836907 Y216.818842 Z313.200000 F100.000000
; P02 EVENT event-0000359 prime
G1 E137.742479770983186248 F100.000000
; P02 POINT 372 point-0000372 deposition
G1 A0.000000 C0.000000 X277.373638 Y216.818842 Z313.200000 E138.271824405526565748 F100.000000
; P02 EVENT event-0000360 retract
G1 E137.271824405526565748 F100.000000
; P02 POINT 373 point-0000373 travel
G1 A0.000000 C0.000000 X277.836647 Y216.218842 Z313.200000 F100.000000
; P02 EVENT event-0000361 prime
G1 E138.271824405526565748 F100.000000
; P02 POINT 374 point-0000374 deposition
G1 A0.000000 C0.000000 X274.299916 Y216.218842 Z313.200000 E138.801169037289056448 F100.000000
; P02 EVENT event-0000362 retract
G1 E137.801169037289056448 F100.000000
; P02 POINT 375 point-0000375 travel
G1 A0.000000 C0.000000 X274.762925 Y215.618842 Z313.200000 F100.000000
; P02 EVENT event-0000363 prime
G1 E138.801169037289056448 F100.000000
; P02 POINT 376 point-0000376 deposition
G1 A0.000000 C0.000000 X278.299655 Y215.618842 Z313.200000 E139.330513666270659848 F100.000000
; P02 EVENT event-0000364 retract
G1 E138.330513666270659848 F100.000000
; P02 POINT 377 point-0000377 travel
G1 A0.000000 C0.000000 X278.762664 Y215.018842 Z313.200000 F100.000000
; P02 EVENT event-0000365 prime
G1 E139.330513666270659848 F100.000000
; P02 POINT 378 point-0000378 deposition
G1 A0.000000 C0.000000 X275.225933 Y215.018842 Z313.200000 E139.859858292471374848 F100.000000
; P02 EVENT event-0000366 retract
G1 E138.859858292471374848 F100.000000
; P02 POINT 379 point-0000379 travel
G1 A0.000000 C0.000000 X275.688942 Y214.418842 Z313.200000 F100.000000
; P02 EVENT event-0000367 prime
G1 E139.859858292471374848 F100.000000
; P02 POINT 380 point-0000380 deposition
G1 A0.000000 C0.000000 X279.225673 Y214.418842 Z313.200000 E140.389202915891201948 F100.000000
; P02 EVENT event-0000368 retract
G1 E139.389202915891201948 F100.000000
; P02 POINT 381 point-0000381 travel
G1 A0.000000 C0.000000 X279.688681 Y213.818842 Z313.200000 F100.000000
; P02 EVENT event-0000369 prime
G1 E140.389202915891201948 F100.000000
; P02 POINT 382 point-0000382 deposition
G1 A0.000000 C0.000000 X276.151951 Y213.818842 Z313.200000 E140.918547536530140648 F100.000000
; P02 EVENT event-0000370 retract
G1 E139.918547536530140648 F100.000000
; P02 POINT 383 point-0000383 travel
G1 A0.000000 C0.000000 X276.614959 Y213.218842 Z313.200000 F100.000000
; P02 EVENT event-0000371 prime
G1 E140.918547536530140648 F100.000000
; P02 POINT 384 point-0000384 deposition
G1 A0.000000 C0.000000 X280.151690 Y213.218842 Z313.200000 E141.447892154388191648 F100.000000
; P02 EVENT event-0000372 retract
G1 E140.447892154388191648 F100.000000
; P02 POINT 385 point-0000385 travel
G1 A0.000000 C0.000000 X280.614699 Y212.618842 Z313.200000 F100.000000
; P02 EVENT event-0000373 prime
G1 E141.447892154388191648 F100.000000
; P02 POINT 386 point-0000386 deposition
G1 A0.000000 C0.000000 X277.077968 Y212.618842 Z313.200000 E141.977236769465354248 F100.000000
; P02 EVENT event-0000374 retract
G1 E140.977236769465354248 F100.000000
; P02 POINT 387 point-0000387 travel
G1 A0.000000 C0.000000 X277.540977 Y212.018842 Z313.200000 F100.000000
; P02 EVENT event-0000375 prime
G1 E141.977236769465354248 F100.000000
; P02 POINT 388 point-0000388 deposition
G1 A0.000000 C0.000000 X281.077707 Y212.018842 Z313.200000 E142.506581381761629548 F100.000000
; P02 EVENT event-0000376 retract
G1 E141.506581381761629548 F100.000000
; P02 POINT 389 point-0000389 travel
G1 A0.000000 C0.000000 X281.540716 Y211.418842 Z313.200000 F100.000000
; P02 EVENT event-0000377 prime
G1 E142.506581381761629548 F100.000000
; P02 POINT 390 point-0000390 deposition
G1 A0.000000 C0.000000 X278.003985 Y211.418842 Z313.200000 E143.035925991277015948 F100.000000
; P02 EVENT event-0000378 retract
G1 E142.035925991277015948 F100.000000
; P02 POINT 391 point-0000391 travel
G1 A0.000000 C0.000000 X278.466994 Y210.818842 Z313.200000 F100.000000
; P02 EVENT event-0000379 prime
G1 E143.035925991277015948 F100.000000
; P02 POINT 392 point-0000392 deposition
G1 A0.000000 C0.000000 X282.003725 Y210.818842 Z313.200000 E143.565270598011514948 F100.000000
; P02 EVENT event-0000380 retract
G1 E142.565270598011514948 F100.000000
; P02 POINT 393 point-0000393 travel
G1 A0.000000 C0.000000 X282.466733 Y210.218842 Z313.200000 F100.000000
; P02 EVENT event-0000381 prime
G1 E143.565270598011514948 F100.000000
; P02 POINT 394 point-0000394 deposition
G1 A0.000000 C0.000000 X278.930003 Y210.218842 Z313.200000 E144.094615201965125248 F100.000000
; P02 EVENT event-0000382 retract
G1 E143.094615201965125248 F100.000000
; P02 POINT 395 point-0000395 travel
G1 A0.000000 C0.000000 X279.393011 Y209.618842 Z313.200000 F100.000000
; P02 EVENT event-0000383 prime
G1 E144.094615201965125248 F100.000000
; P02 POINT 396 point-0000396 deposition
G1 A0.000000 C0.000000 X282.929742 Y209.618842 Z313.200000 E144.623959803137848248 F100.000000
; P02 EVENT event-0000384 retract
G1 E143.623959803137848248 F100.000000
; P02 POINT 397 point-0000397 travel
G1 A0.000000 C0.000000 X283.392750 Y209.018842 Z313.200000 F100.000000
; P02 EVENT event-0000385 prime
G1 E144.623959803137848248 F100.000000
; P02 POINT 398 point-0000398 deposition
G1 A0.000000 C0.000000 X279.856020 Y209.018842 Z313.200000 E145.153304401529682248 F100.000000
; P02 EVENT event-0000386 retract
G1 E144.153304401529682248 F100.000000
; P02 POINT 399 point-0000399 travel
G1 A0.000000 C0.000000 X280.319029 Y208.418842 Z313.200000 F100.000000
; P02 EVENT event-0000387 prime
G1 E145.153304401529682248 F100.000000
; P02 POINT 400 point-0000400 deposition
G1 A0.000000 C0.000000 X283.855759 Y208.418842 Z313.200000 E145.682648997140628948 F100.000000
; P02 EVENT event-0000388 retract
G1 E144.682648997140628948 F100.000000
; P02 POINT 401 point-0000401 travel
G1 A0.000000 C0.000000 X284.318768 Y207.818842 Z313.200000 F100.000000
; P02 EVENT event-0000389 prime
G1 E145.682648997140628948 F100.000000
; P02 POINT 402 point-0000402 deposition
G1 A0.000000 C0.000000 X280.782037 Y207.818842 Z313.200000 E146.211993589970686648 F100.000000
; P02 EVENT event-0000390 retract
G1 E145.211993589970686648 F100.000000
; P02 POINT 403 point-0000403 travel
G1 A0.000000 C0.000000 X281.245046 Y207.218842 Z313.200000 F100.000000
; P02 EVENT event-0000391 prime
G1 E146.211993589970686648 F100.000000
; P02 POINT 404 point-0000404 deposition
G1 A0.000000 C0.000000 X284.781776 Y207.218842 Z313.200000 E146.741338180019857248 F100.000000
; P02 EVENT event-0000392 retract
G1 E145.741338180019857248 F100.000000
; P02 POINT 405 point-0000405 travel
G1 A0.000000 C0.000000 X285.244785 Y206.618842 Z313.200000 F100.000000
; P02 EVENT event-0000393 prime
G1 E146.741338180019857248 F100.000000
; P02 POINT 406 point-0000406 deposition
G1 A0.000000 C0.000000 X281.708055 Y206.618842 Z313.200000 E147.270682767288138848 F100.000000
; P02 EVENT event-0000394 retract
G1 E146.270682767288138848 F100.000000
; P02 POINT 407 point-0000407 travel
G1 A0.000000 C0.000000 X282.171063 Y206.018842 Z313.200000 F100.000000
; P02 EVENT event-0000395 prime
G1 E147.270682767288138848 F100.000000
; P02 POINT 408 point-0000408 deposition
G1 A0.000000 C0.000000 X285.707794 Y206.018842 Z313.200000 E147.800027351775533148 F100.000000
; P02 EVENT event-0000396 retract
G1 E146.800027351775533148 F100.000000
; P02 POINT 409 point-0000409 travel
G1 A0.000000 C0.000000 X286.170802 Y205.418842 Z313.200000 F100.000000
; P02 EVENT event-0000397 prime
G1 E147.800027351775533148 F100.000000
; P02 POINT 410 point-0000410 deposition
G1 A0.000000 C0.000000 X282.634072 Y205.418842 Z313.200000 E148.329371933482037548 F100.000000
; P02 EVENT event-0000398 retract
G1 E147.329371933482037548 F100.000000
; P02 POINT 411 point-0000411 travel
G1 A0.000000 C0.000000 X283.097081 Y204.818842 Z313.200000 F100.000000
; P02 EVENT event-0000399 prime
G1 E148.329371933482037548 F100.000000
; P02 POINT 412 point-0000412 deposition
G1 A0.000000 C0.000000 X286.633811 Y204.818842 Z313.200000 E148.858716512407655148 F100.000000
; P02 EVENT event-0000400 retract
G1 E147.858716512407655148 F100.000000
; P02 POINT 413 point-0000413 travel
G1 A0.000000 C0.000000 X287.096820 Y204.218842 Z313.200000 F100.000000
; P02 EVENT event-0000401 prime
G1 E148.858716512407655148 F100.000000
; P02 POINT 414 point-0000414 deposition
G1 A0.000000 C0.000000 X283.560089 Y204.218842 Z313.200000 E149.388061088552384848 F100.000000
; P02 EVENT event-0000402 retract
G1 E148.388061088552384848 F100.000000
; P02 POINT 415 point-0000415 travel
G1 A0.000000 C0.000000 X284.023098 Y203.618842 Z313.200000 F100.000000
; P02 EVENT event-0000403 prime
G1 E149.388061088552384848 F100.000000
; P02 POINT 416 point-0000416 deposition
G1 A0.000000 C0.000000 X287.124428 Y203.618842 Z313.200000 E149.852239003102428948 F100.000000
; P02 EVENT event-0000404 retract
G1 E148.852239003102428948 F100.000000
; P02 POINT 417 point-0000417 travel
G1 A0.000000 C0.000000 X286.346904 Y203.018842 Z313.200000 F100.000000
; P02 EVENT event-0000405 prime
G1 E149.852239003102428948 F100.000000
; P02 POINT 418 point-0000418 deposition
G1 A0.000000 C0.000000 X284.486107 Y203.018842 Z313.200000 E150.130745751832454548 F100.000000
; P02 EVENT event-0000406 retract
G1 E149.130745751832454548 F100.000000
; P02 POINT 419 point-0000419 travel
G1 A0.000000 C0.000000 X284.949115 Y202.418842 Z313.200000 F100.000000
; P02 EVENT event-0000407 prime
G1 E150.130745751832454548 F100.000000
; P02 POINT 420 point-0000420 deposition
G1 A0.000000 C0.000000 X285.569381 Y202.418842 Z313.200000 E150.223581334742462748 F100.000000
; P02 EVENT event-0000408 retract
G1 E149.223581334742462748 F100.000000
; P02 POINT 421 point-0000421 travel
G1 A0.000000 C0.000000 X258.390284 Y241.418842 Z313.200000 F100.000000
; P02 EVENT event-0000409 prime
G1 E150.223581334742462748 F100.000000
; P02 POINT 422 point-0000422 deposition
G1 A0.000000 C0.000000 X256.230461 Y241.418842 Z313.200000 E150.546843428680649578 F100.000000
; P02 EVENT event-0000410 retract
G1 E149.546843428680649578 F100.000000
; P02 POINT 423 point-0000423 travel
G1 A0.000000 C0.000000 X257.007983 Y242.018842 Z313.200000 F100.000000
; P02 EVENT event-0000411 prime
G1 E150.546843428680649578 F100.000000
; P02 POINT 424 point-0000424 deposition
G1 A0.000000 C0.000000 X257.927275 Y242.018842 Z313.200000 E150.684434551936871218 F100.000000
M400 ; finish queued motion
M2
