; 5AxisSclicer P02 Planar Zigzag
; reference XYZAC profile; offline simulation only
G21 ; millimetres
G90 ; absolute axes
M82 ; absolute extrusion
; P02 POINT 1 point-0000001 approach
G1 A0.000000 C0.000000 X254.364547 Y240.783156 Z312.000000 F100.000
; P02 EVENT event-0000001 prime
G1 E1.000000 F100.000
; P02 POINT 2 point-0000002 deposition
G1 A0.000000 C0.000000 X254.830887 Y240.156358 Z312.000000 E1.116930 F100.000
; P02 POINT 3 point-0000003 deposition
G1 A0.000000 C0.000000 X255.297227 Y239.529560 Z312.000000 E1.233860 F100.000
; P02 POINT 4 point-0000004 deposition
G1 A0.000000 C0.000000 X255.763567 Y238.902762 Z312.000000 E1.350790 F100.000
; P02 POINT 5 point-0000005 deposition
G1 A0.000000 C0.000000 X256.229907 Y238.275964 Z312.000000 E1.467720 F100.000
; P02 POINT 6 point-0000006 deposition
G1 A0.000000 C0.000000 X256.696247 Y237.649166 Z312.000000 E1.584649 F100.000
; P02 POINT 7 point-0000007 deposition
G1 A0.000000 C0.000000 X257.162586 Y237.022368 Z312.000000 E1.701579 F100.000
; P02 POINT 8 point-0000008 deposition
G1 A0.000000 C0.000000 X257.628926 Y236.395570 Z312.000000 E1.818509 F100.000
; P02 POINT 9 point-0000009 deposition
G1 A0.000000 C0.000000 X258.095266 Y235.768772 Z312.000000 E1.935439 F100.000
; P02 POINT 10 point-0000010 deposition
G1 A0.000000 C0.000000 X258.561606 Y235.141974 Z312.000000 E2.052369 F100.000
; P02 POINT 11 point-0000011 deposition
G1 A0.000000 C0.000000 X259.027946 Y234.515176 Z312.000000 E2.169299 F100.000
; P02 POINT 12 point-0000012 deposition
G1 A0.000000 C0.000000 X259.494286 Y233.888378 Z312.000000 E2.286229 F100.000
; P02 POINT 13 point-0000013 deposition
G1 A0.000000 C0.000000 X259.960626 Y233.261580 Z312.000000 E2.403159 F100.000
; P02 POINT 14 point-0000014 deposition
G1 A0.000000 C0.000000 X260.426965 Y232.634782 Z312.000000 E2.520088 F100.000
; P02 POINT 15 point-0000015 deposition
G1 A0.000000 C0.000000 X260.893305 Y232.007984 Z312.000000 E2.637018 F100.000
; P02 POINT 16 point-0000016 deposition
G1 A0.000000 C0.000000 X261.359645 Y231.381186 Z312.000000 E2.753948 F100.000
; P02 POINT 17 point-0000017 deposition
G1 A0.000000 C0.000000 X261.825985 Y230.754388 Z312.000000 E2.870878 F100.000
; P02 POINT 18 point-0000018 deposition
G1 A0.000000 C0.000000 X262.292325 Y230.127590 Z312.000000 E2.987808 F100.000
; P02 POINT 19 point-0000019 deposition
G1 A0.000000 C0.000000 X262.758665 Y229.500792 Z312.000000 E3.104738 F100.000
; P02 POINT 20 point-0000020 deposition
G1 A0.000000 C0.000000 X263.225005 Y228.873994 Z312.000000 E3.221668 F100.000
; P02 POINT 21 point-0000021 deposition
G1 A0.000000 C0.000000 X263.691344 Y228.247196 Z312.000000 E3.338598 F100.000
; P02 POINT 22 point-0000022 deposition
G1 A0.000000 C0.000000 X264.157684 Y227.620398 Z312.000000 E3.455527 F100.000
; P02 POINT 23 point-0000023 deposition
G1 A0.000000 C0.000000 X264.624024 Y226.993600 Z312.000000 E3.572457 F100.000
; P02 POINT 24 point-0000024 deposition
G1 A0.000000 C0.000000 X265.090364 Y226.366802 Z312.000000 E3.689387 F100.000
; P02 POINT 25 point-0000025 deposition
G1 A0.000000 C0.000000 X265.556704 Y225.740004 Z312.000000 E3.806317 F100.000
; P02 POINT 26 point-0000026 deposition
G1 A0.000000 C0.000000 X266.023044 Y225.113206 Z312.000000 E3.923247 F100.000
; P02 POINT 27 point-0000027 deposition
G1 A0.000000 C0.000000 X266.489384 Y224.486408 Z312.000000 E4.040177 F100.000
; P02 POINT 28 point-0000028 deposition
G1 A0.000000 C0.000000 X266.955723 Y223.859610 Z312.000000 E4.157107 F100.000
; P02 POINT 29 point-0000029 deposition
G1 A0.000000 C0.000000 X267.422063 Y223.232812 Z312.000000 E4.274037 F100.000
; P02 POINT 30 point-0000030 deposition
G1 A0.000000 C0.000000 X267.888403 Y222.606014 Z312.000000 E4.390966 F100.000
; P02 POINT 31 point-0000031 deposition
G1 A0.000000 C0.000000 X268.354743 Y221.979216 Z312.000000 E4.507896 F100.000
; P02 POINT 32 point-0000032 deposition
G1 A0.000000 C0.000000 X268.821083 Y221.352418 Z312.000000 E4.624826 F100.000
; P02 POINT 33 point-0000033 deposition
G1 A0.000000 C0.000000 X269.287423 Y220.725620 Z312.000000 E4.741756 F100.000
; P02 POINT 34 point-0000034 deposition
G1 A0.000000 C0.000000 X269.753763 Y220.098822 Z312.000000 E4.858686 F100.000
; P02 POINT 35 point-0000035 deposition
G1 A0.000000 C0.000000 X270.220102 Y219.472024 Z312.000000 E4.975616 F100.000
; P02 POINT 36 point-0000036 deposition
G1 A0.000000 C0.000000 X270.686442 Y218.845226 Z312.000000 E5.092546 F100.000
; P02 POINT 37 point-0000037 deposition
G1 A0.000000 C0.000000 X271.152782 Y218.218428 Z312.000000 E5.209476 F100.000
; P02 POINT 38 point-0000038 deposition
G1 A0.000000 C0.000000 X271.619122 Y217.591630 Z312.000000 E5.326405 F100.000
; P02 POINT 39 point-0000039 deposition
G1 A0.000000 C0.000000 X272.085462 Y216.964832 Z312.000000 E5.443335 F100.000
; P02 POINT 40 point-0000040 deposition
G1 A0.000000 C0.000000 X272.551802 Y216.338034 Z312.000000 E5.560265 F100.000
; P02 POINT 41 point-0000041 deposition
G1 A0.000000 C0.000000 X273.018142 Y215.711236 Z312.000000 E5.677195 F100.000
; P02 POINT 42 point-0000042 deposition
G1 A0.000000 C0.000000 X273.484481 Y215.084438 Z312.000000 E5.794125 F100.000
; P02 POINT 43 point-0000043 deposition
G1 A0.000000 C0.000000 X273.950821 Y214.457640 Z312.000000 E5.911055 F100.000
; P02 POINT 44 point-0000044 deposition
G1 A0.000000 C0.000000 X274.417161 Y213.830842 Z312.000000 E6.027985 F100.000
; P02 POINT 45 point-0000045 deposition
G1 A0.000000 C0.000000 X274.883501 Y213.204044 Z312.000000 E6.144915 F100.000
; P02 POINT 46 point-0000046 deposition
G1 A0.000000 C0.000000 X275.349841 Y212.577246 Z312.000000 E6.261844 F100.000
; P02 POINT 47 point-0000047 deposition
G1 A0.000000 C0.000000 X275.816181 Y211.950448 Z312.000000 E6.378774 F100.000
; P02 POINT 48 point-0000048 deposition
G1 A0.000000 C0.000000 X276.282521 Y211.323650 Z312.000000 E6.495704 F100.000
; P02 POINT 49 point-0000049 deposition
G1 A0.000000 C0.000000 X276.748860 Y210.696852 Z312.000000 E6.612634 F100.000
; P02 POINT 50 point-0000050 deposition
G1 A0.000000 C0.000000 X277.215200 Y210.070054 Z312.000000 E6.729564 F100.000
; P02 POINT 51 point-0000051 deposition
G1 A0.000000 C0.000000 X277.681540 Y209.443256 Z312.000000 E6.846494 F100.000
; P02 POINT 52 point-0000052 deposition
G1 A0.000000 C0.000000 X278.147880 Y208.816458 Z312.000000 E6.963424 F100.000
; P02 POINT 53 point-0000053 deposition
G1 A0.000000 C0.000000 X278.614220 Y208.189660 Z312.000000 E7.080354 F100.000
; P02 POINT 54 point-0000054 deposition
G1 A0.000000 C0.000000 X279.080560 Y207.562862 Z312.000000 E7.197283 F100.000
; P02 POINT 55 point-0000055 deposition
G1 A0.000000 C0.000000 X279.546900 Y206.936064 Z312.000000 E7.314213 F100.000
; P02 POINT 56 point-0000056 deposition
G1 A0.000000 C0.000000 X280.013239 Y206.309266 Z312.000000 E7.431143 F100.000
; P02 POINT 57 point-0000057 deposition
G1 A0.000000 C0.000000 X280.479579 Y205.682468 Z312.000000 E7.548073 F100.000
; P02 POINT 58 point-0000058 deposition
G1 A0.000000 C0.000000 X280.945919 Y205.055670 Z312.000000 E7.665003 F100.000
; P02 POINT 59 point-0000059 deposition
G1 A0.000000 C0.000000 X281.412259 Y204.428872 Z312.000000 E7.781933 F100.000
; P02 POINT 60 point-0000060 deposition
G1 A0.000000 C0.000000 X281.878599 Y203.802074 Z312.000000 E7.898863 F100.000
; P02 POINT 61 point-0000061 deposition
G1 A0.000000 C0.000000 X282.344939 Y203.175276 Z312.000000 E8.015793 F100.000
; P02 POINT 62 point-0000062 deposition
G1 A0.000000 C0.000000 X282.811279 Y202.548478 Z312.000000 E8.132722 F100.000
; P02 POINT 63 point-0000063 deposition
G1 A0.000000 C0.000000 X283.277618 Y201.921680 Z312.000000 E8.249652 F100.000
; P02 POINT 64 point-0000064 deposition
G1 A0.000000 C0.000000 X283.743958 Y201.294882 Z312.000000 E8.366582 F100.000
; P02 POINT 65 point-0000065 deposition
G1 A0.000000 C0.000000 X284.210298 Y200.668084 Z312.000000 E8.483512 F100.000
; P02 POINT 66 point-0000066 deposition
G1 A0.000000 C0.000000 X284.260442 Y200.705391 Z312.000000 E8.492867 F100.000
; P02 POINT 67 point-0000067 deposition
G1 A0.000000 C0.000000 X284.310586 Y200.742699 Z312.000000 E8.502221 F100.000
; P02 POINT 68 point-0000068 deposition
G1 A0.000000 C0.000000 X284.360730 Y200.780006 Z312.000000 E8.511575 F100.000
; P02 POINT 69 point-0000069 deposition
G1 A0.000000 C0.000000 X284.410873 Y200.817313 Z312.000000 E8.520930 F100.000
; P02 POINT 70 point-0000070 deposition
G1 A0.000000 C0.000000 X284.461017 Y200.854620 Z312.000000 E8.530284 F100.000
; P02 POINT 71 point-0000071 deposition
G1 A0.000000 C0.000000 X284.511161 Y200.891927 Z312.000000 E8.539638 F100.000
; P02 POINT 72 point-0000072 deposition
G1 A0.000000 C0.000000 X284.561305 Y200.929235 Z312.000000 E8.548993 F100.000
; P02 POINT 73 point-0000073 deposition
G1 A0.000000 C0.000000 X284.611449 Y200.966542 Z312.000000 E8.558347 F100.000
; P02 POINT 74 point-0000074 deposition
G1 A0.000000 C0.000000 X284.661593 Y201.003849 Z312.000000 E8.567702 F100.000
; P02 POINT 75 point-0000075 deposition
G1 A0.000000 C0.000000 X284.711736 Y201.041156 Z312.000000 E8.577056 F100.000
; P02 POINT 76 point-0000076 deposition
G1 A0.000000 C0.000000 X284.761880 Y201.078463 Z312.000000 E8.586410 F100.000
; P02 POINT 77 point-0000077 deposition
G1 A0.000000 C0.000000 X284.812024 Y201.115770 Z312.000000 E8.595765 F100.000
; P02 POINT 78 point-0000078 deposition
G1 A0.000000 C0.000000 X284.862168 Y201.153078 Z312.000000 E8.605119 F100.000
; P02 POINT 79 point-0000079 deposition
G1 A0.000000 C0.000000 X284.912312 Y201.190385 Z312.000000 E8.614474 F100.000
; P02 POINT 80 point-0000080 deposition
G1 A0.000000 C0.000000 X284.962456 Y201.227692 Z312.000000 E8.623828 F100.000
; P02 POINT 81 point-0000081 deposition
G1 A0.000000 C0.000000 X285.012600 Y201.264999 Z312.000000 E8.633182 F100.000
; P02 POINT 82 point-0000082 deposition
G1 A0.000000 C0.000000 X285.062743 Y201.302306 Z312.000000 E8.642537 F100.000
; P02 POINT 83 point-0000083 deposition
G1 A0.000000 C0.000000 X285.112887 Y201.339614 Z312.000000 E8.651891 F100.000
; P02 POINT 84 point-0000084 deposition
G1 A0.000000 C0.000000 X285.163031 Y201.376921 Z312.000000 E8.661246 F100.000
; P02 POINT 85 point-0000085 deposition
G1 A0.000000 C0.000000 X285.213175 Y201.414228 Z312.000000 E8.670600 F100.000
; P02 POINT 86 point-0000086 deposition
G1 A0.000000 C0.000000 X285.263319 Y201.451535 Z312.000000 E8.679954 F100.000
; P02 POINT 87 point-0000087 deposition
G1 A0.000000 C0.000000 X285.313463 Y201.488842 Z312.000000 E8.689309 F100.000
; P02 POINT 88 point-0000088 deposition
G1 A0.000000 C0.000000 X285.363606 Y201.526150 Z312.000000 E8.698663 F100.000
; P02 POINT 89 point-0000089 deposition
G1 A0.000000 C0.000000 X285.413750 Y201.563457 Z312.000000 E8.708017 F100.000
; P02 POINT 90 point-0000090 deposition
G1 A0.000000 C0.000000 X285.463894 Y201.600764 Z312.000000 E8.717372 F100.000
; P02 POINT 91 point-0000091 deposition
G1 A0.000000 C0.000000 X285.514038 Y201.638071 Z312.000000 E8.726726 F100.000
; P02 POINT 92 point-0000092 deposition
G1 A0.000000 C0.000000 X285.564182 Y201.675378 Z312.000000 E8.736081 F100.000
; P02 POINT 93 point-0000093 deposition
G1 A0.000000 C0.000000 X285.614326 Y201.712685 Z312.000000 E8.745435 F100.000
; P02 POINT 94 point-0000094 deposition
G1 A0.000000 C0.000000 X285.664469 Y201.749993 Z312.000000 E8.754789 F100.000
; P02 POINT 95 point-0000095 deposition
G1 A0.000000 C0.000000 X285.714613 Y201.787300 Z312.000000 E8.764144 F100.000
; P02 POINT 96 point-0000096 deposition
G1 A0.000000 C0.000000 X285.764757 Y201.824607 Z312.000000 E8.773498 F100.000
; P02 POINT 97 point-0000097 deposition
G1 A0.000000 C0.000000 X285.814901 Y201.861914 Z312.000000 E8.782853 F100.000
; P02 POINT 98 point-0000098 deposition
G1 A0.000000 C0.000000 X285.865045 Y201.899221 Z312.000000 E8.792207 F100.000
; P02 POINT 99 point-0000099 deposition
G1 A0.000000 C0.000000 X285.915189 Y201.936529 Z312.000000 E8.801561 F100.000
; P02 POINT 100 point-0000100 deposition
G1 A0.000000 C0.000000 X285.965332 Y201.973836 Z312.000000 E8.810916 F100.000
; P02 POINT 101 point-0000101 deposition
G1 A0.000000 C0.000000 X286.015476 Y202.011143 Z312.000000 E8.820270 F100.000
; P02 POINT 102 point-0000102 deposition
G1 A0.000000 C0.000000 X286.065620 Y202.048450 Z312.000000 E8.829625 F100.000
; P02 POINT 103 point-0000103 deposition
G1 A0.000000 C0.000000 X286.115764 Y202.085757 Z312.000000 E8.838979 F100.000
; P02 POINT 104 point-0000104 deposition
G1 A0.000000 C0.000000 X286.165908 Y202.123065 Z312.000000 E8.848333 F100.000
; P02 POINT 105 point-0000105 deposition
G1 A0.000000 C0.000000 X286.216052 Y202.160372 Z312.000000 E8.857688 F100.000
; P02 POINT 106 point-0000106 deposition
G1 A0.000000 C0.000000 X286.266195 Y202.197679 Z312.000000 E8.867042 F100.000
; P02 POINT 107 point-0000107 deposition
G1 A0.000000 C0.000000 X286.316339 Y202.234986 Z312.000000 E8.876397 F100.000
; P02 POINT 108 point-0000108 deposition
G1 A0.000000 C0.000000 X286.366483 Y202.272293 Z312.000000 E8.885751 F100.000
; P02 POINT 109 point-0000109 deposition
G1 A0.000000 C0.000000 X286.416627 Y202.309600 Z312.000000 E8.895105 F100.000
; P02 POINT 110 point-0000110 deposition
G1 A0.000000 C0.000000 X286.466771 Y202.346908 Z312.000000 E8.904460 F100.000
; P02 POINT 111 point-0000111 deposition
G1 A0.000000 C0.000000 X286.516915 Y202.384215 Z312.000000 E8.913814 F100.000
; P02 POINT 112 point-0000112 deposition
G1 A0.000000 C0.000000 X286.567059 Y202.421522 Z312.000000 E8.923168 F100.000
; P02 POINT 113 point-0000113 deposition
G1 A0.000000 C0.000000 X286.617202 Y202.458829 Z312.000000 E8.932523 F100.000
; P02 POINT 114 point-0000114 deposition
G1 A0.000000 C0.000000 X286.667346 Y202.496136 Z312.000000 E8.941877 F100.000
; P02 POINT 115 point-0000115 deposition
G1 A0.000000 C0.000000 X286.717490 Y202.533444 Z312.000000 E8.951232 F100.000
; P02 POINT 116 point-0000116 deposition
G1 A0.000000 C0.000000 X286.767634 Y202.570751 Z312.000000 E8.960586 F100.000
; P02 POINT 117 point-0000117 deposition
G1 A0.000000 C0.000000 X286.817778 Y202.608058 Z312.000000 E8.969940 F100.000
; P02 POINT 118 point-0000118 deposition
G1 A0.000000 C0.000000 X286.867922 Y202.645365 Z312.000000 E8.979295 F100.000
; P02 POINT 119 point-0000119 deposition
G1 A0.000000 C0.000000 X286.918065 Y202.682672 Z312.000000 E8.988649 F100.000
; P02 POINT 120 point-0000120 deposition
G1 A0.000000 C0.000000 X286.968209 Y202.719980 Z312.000000 E8.998004 F100.000
; P02 POINT 121 point-0000121 deposition
G1 A0.000000 C0.000000 X287.018353 Y202.757287 Z312.000000 E9.007358 F100.000
; P02 POINT 122 point-0000122 deposition
G1 A0.000000 C0.000000 X287.068497 Y202.794594 Z312.000000 E9.016712 F100.000
; P02 POINT 123 point-0000123 deposition
G1 A0.000000 C0.000000 X287.118641 Y202.831901 Z312.000000 E9.026067 F100.000
; P02 POINT 124 point-0000124 deposition
G1 A0.000000 C0.000000 X287.168785 Y202.869208 Z312.000000 E9.035421 F100.000
; P02 POINT 125 point-0000125 deposition
G1 A0.000000 C0.000000 X287.218928 Y202.906515 Z312.000000 E9.044776 F100.000
; P02 POINT 126 point-0000126 deposition
G1 A0.000000 C0.000000 X287.269072 Y202.943823 Z312.000000 E9.054130 F100.000
; P02 POINT 127 point-0000127 deposition
G1 A0.000000 C0.000000 X287.319216 Y202.981130 Z312.000000 E9.063484 F100.000
; P02 POINT 128 point-0000128 deposition
G1 A0.000000 C0.000000 X287.369360 Y203.018437 Z312.000000 E9.072839 F100.000
; P02 POINT 129 point-0000129 deposition
G1 A0.000000 C0.000000 X287.419504 Y203.055744 Z312.000000 E9.082193 F100.000
; P02 POINT 130 point-0000130 deposition
G1 A0.000000 C0.000000 X286.953164 Y203.682542 Z312.000000 E9.199123 F100.000
; P02 POINT 131 point-0000131 deposition
G1 A0.000000 C0.000000 X286.486824 Y204.309340 Z312.000000 E9.316053 F100.000
; P02 POINT 132 point-0000132 deposition
G1 A0.000000 C0.000000 X286.020484 Y204.936138 Z312.000000 E9.432983 F100.000
; P02 POINT 133 point-0000133 deposition
G1 A0.000000 C0.000000 X285.554144 Y205.562936 Z312.000000 E9.549913 F100.000
; P02 POINT 134 point-0000134 deposition
G1 A0.000000 C0.000000 X285.087805 Y206.189734 Z312.000000 E9.666842 F100.000
; P02 POINT 135 point-0000135 deposition
G1 A0.000000 C0.000000 X284.621465 Y206.816532 Z312.000000 E9.783772 F100.000
; P02 POINT 136 point-0000136 deposition
G1 A0.000000 C0.000000 X284.155125 Y207.443330 Z312.000000 E9.900702 F100.000
; P02 POINT 137 point-0000137 deposition
G1 A0.000000 C0.000000 X283.688785 Y208.070128 Z312.000000 E10.017632 F100.000
; P02 POINT 138 point-0000138 deposition
G1 A0.000000 C0.000000 X283.222445 Y208.696926 Z312.000000 E10.134562 F100.000
; P02 POINT 139 point-0000139 deposition
G1 A0.000000 C0.000000 X282.756105 Y209.323724 Z312.000000 E10.251492 F100.000
; P02 POINT 140 point-0000140 deposition
G1 A0.000000 C0.000000 X282.289765 Y209.950522 Z312.000000 E10.368422 F100.000
; P02 POINT 141 point-0000141 deposition
G1 A0.000000 C0.000000 X281.823426 Y210.577320 Z312.000000 E10.485352 F100.000
; P02 POINT 142 point-0000142 deposition
G1 A0.000000 C0.000000 X281.357086 Y211.204118 Z312.000000 E10.602281 F100.000
; P02 POINT 143 point-0000143 deposition
G1 A0.000000 C0.000000 X280.890746 Y211.830916 Z312.000000 E10.719211 F100.000
; P02 POINT 144 point-0000144 deposition
G1 A0.000000 C0.000000 X280.424406 Y212.457714 Z312.000000 E10.836141 F100.000
; P02 POINT 145 point-0000145 deposition
G1 A0.000000 C0.000000 X279.958066 Y213.084512 Z312.000000 E10.953071 F100.000
; P02 POINT 146 point-0000146 deposition
G1 A0.000000 C0.000000 X279.491726 Y213.711310 Z312.000000 E11.070001 F100.000
; P02 POINT 147 point-0000147 deposition
G1 A0.000000 C0.000000 X279.025386 Y214.338108 Z312.000000 E11.186931 F100.000
; P02 POINT 148 point-0000148 deposition
G1 A0.000000 C0.000000 X278.559047 Y214.964906 Z312.000000 E11.303861 F100.000
; P02 POINT 149 point-0000149 deposition
G1 A0.000000 C0.000000 X278.092707 Y215.591704 Z312.000000 E11.420791 F100.000
; P02 POINT 150 point-0000150 deposition
G1 A0.000000 C0.000000 X277.626367 Y216.218502 Z312.000000 E11.537721 F100.000
; P02 POINT 151 point-0000151 deposition
G1 A0.000000 C0.000000 X277.160027 Y216.845300 Z312.000000 E11.654650 F100.000
; P02 POINT 152 point-0000152 deposition
G1 A0.000000 C0.000000 X276.693687 Y217.472098 Z312.000000 E11.771580 F100.000
; P02 POINT 153 point-0000153 deposition
G1 A0.000000 C0.000000 X276.227347 Y218.098896 Z312.000000 E11.888510 F100.000
; P02 POINT 154 point-0000154 deposition
G1 A0.000000 C0.000000 X275.761007 Y218.725694 Z312.000000 E12.005440 F100.000
; P02 POINT 155 point-0000155 deposition
G1 A0.000000 C0.000000 X275.294668 Y219.352492 Z312.000000 E12.122370 F100.000
; P02 POINT 156 point-0000156 deposition
G1 A0.000000 C0.000000 X274.828328 Y219.979290 Z312.000000 E12.239300 F100.000
; P02 POINT 157 point-0000157 deposition
G1 A0.000000 C0.000000 X274.361988 Y220.606088 Z312.000000 E12.356230 F100.000
; P02 POINT 158 point-0000158 deposition
G1 A0.000000 C0.000000 X273.895648 Y221.232886 Z312.000000 E12.473160 F100.000
; P02 POINT 159 point-0000159 deposition
G1 A0.000000 C0.000000 X273.429308 Y221.859684 Z312.000000 E12.590089 F100.000
; P02 POINT 160 point-0000160 deposition
G1 A0.000000 C0.000000 X272.962968 Y222.486482 Z312.000000 E12.707019 F100.000
; P02 POINT 161 point-0000161 deposition
G1 A0.000000 C0.000000 X272.496628 Y223.113280 Z312.000000 E12.823949 F100.000
; P02 POINT 162 point-0000162 deposition
G1 A0.000000 C0.000000 X272.030289 Y223.740078 Z312.000000 E12.940879 F100.000
; P02 POINT 163 point-0000163 deposition
G1 A0.000000 C0.000000 X271.563949 Y224.366876 Z312.000000 E13.057809 F100.000
; P02 POINT 164 point-0000164 deposition
G1 A0.000000 C0.000000 X271.097609 Y224.993674 Z312.000000 E13.174739 F100.000
; P02 POINT 165 point-0000165 deposition
G1 A0.000000 C0.000000 X270.631269 Y225.620472 Z312.000000 E13.291669 F100.000
; P02 POINT 166 point-0000166 deposition
G1 A0.000000 C0.000000 X270.164929 Y226.247270 Z312.000000 E13.408599 F100.000
; P02 POINT 167 point-0000167 deposition
G1 A0.000000 C0.000000 X269.698589 Y226.874068 Z312.000000 E13.525528 F100.000
; P02 POINT 168 point-0000168 deposition
G1 A0.000000 C0.000000 X269.232249 Y227.500866 Z312.000000 E13.642458 F100.000
; P02 POINT 169 point-0000169 deposition
G1 A0.000000 C0.000000 X268.765910 Y228.127664 Z312.000000 E13.759388 F100.000
; P02 POINT 170 point-0000170 deposition
G1 A0.000000 C0.000000 X268.299570 Y228.754462 Z312.000000 E13.876318 F100.000
; P02 POINT 171 point-0000171 deposition
G1 A0.000000 C0.000000 X267.833230 Y229.381260 Z312.000000 E13.993248 F100.000
; P02 POINT 172 point-0000172 deposition
G1 A0.000000 C0.000000 X267.366890 Y230.008058 Z312.000000 E14.110178 F100.000
; P02 POINT 173 point-0000173 deposition
G1 A0.000000 C0.000000 X266.900550 Y230.634856 Z312.000000 E14.227108 F100.000
; P02 POINT 174 point-0000174 deposition
G1 A0.000000 C0.000000 X266.434210 Y231.261654 Z312.000000 E14.344038 F100.000
; P02 POINT 175 point-0000175 deposition
G1 A0.000000 C0.000000 X265.967870 Y231.888452 Z312.000000 E14.460967 F100.000
; P02 POINT 176 point-0000176 deposition
G1 A0.000000 C0.000000 X265.501531 Y232.515250 Z312.000000 E14.577897 F100.000
; P02 POINT 177 point-0000177 deposition
G1 A0.000000 C0.000000 X265.035191 Y233.142048 Z312.000000 E14.694827 F100.000
; P02 POINT 178 point-0000178 deposition
G1 A0.000000 C0.000000 X264.568851 Y233.768846 Z312.000000 E14.811757 F100.000
; P02 POINT 179 point-0000179 deposition
G1 A0.000000 C0.000000 X264.102511 Y234.395644 Z312.000000 E14.928687 F100.000
; P02 POINT 180 point-0000180 deposition
G1 A0.000000 C0.000000 X263.636171 Y235.022442 Z312.000000 E15.045617 F100.000
; P02 POINT 181 point-0000181 deposition
G1 A0.000000 C0.000000 X263.169831 Y235.649240 Z312.000000 E15.162547 F100.000
; P02 POINT 182 point-0000182 deposition
G1 A0.000000 C0.000000 X262.703491 Y236.276038 Z312.000000 E15.279477 F100.000
; P02 POINT 183 point-0000183 deposition
G1 A0.000000 C0.000000 X262.237152 Y236.902836 Z312.000000 E15.396406 F100.000
; P02 POINT 184 point-0000184 deposition
G1 A0.000000 C0.000000 X261.770812 Y237.529634 Z312.000000 E15.513336 F100.000
; P02 POINT 185 point-0000185 deposition
G1 A0.000000 C0.000000 X261.304472 Y238.156432 Z312.000000 E15.630266 F100.000
; P02 POINT 186 point-0000186 deposition
G1 A0.000000 C0.000000 X260.838132 Y238.783230 Z312.000000 E15.747196 F100.000
; P02 POINT 187 point-0000187 deposition
G1 A0.000000 C0.000000 X260.371792 Y239.410028 Z312.000000 E15.864126 F100.000
; P02 POINT 188 point-0000188 deposition
G1 A0.000000 C0.000000 X259.905452 Y240.036826 Z312.000000 E15.981056 F100.000
; P02 POINT 189 point-0000189 deposition
G1 A0.000000 C0.000000 X259.439112 Y240.663624 Z312.000000 E16.097986 F100.000
; P02 POINT 190 point-0000190 deposition
G1 A0.000000 C0.000000 X258.972773 Y241.290422 Z312.000000 E16.214916 F100.000
; P02 POINT 191 point-0000191 deposition
G1 A0.000000 C0.000000 X258.506433 Y241.917220 Z312.000000 E16.331845 F100.000
; P02 POINT 192 point-0000192 deposition
G1 A0.000000 C0.000000 X258.040093 Y242.544018 Z312.000000 E16.448775 F100.000
; P02 POINT 193 point-0000193 deposition
G1 A0.000000 C0.000000 X257.573753 Y243.170816 Z312.000000 E16.565705 F100.000
; P02 POINT 194 point-0000194 deposition
G1 A0.000000 C0.000000 X257.523612 Y243.133510 Z312.000000 E16.575059 F100.000
; P02 POINT 195 point-0000195 deposition
G1 A0.000000 C0.000000 X257.473468 Y243.096203 Z312.000000 E16.584414 F100.000
; P02 POINT 196 point-0000196 deposition
G1 A0.000000 C0.000000 X257.423324 Y243.058896 Z312.000000 E16.593768 F100.000
; P02 POINT 197 point-0000197 deposition
G1 A0.000000 C0.000000 X257.373180 Y243.021589 Z312.000000 E16.603122 F100.000
; P02 POINT 198 point-0000198 deposition
G1 A0.000000 C0.000000 X257.323036 Y242.984281 Z312.000000 E16.612477 F100.000
; P02 POINT 199 point-0000199 deposition
G1 A0.000000 C0.000000 X257.272893 Y242.946974 Z312.000000 E16.621831 F100.000
; P02 POINT 200 point-0000200 deposition
G1 A0.000000 C0.000000 X257.222749 Y242.909667 Z312.000000 E16.631186 F100.000
; P02 POINT 201 point-0000201 deposition
G1 A0.000000 C0.000000 X257.172605 Y242.872360 Z312.000000 E16.640540 F100.000
; P02 POINT 202 point-0000202 deposition
G1 A0.000000 C0.000000 X257.122461 Y242.835053 Z312.000000 E16.649894 F100.000
; P02 POINT 203 point-0000203 deposition
G1 A0.000000 C0.000000 X257.072317 Y242.797745 Z312.000000 E16.659249 F100.000
; P02 POINT 204 point-0000204 deposition
G1 A0.000000 C0.000000 X257.022173 Y242.760438 Z312.000000 E16.668603 F100.000
; P02 POINT 205 point-0000205 deposition
G1 A0.000000 C0.000000 X256.972030 Y242.723131 Z312.000000 E16.677957 F100.000
; P02 POINT 206 point-0000206 deposition
G1 A0.000000 C0.000000 X256.921886 Y242.685824 Z312.000000 E16.687312 F100.000
; P02 POINT 207 point-0000207 deposition
G1 A0.000000 C0.000000 X256.871742 Y242.648516 Z312.000000 E16.696666 F100.000
; P02 POINT 208 point-0000208 deposition
G1 A0.000000 C0.000000 X256.821598 Y242.611209 Z312.000000 E16.706021 F100.000
; P02 POINT 209 point-0000209 deposition
G1 A0.000000 C0.000000 X256.771454 Y242.573902 Z312.000000 E16.715375 F100.000
; P02 POINT 210 point-0000210 deposition
G1 A0.000000 C0.000000 X256.721310 Y242.536595 Z312.000000 E16.724729 F100.000
; P02 POINT 211 point-0000211 deposition
G1 A0.000000 C0.000000 X256.671167 Y242.499288 Z312.000000 E16.734084 F100.000
; P02 POINT 212 point-0000212 deposition
G1 A0.000000 C0.000000 X256.621023 Y242.461980 Z312.000000 E16.743438 F100.000
; P02 POINT 213 point-0000213 deposition
G1 A0.000000 C0.000000 X256.570879 Y242.424673 Z312.000000 E16.752793 F100.000
; P02 POINT 214 point-0000214 deposition
G1 A0.000000 C0.000000 X256.520735 Y242.387366 Z312.000000 E16.762147 F100.000
; P02 POINT 215 point-0000215 deposition
G1 A0.000000 C0.000000 X256.470591 Y242.350059 Z312.000000 E16.771501 F100.000
; P02 POINT 216 point-0000216 deposition
G1 A0.000000 C0.000000 X256.420447 Y242.312752 Z312.000000 E16.780856 F100.000
; P02 POINT 217 point-0000217 deposition
G1 A0.000000 C0.000000 X256.370304 Y242.275444 Z312.000000 E16.790210 F100.000
; P02 POINT 218 point-0000218 deposition
G1 A0.000000 C0.000000 X256.320160 Y242.238137 Z312.000000 E16.799565 F100.000
; P02 POINT 219 point-0000219 deposition
G1 A0.000000 C0.000000 X256.270016 Y242.200830 Z312.000000 E16.808919 F100.000
; P02 POINT 220 point-0000220 deposition
G1 A0.000000 C0.000000 X256.219872 Y242.163523 Z312.000000 E16.818273 F100.000
; P02 POINT 221 point-0000221 deposition
G1 A0.000000 C0.000000 X256.169728 Y242.126216 Z312.000000 E16.827628 F100.000
; P02 POINT 222 point-0000222 deposition
G1 A0.000000 C0.000000 X256.119584 Y242.088908 Z312.000000 E16.836982 F100.000
; P02 POINT 223 point-0000223 deposition
G1 A0.000000 C0.000000 X256.069441 Y242.051601 Z312.000000 E16.846337 F100.000
; P02 POINT 224 point-0000224 deposition
G1 A0.000000 C0.000000 X256.019297 Y242.014294 Z312.000000 E16.855691 F100.000
; P02 POINT 225 point-0000225 deposition
G1 A0.000000 C0.000000 X255.969153 Y241.976987 Z312.000000 E16.865045 F100.000
; P02 POINT 226 point-0000226 deposition
G1 A0.000000 C0.000000 X255.919009 Y241.939680 Z312.000000 E16.874400 F100.000
; P02 POINT 227 point-0000227 deposition
G1 A0.000000 C0.000000 X255.868865 Y241.902372 Z312.000000 E16.883754 F100.000
; P02 POINT 228 point-0000228 deposition
G1 A0.000000 C0.000000 X255.818721 Y241.865065 Z312.000000 E16.893108 F100.000
; P02 POINT 229 point-0000229 deposition
G1 A0.000000 C0.000000 X255.768578 Y241.827758 Z312.000000 E16.902463 F100.000
; P02 POINT 230 point-0000230 deposition
G1 A0.000000 C0.000000 X255.718434 Y241.790451 Z312.000000 E16.911817 F100.000
; P02 POINT 231 point-0000231 deposition
G1 A0.000000 C0.000000 X255.668290 Y241.753144 Z312.000000 E16.921172 F100.000
; P02 POINT 232 point-0000232 deposition
G1 A0.000000 C0.000000 X255.618146 Y241.715836 Z312.000000 E16.930526 F100.000
; P02 POINT 233 point-0000233 deposition
G1 A0.000000 C0.000000 X255.568002 Y241.678529 Z312.000000 E16.939880 F100.000
; P02 POINT 234 point-0000234 deposition
G1 A0.000000 C0.000000 X255.517858 Y241.641222 Z312.000000 E16.949235 F100.000
; P02 POINT 235 point-0000235 deposition
G1 A0.000000 C0.000000 X255.467715 Y241.603915 Z312.000000 E16.958589 F100.000
; P02 POINT 236 point-0000236 deposition
G1 A0.000000 C0.000000 X255.417571 Y241.566608 Z312.000000 E16.967944 F100.000
; P02 POINT 237 point-0000237 deposition
G1 A0.000000 C0.000000 X255.367427 Y241.529300 Z312.000000 E16.977298 F100.000
; P02 POINT 238 point-0000238 deposition
G1 A0.000000 C0.000000 X255.317283 Y241.491993 Z312.000000 E16.986652 F100.000
; P02 POINT 239 point-0000239 deposition
G1 A0.000000 C0.000000 X255.267139 Y241.454686 Z312.000000 E16.996007 F100.000
; P02 POINT 240 point-0000240 deposition
G1 A0.000000 C0.000000 X255.216995 Y241.417379 Z312.000000 E17.005361 F100.000
; P02 POINT 241 point-0000241 deposition
G1 A0.000000 C0.000000 X255.166852 Y241.380071 Z312.000000 E17.014716 F100.000
; P02 POINT 242 point-0000242 deposition
G1 A0.000000 C0.000000 X255.116708 Y241.342764 Z312.000000 E17.024070 F100.000
; P02 POINT 243 point-0000243 deposition
G1 A0.000000 C0.000000 X255.066564 Y241.305457 Z312.000000 E17.033424 F100.000
; P02 POINT 244 point-0000244 deposition
G1 A0.000000 C0.000000 X255.016420 Y241.268150 Z312.000000 E17.042779 F100.000
; P02 POINT 245 point-0000245 deposition
G1 A0.000000 C0.000000 X254.966276 Y241.230843 Z312.000000 E17.052133 F100.000
; P02 POINT 246 point-0000246 deposition
G1 A0.000000 C0.000000 X254.916132 Y241.193535 Z312.000000 E17.061487 F100.000
; P02 POINT 247 point-0000247 deposition
G1 A0.000000 C0.000000 X254.865989 Y241.156228 Z312.000000 E17.070842 F100.000
; P02 POINT 248 point-0000248 deposition
G1 A0.000000 C0.000000 X254.815845 Y241.118921 Z312.000000 E17.080196 F100.000
; P02 POINT 249 point-0000249 deposition
G1 A0.000000 C0.000000 X254.765701 Y241.081614 Z312.000000 E17.089551 F100.000
; P02 POINT 250 point-0000250 deposition
G1 A0.000000 C0.000000 X254.715557 Y241.044307 Z312.000000 E17.098905 F100.000
; P02 POINT 251 point-0000251 deposition
G1 A0.000000 C0.000000 X254.665413 Y241.006999 Z312.000000 E17.108259 F100.000
; P02 POINT 252 point-0000252 deposition
G1 A0.000000 C0.000000 X254.615269 Y240.969692 Z312.000000 E17.117614 F100.000
; P02 POINT 253 point-0000253 deposition
G1 A0.000000 C0.000000 X254.565126 Y240.932385 Z312.000000 E17.126968 F100.000
; P02 POINT 254 point-0000254 deposition
G1 A0.000000 C0.000000 X254.514982 Y240.895078 Z312.000000 E17.136323 F100.000
; P02 POINT 255 point-0000255 deposition
G1 A0.000000 C0.000000 X254.464838 Y240.857771 Z312.000000 E17.145677 F100.000
; P02 POINT 256 point-0000256 deposition
G1 A0.000000 C0.000000 X254.414694 Y240.820463 Z312.000000 E17.155031 F100.000
; P02 POINT 257 point-0000257 deposition
G1 A0.000000 C0.000000 X254.364547 Y240.783156 Z312.000000 E17.164386 F100.000
; P02 EVENT event-0000002 retract
G1 E16.164386 F100.000
; P02 POINT 258 point-0000258 travel
G1 A0.000000 C0.000000 X283.987097 Y200.968084 Z312.000000 F100.000
; P02 EVENT event-0000003 prime
G1 E17.164386 F100.000
; P02 POINT 259 point-0000259 deposition
G1 A0.000000 C0.000000 X284.613522 Y200.968084 Z312.000000 E17.258144 F100.000
; P02 EVENT event-0000004 retract
G1 E16.258144 F100.000
; P02 POINT 260 point-0000260 travel
G1 A0.000000 C0.000000 X285.419970 Y201.568084 Z312.000000 F100.000
; P02 EVENT event-0000005 prime
G1 E17.258144 F100.000
; P02 POINT 261 point-0000261 deposition
G1 A0.000000 C0.000000 X283.540695 Y201.568084 Z312.000000 E17.539416 F100.000
; P02 EVENT event-0000006 retract
G1 E16.539416 F100.000
; P02 POINT 262 point-0000262 travel
G1 A0.000000 C0.000000 X283.094293 Y202.168084 Z312.000000 F100.000
; P02 EVENT event-0000007 prime
G1 E17.539416 F100.000
; P02 POINT 263 point-0000263 deposition
G1 A0.000000 C0.000000 X286.226418 Y202.168084 Z312.000000 E18.008203 F100.000
; P02 EVENT event-0000008 retract
G1 E17.008203 F100.000
; P02 POINT 264 point-0000264 travel
G1 A0.000000 C0.000000 X287.032866 Y202.768084 Z312.000000 F100.000
; P02 EVENT event-0000009 prime
G1 E18.008203 F100.000
; P02 POINT 265 point-0000265 deposition
G1 A0.000000 C0.000000 X282.647891 Y202.768084 Z312.000000 E18.664505 F100.000
; P02 EVENT event-0000010 retract
G1 E17.664505 F100.000
; P02 POINT 266 point-0000266 travel
G1 A0.000000 C0.000000 X282.201489 Y203.368084 Z312.000000 F100.000
; P02 EVENT event-0000011 prime
G1 E18.664505 F100.000
; P02 POINT 267 point-0000267 deposition
G1 A0.000000 C0.000000 X287.187122 Y203.368084 Z312.000000 E19.410707 F100.000
; P02 EVENT event-0000012 retract
G1 E18.410707 F100.000
; P02 POINT 268 point-0000268 travel
G1 A0.000000 C0.000000 X286.740720 Y203.968084 Z312.000000 F100.000
; P02 EVENT event-0000013 prime
G1 E19.410707 F100.000
; P02 POINT 269 point-0000269 deposition
G1 A0.000000 C0.000000 X281.755087 Y203.968084 Z312.000000 E20.156910 F100.000
; P02 EVENT event-0000014 retract
G1 E19.156910 F100.000
; P02 POINT 270 point-0000270 travel
G1 A0.000000 C0.000000 X281.308685 Y204.568084 Z312.000000 F100.000
; P02 EVENT event-0000015 prime
G1 E20.156910 F100.000
; P02 POINT 271 point-0000271 deposition
G1 A0.000000 C0.000000 X286.294318 Y204.568084 Z312.000000 E20.903113 F100.000
; P02 EVENT event-0000016 retract
G1 E19.903113 F100.000
; P02 POINT 272 point-0000272 travel
G1 A0.000000 C0.000000 X285.847916 Y205.168084 Z312.000000 F100.000
; P02 EVENT event-0000017 prime
G1 E20.903113 F100.000
; P02 POINT 273 point-0000273 deposition
G1 A0.000000 C0.000000 X280.862283 Y205.168084 Z312.000000 E21.649316 F100.000
; P02 EVENT event-0000018 retract
G1 E20.649316 F100.000
; P02 POINT 274 point-0000274 travel
G1 A0.000000 C0.000000 X280.415881 Y205.768084 Z312.000000 F100.000
; P02 EVENT event-0000019 prime
G1 E21.649316 F100.000
; P02 POINT 275 point-0000275 deposition
G1 A0.000000 C0.000000 X285.401514 Y205.768084 Z312.000000 E22.395518 F100.000
; P02 EVENT event-0000020 retract
G1 E21.395518 F100.000
; P02 POINT 276 point-0000276 travel
G1 A0.000000 C0.000000 X284.955112 Y206.368084 Z312.000000 F100.000
; P02 EVENT event-0000021 prime
G1 E22.395518 F100.000
; P02 POINT 277 point-0000277 deposition
G1 A0.000000 C0.000000 X279.969479 Y206.368084 Z312.000000 E23.141721 F100.000
; P02 EVENT event-0000022 retract
G1 E22.141721 F100.000
; P02 POINT 278 point-0000278 travel
G1 A0.000000 C0.000000 X279.523076 Y206.968084 Z312.000000 F100.000
; P02 EVENT event-0000023 prime
G1 E23.141721 F100.000
; P02 POINT 279 point-0000279 deposition
G1 A0.000000 C0.000000 X284.508709 Y206.968084 Z312.000000 E23.887924 F100.000
; P02 EVENT event-0000024 retract
G1 E22.887924 F100.000
; P02 POINT 280 point-0000280 travel
G1 A0.000000 C0.000000 X284.062307 Y207.568084 Z312.000000 F100.000
; P02 EVENT event-0000025 prime
G1 E23.887924 F100.000
; P02 POINT 281 point-0000281 deposition
G1 A0.000000 C0.000000 X279.076674 Y207.568084 Z312.000000 E24.634126 F100.000
; P02 EVENT event-0000026 retract
G1 E23.634126 F100.000
; P02 POINT 282 point-0000282 travel
G1 A0.000000 C0.000000 X278.630272 Y208.168084 Z312.000000 F100.000
; P02 EVENT event-0000027 prime
G1 E24.634126 F100.000
; P02 POINT 283 point-0000283 deposition
G1 A0.000000 C0.000000 X283.615905 Y208.168084 Z312.000000 E25.380329 F100.000
; P02 EVENT event-0000028 retract
G1 E24.380329 F100.000
; P02 POINT 284 point-0000284 travel
G1 A0.000000 C0.000000 X283.169503 Y208.768084 Z312.000000 F100.000
; P02 EVENT event-0000029 prime
G1 E25.380329 F100.000
; P02 POINT 285 point-0000285 deposition
G1 A0.000000 C0.000000 X278.183870 Y208.768084 Z312.000000 E26.126532 F100.000
; P02 EVENT event-0000030 retract
G1 E25.126532 F100.000
; P02 POINT 286 point-0000286 travel
G1 A0.000000 C0.000000 X277.737468 Y209.368084 Z312.000000 F100.000
; P02 EVENT event-0000031 prime
G1 E26.126532 F100.000
; P02 POINT 287 point-0000287 deposition
G1 A0.000000 C0.000000 X282.723101 Y209.368084 Z312.000000 E26.872735 F100.000
; P02 EVENT event-0000032 retract
G1 E25.872735 F100.000
; P02 POINT 288 point-0000288 travel
G1 A0.000000 C0.000000 X282.276699 Y209.968084 Z312.000000 F100.000
; P02 EVENT event-0000033 prime
G1 E26.872735 F100.000
; P02 POINT 289 point-0000289 deposition
G1 A0.000000 C0.000000 X277.291066 Y209.968084 Z312.000000 E27.618937 F100.000
; P02 EVENT event-0000034 retract
G1 E26.618937 F100.000
; P02 POINT 290 point-0000290 travel
G1 A0.000000 C0.000000 X276.844664 Y210.568084 Z312.000000 F100.000
; P02 EVENT event-0000035 prime
G1 E27.618937 F100.000
; P02 POINT 291 point-0000291 deposition
G1 A0.000000 C0.000000 X281.830297 Y210.568084 Z312.000000 E28.365140 F100.000
; P02 EVENT event-0000036 retract
G1 E27.365140 F100.000
; P02 POINT 292 point-0000292 travel
G1 A0.000000 C0.000000 X281.383895 Y211.168084 Z312.000000 F100.000
; P02 EVENT event-0000037 prime
G1 E28.365140 F100.000
; P02 POINT 293 point-0000293 deposition
G1 A0.000000 C0.000000 X276.398262 Y211.168084 Z312.000000 E29.111343 F100.000
; P02 EVENT event-0000038 retract
G1 E28.111343 F100.000
; P02 POINT 294 point-0000294 travel
G1 A0.000000 C0.000000 X275.951860 Y211.768084 Z312.000000 F100.000
; P02 EVENT event-0000039 prime
G1 E29.111343 F100.000
; P02 POINT 295 point-0000295 deposition
G1 A0.000000 C0.000000 X280.937493 Y211.768084 Z312.000000 E29.857546 F100.000
; P02 EVENT event-0000040 retract
G1 E28.857546 F100.000
; P02 POINT 296 point-0000296 travel
G1 A0.000000 C0.000000 X280.491091 Y212.368084 Z312.000000 F100.000
; P02 EVENT event-0000041 prime
G1 E29.857546 F100.000
; P02 POINT 297 point-0000297 deposition
G1 A0.000000 C0.000000 X275.505458 Y212.368084 Z312.000000 E30.603748 F100.000
; P02 EVENT event-0000042 retract
G1 E29.603748 F100.000
; P02 POINT 298 point-0000298 travel
G1 A0.000000 C0.000000 X275.059056 Y212.968084 Z312.000000 F100.000
; P02 EVENT event-0000043 prime
G1 E30.603748 F100.000
; P02 POINT 299 point-0000299 deposition
G1 A0.000000 C0.000000 X280.044689 Y212.968084 Z312.000000 E31.349951 F100.000
; P02 EVENT event-0000044 retract
G1 E30.349951 F100.000
; P02 POINT 300 point-0000300 travel
G1 A0.000000 C0.000000 X279.598287 Y213.568084 Z312.000000 F100.000
; P02 EVENT event-0000045 prime
G1 E31.349951 F100.000
; P02 POINT 301 point-0000301 deposition
G1 A0.000000 C0.000000 X274.612654 Y213.568084 Z312.000000 E32.096154 F100.000
; P02 EVENT event-0000046 retract
G1 E31.096154 F100.000
; P02 POINT 302 point-0000302 travel
G1 A0.000000 C0.000000 X274.166252 Y214.168084 Z312.000000 F100.000
; P02 EVENT event-0000047 prime
G1 E32.096154 F100.000
; P02 POINT 303 point-0000303 deposition
G1 A0.000000 C0.000000 X279.151885 Y214.168084 Z312.000000 E32.842356 F100.000
; P02 EVENT event-0000048 retract
G1 E31.842356 F100.000
; P02 POINT 304 point-0000304 travel
G1 A0.000000 C0.000000 X278.705483 Y214.768084 Z312.000000 F100.000
; P02 EVENT event-0000049 prime
G1 E32.842356 F100.000
; P02 POINT 305 point-0000305 deposition
G1 A0.000000 C0.000000 X273.719850 Y214.768084 Z312.000000 E33.588559 F100.000
; P02 EVENT event-0000050 retract
G1 E32.588559 F100.000
; P02 POINT 306 point-0000306 travel
G1 A0.000000 C0.000000 X273.273448 Y215.368084 Z312.000000 F100.000
; P02 EVENT event-0000051 prime
G1 E33.588559 F100.000
; P02 POINT 307 point-0000307 deposition
G1 A0.000000 C0.000000 X278.259081 Y215.368084 Z312.000000 E34.334762 F100.000
; P02 EVENT event-0000052 retract
G1 E33.334762 F100.000
; P02 POINT 308 point-0000308 travel
G1 A0.000000 C0.000000 X277.812679 Y215.968084 Z312.000000 F100.000
; P02 EVENT event-0000053 prime
G1 E34.334762 F100.000
; P02 POINT 309 point-0000309 deposition
G1 A0.000000 C0.000000 X272.827046 Y215.968084 Z312.000000 E35.080965 F100.000
; P02 EVENT event-0000054 retract
G1 E34.080965 F100.000
; P02 POINT 310 point-0000310 travel
G1 A0.000000 C0.000000 X272.380644 Y216.568084 Z312.000000 F100.000
; P02 EVENT event-0000055 prime
G1 E35.080965 F100.000
; P02 POINT 311 point-0000311 deposition
G1 A0.000000 C0.000000 X277.366277 Y216.568084 Z312.000000 E35.827167 F100.000
; P02 EVENT event-0000056 retract
G1 E34.827167 F100.000
; P02 POINT 312 point-0000312 travel
G1 A0.000000 C0.000000 X276.919874 Y217.168084 Z312.000000 F100.000
; P02 EVENT event-0000057 prime
G1 E35.827167 F100.000
; P02 POINT 313 point-0000313 deposition
G1 A0.000000 C0.000000 X271.934241 Y217.168084 Z312.000000 E36.573370 F100.000
; P02 EVENT event-0000058 retract
G1 E35.573370 F100.000
; P02 POINT 314 point-0000314 travel
G1 A0.000000 C0.000000 X271.487839 Y217.768084 Z312.000000 F100.000
; P02 EVENT event-0000059 prime
G1 E36.573370 F100.000
; P02 POINT 315 point-0000315 deposition
G1 A0.000000 C0.000000 X276.473472 Y217.768084 Z312.000000 E37.319573 F100.000
; P02 EVENT event-0000060 retract
G1 E36.319573 F100.000
; P02 POINT 316 point-0000316 travel
G1 A0.000000 C0.000000 X276.027070 Y218.368084 Z312.000000 F100.000
; P02 EVENT event-0000061 prime
G1 E37.319573 F100.000
; P02 POINT 317 point-0000317 deposition
G1 A0.000000 C0.000000 X271.041437 Y218.368084 Z312.000000 E38.065775 F100.000
; P02 EVENT event-0000062 retract
G1 E37.065775 F100.000
; P02 POINT 318 point-0000318 travel
G1 A0.000000 C0.000000 X270.595035 Y218.968084 Z312.000000 F100.000
; P02 EVENT event-0000063 prime
G1 E38.065775 F100.000
; P02 POINT 319 point-0000319 deposition
G1 A0.000000 C0.000000 X275.580668 Y218.968084 Z312.000000 E38.811978 F100.000
; P02 EVENT event-0000064 retract
G1 E37.811978 F100.000
; P02 POINT 320 point-0000320 travel
G1 A0.000000 C0.000000 X275.134266 Y219.568084 Z312.000000 F100.000
; P02 EVENT event-0000065 prime
G1 E38.811978 F100.000
; P02 POINT 321 point-0000321 deposition
G1 A0.000000 C0.000000 X270.148633 Y219.568084 Z312.000000 E39.558181 F100.000
; P02 EVENT event-0000066 retract
G1 E38.558181 F100.000
; P02 POINT 322 point-0000322 travel
G1 A0.000000 C0.000000 X269.702231 Y220.168084 Z312.000000 F100.000
; P02 EVENT event-0000067 prime
G1 E39.558181 F100.000
; P02 POINT 323 point-0000323 deposition
G1 A0.000000 C0.000000 X274.687864 Y220.168084 Z312.000000 E40.304384 F100.000
; P02 EVENT event-0000068 retract
G1 E39.304384 F100.000
; P02 POINT 324 point-0000324 travel
G1 A0.000000 C0.000000 X274.241462 Y220.768084 Z312.000000 F100.000
; P02 EVENT event-0000069 prime
G1 E40.304384 F100.000
; P02 POINT 325 point-0000325 deposition
G1 A0.000000 C0.000000 X269.255829 Y220.768084 Z312.000000 E41.050586 F100.000
; P02 EVENT event-0000070 retract
G1 E40.050586 F100.000
; P02 POINT 326 point-0000326 travel
G1 A0.000000 C0.000000 X268.809427 Y221.368084 Z312.000000 F100.000
; P02 EVENT event-0000071 prime
G1 E41.050586 F100.000
; P02 POINT 327 point-0000327 deposition
G1 A0.000000 C0.000000 X273.795060 Y221.368084 Z312.000000 E41.796789 F100.000
; P02 EVENT event-0000072 retract
G1 E40.796789 F100.000
; P02 POINT 328 point-0000328 travel
G1 A0.000000 C0.000000 X273.348658 Y221.968084 Z312.000000 F100.000
; P02 EVENT event-0000073 prime
G1 E41.796789 F100.000
; P02 POINT 329 point-0000329 deposition
G1 A0.000000 C0.000000 X268.363025 Y221.968084 Z312.000000 E42.542992 F100.000
; P02 EVENT event-0000074 retract
G1 E41.542992 F100.000
; P02 POINT 330 point-0000330 travel
G1 A0.000000 C0.000000 X267.916623 Y222.568084 Z312.000000 F100.000
; P02 EVENT event-0000075 prime
G1 E42.542992 F100.000
; P02 POINT 331 point-0000331 deposition
G1 A0.000000 C0.000000 X272.902256 Y222.568084 Z312.000000 E43.289194 F100.000
; P02 EVENT event-0000076 retract
G1 E42.289194 F100.000
; P02 POINT 332 point-0000332 travel
G1 A0.000000 C0.000000 X272.455854 Y223.168084 Z312.000000 F100.000
; P02 EVENT event-0000077 prime
G1 E43.289194 F100.000
; P02 POINT 333 point-0000333 deposition
G1 A0.000000 C0.000000 X267.470221 Y223.168084 Z312.000000 E44.035397 F100.000
; P02 EVENT event-0000078 retract
G1 E43.035397 F100.000
; P02 POINT 334 point-0000334 travel
G1 A0.000000 C0.000000 X267.023819 Y223.768084 Z312.000000 F100.000
; P02 EVENT event-0000079 prime
G1 E44.035397 F100.000
; P02 POINT 335 point-0000335 deposition
G1 A0.000000 C0.000000 X272.009452 Y223.768084 Z312.000000 E44.781600 F100.000
; P02 EVENT event-0000080 retract
G1 E43.781600 F100.000
; P02 POINT 336 point-0000336 travel
G1 A0.000000 C0.000000 X271.563050 Y224.368084 Z312.000000 F100.000
; P02 EVENT event-0000081 prime
G1 E44.781600 F100.000
; P02 POINT 337 point-0000337 deposition
G1 A0.000000 C0.000000 X266.577417 Y224.368084 Z312.000000 E45.527803 F100.000
; P02 EVENT event-0000082 retract
G1 E44.527803 F100.000
; P02 POINT 338 point-0000338 travel
G1 A0.000000 C0.000000 X266.131015 Y224.968084 Z312.000000 F100.000
; P02 EVENT event-0000083 prime
G1 E45.527803 F100.000
; P02 POINT 339 point-0000339 deposition
G1 A0.000000 C0.000000 X271.116648 Y224.968084 Z312.000000 E46.274005 F100.000
; P02 EVENT event-0000084 retract
G1 E45.274005 F100.000
; P02 POINT 340 point-0000340 travel
G1 A0.000000 C0.000000 X270.670246 Y225.568084 Z312.000000 F100.000
; P02 EVENT event-0000085 prime
G1 E46.274005 F100.000
; P02 POINT 341 point-0000341 deposition
G1 A0.000000 C0.000000 X265.684613 Y225.568084 Z312.000000 E47.020208 F100.000
; P02 EVENT event-0000086 retract
G1 E46.020208 F100.000
; P02 POINT 342 point-0000342 travel
G1 A0.000000 C0.000000 X265.238211 Y226.168084 Z312.000000 F100.000
; P02 EVENT event-0000087 prime
G1 E47.020208 F100.000
; P02 POINT 343 point-0000343 deposition
G1 A0.000000 C0.000000 X270.223844 Y226.168084 Z312.000000 E47.766411 F100.000
; P02 EVENT event-0000088 retract
G1 E46.766411 F100.000
; P02 POINT 344 point-0000344 travel
G1 A0.000000 C0.000000 X269.777442 Y226.768084 Z312.000000 F100.000
; P02 EVENT event-0000089 prime
G1 E47.766411 F100.000
; P02 POINT 345 point-0000345 deposition
G1 A0.000000 C0.000000 X264.791809 Y226.768084 Z312.000000 E48.512614 F100.000
; P02 EVENT event-0000090 retract
G1 E47.512614 F100.000
; P02 POINT 346 point-0000346 travel
G1 A0.000000 C0.000000 X264.345406 Y227.368084 Z312.000000 F100.000
; P02 EVENT event-0000091 prime
G1 E48.512614 F100.000
; P02 POINT 347 point-0000347 deposition
G1 A0.000000 C0.000000 X269.331039 Y227.368084 Z312.000000 E49.258816 F100.000
; P02 EVENT event-0000092 retract
G1 E48.258816 F100.000
; P02 POINT 348 point-0000348 travel
G1 A0.000000 C0.000000 X268.884637 Y227.968084 Z312.000000 F100.000
; P02 EVENT event-0000093 prime
G1 E49.258816 F100.000
; P02 POINT 349 point-0000349 deposition
G1 A0.000000 C0.000000 X263.899004 Y227.968084 Z312.000000 E50.005019 F100.000
; P02 EVENT event-0000094 retract
G1 E49.005019 F100.000
; P02 POINT 350 point-0000350 travel
G1 A0.000000 C0.000000 X263.452602 Y228.568084 Z312.000000 F100.000
; P02 EVENT event-0000095 prime
G1 E50.005019 F100.000
; P02 POINT 351 point-0000351 deposition
G1 A0.000000 C0.000000 X268.438235 Y228.568084 Z312.000000 E50.751222 F100.000
; P02 EVENT event-0000096 retract
G1 E49.751222 F100.000
; P02 POINT 352 point-0000352 travel
G1 A0.000000 C0.000000 X267.991833 Y229.168084 Z312.000000 F100.000
; P02 EVENT event-0000097 prime
G1 E50.751222 F100.000
; P02 POINT 353 point-0000353 deposition
G1 A0.000000 C0.000000 X263.006200 Y229.168084 Z312.000000 E51.497424 F100.000
; P02 EVENT event-0000098 retract
G1 E50.497424 F100.000
; P02 POINT 354 point-0000354 travel
G1 A0.000000 C0.000000 X262.559798 Y229.768084 Z312.000000 F100.000
; P02 EVENT event-0000099 prime
G1 E51.497424 F100.000
; P02 POINT 355 point-0000355 deposition
G1 A0.000000 C0.000000 X267.545431 Y229.768084 Z312.000000 E52.243627 F100.000
; P02 EVENT event-0000100 retract
G1 E51.243627 F100.000
; P02 POINT 356 point-0000356 travel
G1 A0.000000 C0.000000 X267.099029 Y230.368084 Z312.000000 F100.000
; P02 EVENT event-0000101 prime
G1 E52.243627 F100.000
; P02 POINT 357 point-0000357 deposition
G1 A0.000000 C0.000000 X262.113396 Y230.368084 Z312.000000 E52.989830 F100.000
; P02 EVENT event-0000102 retract
G1 E51.989830 F100.000
; P02 POINT 358 point-0000358 travel
G1 A0.000000 C0.000000 X261.666994 Y230.968084 Z312.000000 F100.000
; P02 EVENT event-0000103 prime
G1 E52.989830 F100.000
; P02 POINT 359 point-0000359 deposition
G1 A0.000000 C0.000000 X266.652627 Y230.968084 Z312.000000 E53.736033 F100.000
; P02 EVENT event-0000104 retract
G1 E52.736033 F100.000
; P02 POINT 360 point-0000360 travel
G1 A0.000000 C0.000000 X266.206225 Y231.568084 Z312.000000 F100.000
; P02 EVENT event-0000105 prime
G1 E53.736033 F100.000
; P02 POINT 361 point-0000361 deposition
G1 A0.000000 C0.000000 X261.220592 Y231.568084 Z312.000000 E54.482235 F100.000
; P02 EVENT event-0000106 retract
G1 E53.482235 F100.000
; P02 POINT 362 point-0000362 travel
G1 A0.000000 C0.000000 X260.774190 Y232.168084 Z312.000000 F100.000
; P02 EVENT event-0000107 prime
G1 E54.482235 F100.000
; P02 POINT 363 point-0000363 deposition
G1 A0.000000 C0.000000 X265.759823 Y232.168084 Z312.000000 E55.228438 F100.000
; P02 EVENT event-0000108 retract
G1 E54.228438 F100.000
; P02 POINT 364 point-0000364 travel
G1 A0.000000 C0.000000 X265.313421 Y232.768084 Z312.000000 F100.000
; P02 EVENT event-0000109 prime
G1 E55.228438 F100.000
; P02 POINT 365 point-0000365 deposition
G1 A0.000000 C0.000000 X260.327788 Y232.768084 Z312.000000 E55.974641 F100.000
; P02 EVENT event-0000110 retract
G1 E54.974641 F100.000
; P02 POINT 366 point-0000366 travel
G1 A0.000000 C0.000000 X259.881386 Y233.368084 Z312.000000 F100.000
; P02 EVENT event-0000111 prime
G1 E55.974641 F100.000
; P02 POINT 367 point-0000367 deposition
G1 A0.000000 C0.000000 X264.867019 Y233.368084 Z312.000000 E56.720843 F100.000
; P02 EVENT event-0000112 retract
G1 E55.720843 F100.000
; P02 POINT 368 point-0000368 travel
G1 A0.000000 C0.000000 X264.420617 Y233.968084 Z312.000000 F100.000
; P02 EVENT event-0000113 prime
G1 E56.720843 F100.000
; P02 POINT 369 point-0000369 deposition
G1 A0.000000 C0.000000 X259.434984 Y233.968084 Z312.000000 E57.467046 F100.000
; P02 EVENT event-0000114 retract
G1 E56.467046 F100.000
; P02 POINT 370 point-0000370 travel
G1 A0.000000 C0.000000 X258.988582 Y234.568084 Z312.000000 F100.000
; P02 EVENT event-0000115 prime
G1 E57.467046 F100.000
; P02 POINT 371 point-0000371 deposition
G1 A0.000000 C0.000000 X263.974215 Y234.568084 Z312.000000 E58.213249 F100.000
; P02 EVENT event-0000116 retract
G1 E57.213249 F100.000
; P02 POINT 372 point-0000372 travel
G1 A0.000000 C0.000000 X263.527813 Y235.168084 Z312.000000 F100.000
; P02 EVENT event-0000117 prime
G1 E58.213249 F100.000
; P02 POINT 373 point-0000373 deposition
G1 A0.000000 C0.000000 X258.542180 Y235.168084 Z312.000000 E58.959452 F100.000
; P02 EVENT event-0000118 retract
G1 E57.959452 F100.000
; P02 POINT 374 point-0000374 travel
G1 A0.000000 C0.000000 X258.095778 Y235.768084 Z312.000000 F100.000
; P02 EVENT event-0000119 prime
G1 E58.959452 F100.000
; P02 POINT 375 point-0000375 deposition
G1 A0.000000 C0.000000 X263.081411 Y235.768084 Z312.000000 E59.705654 F100.000
; P02 EVENT event-0000120 retract
G1 E58.705654 F100.000
; P02 POINT 376 point-0000376 travel
G1 A0.000000 C0.000000 X262.635009 Y236.368084 Z312.000000 F100.000
; P02 EVENT event-0000121 prime
G1 E59.705654 F100.000
; P02 POINT 377 point-0000377 deposition
G1 A0.000000 C0.000000 X257.649376 Y236.368084 Z312.000000 E60.451857 F100.000
; P02 EVENT event-0000122 retract
G1 E59.451857 F100.000
; P02 POINT 378 point-0000378 travel
G1 A0.000000 C0.000000 X257.202974 Y236.968084 Z312.000000 F100.000
; P02 EVENT event-0000123 prime
G1 E60.451857 F100.000
; P02 POINT 379 point-0000379 deposition
G1 A0.000000 C0.000000 X262.188607 Y236.968084 Z312.000000 E61.198060 F100.000
; P02 EVENT event-0000124 retract
G1 E60.198060 F100.000
; P02 POINT 380 point-0000380 travel
G1 A0.000000 C0.000000 X261.742205 Y237.568084 Z312.000000 F100.000
; P02 EVENT event-0000125 prime
G1 E61.198060 F100.000
; P02 POINT 381 point-0000381 deposition
G1 A0.000000 C0.000000 X256.756572 Y237.568084 Z312.000000 E61.944262 F100.000
; P02 EVENT event-0000126 retract
G1 E60.944262 F100.000
; P02 POINT 382 point-0000382 travel
G1 A0.000000 C0.000000 X256.310169 Y238.168084 Z312.000000 F100.000
; P02 EVENT event-0000127 prime
G1 E61.944262 F100.000
; P02 POINT 383 point-0000383 deposition
G1 A0.000000 C0.000000 X261.295802 Y238.168084 Z312.000000 E62.690465 F100.000
; P02 EVENT event-0000128 retract
G1 E61.690465 F100.000
; P02 POINT 384 point-0000384 travel
G1 A0.000000 C0.000000 X260.849400 Y238.768084 Z312.000000 F100.000
; P02 EVENT event-0000129 prime
G1 E62.690465 F100.000
; P02 POINT 385 point-0000385 deposition
G1 A0.000000 C0.000000 X255.863767 Y238.768084 Z312.000000 E63.436668 F100.000
; P02 EVENT event-0000130 retract
G1 E62.436668 F100.000
; P02 POINT 386 point-0000386 travel
G1 A0.000000 C0.000000 X255.417365 Y239.368084 Z312.000000 F100.000
; P02 EVENT event-0000131 prime
G1 E63.436668 F100.000
; P02 POINT 387 point-0000387 deposition
G1 A0.000000 C0.000000 X260.402998 Y239.368084 Z312.000000 E64.182871 F100.000
; P02 EVENT event-0000132 retract
G1 E63.182871 F100.000
; P02 POINT 388 point-0000388 travel
G1 A0.000000 C0.000000 X259.956596 Y239.968084 Z312.000000 F100.000
; P02 EVENT event-0000133 prime
G1 E64.182871 F100.000
; P02 POINT 389 point-0000389 deposition
G1 A0.000000 C0.000000 X254.970963 Y239.968084 Z312.000000 E64.929073 F100.000
; P02 EVENT event-0000134 retract
G1 E63.929073 F100.000
; P02 POINT 390 point-0000390 travel
G1 A0.000000 C0.000000 X254.524561 Y240.568084 Z312.000000 F100.000
; P02 EVENT event-0000135 prime
G1 E64.929073 F100.000
; P02 POINT 391 point-0000391 deposition
G1 A0.000000 C0.000000 X259.510194 Y240.568084 Z312.000000 E65.675276 F100.000
; P02 EVENT event-0000136 retract
G1 E64.675276 F100.000
; P02 POINT 392 point-0000392 travel
G1 A0.000000 C0.000000 X259.063792 Y241.168084 Z312.000000 F100.000
; P02 EVENT event-0000137 prime
G1 E65.675276 F100.000
; P02 POINT 393 point-0000393 deposition
G1 A0.000000 C0.000000 X254.881924 Y241.168084 Z312.000000 E66.301179 F100.000
; P02 EVENT event-0000138 retract
G1 E65.301179 F100.000
; P02 POINT 394 point-0000394 travel
G1 A0.000000 C0.000000 X255.688371 Y241.768084 Z312.000000 F100.000
; P02 EVENT event-0000139 prime
G1 E66.301179 F100.000
; P02 POINT 395 point-0000395 deposition
G1 A0.000000 C0.000000 X258.617390 Y241.768084 Z312.000000 E66.739567 F100.000
; P02 EVENT event-0000140 retract
G1 E65.739567 F100.000
; P02 POINT 396 point-0000396 travel
G1 A0.000000 C0.000000 X258.170988 Y242.368084 Z312.000000 F100.000
; P02 EVENT event-0000141 prime
G1 E66.739567 F100.000
; P02 POINT 397 point-0000397 deposition
G1 A0.000000 C0.000000 X256.494819 Y242.368084 Z312.000000 E66.990440 F100.000
; P02 EVENT event-0000142 retract
G1 E65.990440 F100.000
; P02 POINT 398 point-0000398 travel
G1 A0.000000 C0.000000 X257.301266 Y242.968084 Z312.000000 F100.000
; P02 EVENT event-0000143 prime
G1 E66.990440 F100.000
; P02 POINT 399 point-0000399 deposition
G1 A0.000000 C0.000000 X257.724586 Y242.968084 Z312.000000 E67.053799 F100.000
M400 ; finish queued motion
M2
