; 5AxisSclicer T08 Tube Thin-Wall Indexed
; reference XYZAC profile; offline simulation only
G21 ; millimetres
G90 ; absolute axes
M82 ; absolute extrusion
G92 E0 ; known initial extrusion position
; T08 POINT 1 point-0000001 approach
G1 A-90.000000 C0.000000 X300.000000 Y-279.750000 Z-202.500000 F1.000000
; T08 EVENT event-0000001 prime
G1 E1.0 F1.000000
; T08 POINT 2 point-0000002 deposition
G1 A-90.000000 C-0.571429 X302.128873 Y-279.750000 Z-199.497839 E1.02167826486361609 F1.000000
; T08 POINT 3 point-0000003 deposition
G1 A-90.000000 C-1.714286 X306.187003 Y-279.750000 Z-193.431559 E1.04231990342607568 F1.000000
; T08 POINT 4 point-0000004 deposition
G1 A-90.000000 C-2.857143 X310.123331 Y-279.750000 Z-187.285346 E1.06296134842401096 F1.000000
; T08 POINT 5 point-0000005 deposition
G1 A-90.000000 C-4.000000 X313.936287 Y-279.750000 Z-181.061647 E1.083602651471203113 F1.000000
; T08 POINT 6 point-0000006 deposition
G1 A-90.000000 C-5.142857 X317.624348 Y-279.750000 Z-174.762936 E1.104243864184581527 F1.000000
; T08 POINT 7 point-0000007 deposition
G1 A-90.000000 C-6.285714 X321.186045 Y-279.750000 Z-168.391720 E1.124885038183127941 F1.000000
; T08 POINT 8 point-0000008 deposition
G1 A-90.000000 C-7.428571 X324.619955 Y-279.750000 Z-161.950534 E1.145526225086632308 F1.000000
; T08 POINT 9 point-0000009 deposition
G1 A-90.000000 C-8.571429 X327.924708 Y-279.750000 Z-155.441941 E1.166167476514654272 F1.000000
; T08 POINT 10 point-0000010 deposition
G1 A-90.000000 C-9.714286 X331.098986 Y-279.750000 Z-148.868529 E1.186808844085255932 F1.000000
; T08 POINT 11 point-0000011 deposition
G1 A-90.000000 C-10.857143 X334.141521 Y-279.750000 Z-142.232915 E1.207450379413984774 F1.000000
; T08 POINT 12 point-0000012 deposition
G1 A-90.000000 C-11.726706 X336.393614 Y-279.750000 Z-137.143872 E1.228587817444477880 F1.000000
; T08 POINT 13 point-0000013 deposition
G1 A-90.000000 C-12.273294 X337.810187 Y-279.750000 Z-133.927976 E1.250311126332047696 F1.000000
; T08 POINT 14 point-0000014 deposition
G1 A-90.000000 C-13.142857 X339.935830 Y-279.750000 Z-128.785567 E1.271448564362518916 F1.000000
; T08 POINT 15 point-0000015 deposition
G1 A-90.000000 C-14.285714 X342.576062 Y-279.750000 Z-121.979183 E1.292090099691240274 F1.000000
; T08 POINT 16 point-0000016 deposition
G1 A-90.000000 C-15.428571 X345.080011 Y-279.750000 Z-115.121294 E1.312731467261856319 F1.000000
; T08 POINT 17 point-0000017 deposition
G1 A-90.000000 C-16.571429 X347.446679 Y-279.750000 Z-108.214629 E1.333372718689865959 F1.000000
; T08 POINT 18 point-0000018 deposition
G1 A-90.000000 C-17.714286 X349.675118 Y-279.750000 Z-101.261936 E1.354013905593388999 F1.000000
; T08 POINT 19 point-0000019 deposition
G1 A-90.000000 C-18.857143 X351.764438 Y-279.750000 Z-94.265980 E1.374655079591917639 F1.000000
; T08 POINT 20 point-0000020 deposition
G1 A-90.000000 C-20.000000 X353.713804 Y-279.750000 Z-87.229546 E1.395296292305303999 F1.000000
; T08 POINT 21 point-0000021 deposition
G1 A-90.000000 C-21.142857 X355.522437 Y-279.750000 Z-80.155431 E1.415937595352496039 F1.000000
; T08 POINT 22 point-0000022 deposition
G1 A-90.000000 C-22.285714 X357.189612 Y-279.750000 Z-73.046452 E1.436579040350426519 F1.000000
; T08 POINT 23 point-0000023 deposition
G1 A-90.000000 C-23.428571 X358.714662 Y-279.750000 Z-65.905436 E1.457220678912894505 F1.000000
; T08 POINT 24 point-0000024 deposition
G1 A-90.000000 C-24.000000 X359.478332 Y-279.750000 Z-62.323553 E1.478898943776505107 F1.000000
; T08 POINT 25 point-0000025 deposition
G1 A-90.000000 C-24.571429 X360.206247 Y-279.750000 Z-58.735177 E1.500577208640093257 F1.000000
; T08 POINT 26 point-0000026 deposition
G1 A-90.000000 C-25.714286 X361.445271 Y-279.750000 Z-51.538528 E1.521218847202564237 F1.000000
; T08 POINT 27 point-0000027 deposition
G1 A-90.000000 C-26.857143 X362.540508 Y-279.750000 Z-44.318400 E1.541860292200496503 F1.000000
; T08 POINT 28 point-0000028 deposition
G1 A-90.000000 C-28.000000 X363.491518 Y-279.750000 Z-37.077664 E1.562501595247680027 F1.000000
; T08 POINT 29 point-0000029 deposition
G1 A-90.000000 C-29.142857 X364.297919 Y-279.750000 Z-29.819202 E1.583142807961069847 F1.000000
; T08 POINT 30 point-0000030 deposition
G1 A-90.000000 C-30.285714 X364.959384 Y-279.750000 Z-22.545901 E1.603783981959609347 F1.000000
; T08 POINT 31 point-0000031 deposition
G1 A-90.000000 C-31.428571 X365.475649 Y-279.750000 Z-15.260656 E1.624425168863120223 F1.000000
; T08 POINT 32 point-0000032 deposition
G1 A-90.000000 C-32.571429 X365.846501 Y-279.750000 Z-7.966364 E1.645066420291136286 F1.000000
; T08 POINT 33 point-0000033 deposition
G1 A-90.000000 C-33.714286 X366.071791 Y-279.750000 Z-0.665928 E1.665707787861739844 F1.000000
; T08 POINT 34 point-0000034 deposition
G1 A-90.000000 C-34.857143 X366.151425 Y-279.750000 Z6.637748 E1.686349323190468866 F1.000000
; T08 POINT 35 point-0000035 deposition
G1 A-90.000000 C-35.726706 X366.140547 Y-279.750000 Z12.195434 E1.707486761220963686 F1.000000
; T08 POINT 36 point-0000036 deposition
G1 A-90.000000 C-36.273294 X366.131126 Y-279.750000 Z15.688309 E1.729210070108531861 F1.000000
; T08 POINT 37 point-0000037 deposition
G1 A-90.000000 C-37.142857 X365.982907 Y-279.750000 Z21.243291 E1.750347508139007887 F1.000000
; T08 POINT 38 point-0000038 deposition
G1 A-90.000000 C-38.285714 X365.625587 Y-279.750000 Z28.539346 E1.770989043467730199 F1.000000
; T08 POINT 39 point-0000039 deposition
G1 A-90.000000 C-39.428571 X365.122815 Y-279.750000 Z35.827022 E1.791630411038336706 F1.000000
; T08 POINT 40 point-0000040 deposition
G1 A-90.000000 C-40.571429 X364.474786 Y-279.750000 Z43.103419 E1.812271662466352054 F1.000000
; T08 POINT 41 point-0000041 deposition
G1 A-90.000000 C-41.714286 X363.681754 Y-279.750000 Z50.365642 E1.832912849369864764 F1.000000
; T08 POINT 42 point-0000042 deposition
G1 A-90.000000 C-42.857143 X362.744031 Y-279.750000 Z57.610801 E1.853554023368399624 F1.000000
; T08 POINT 43 point-0000043 deposition
G1 A-90.000000 C-44.000000 X361.661986 Y-279.750000 Z64.836015 E1.874195236081787034 F1.000000
; T08 POINT 44 point-0000044 deposition
G1 A-90.000000 C-45.142857 X360.436044 Y-279.750000 Z72.038408 E1.894836539128975444 F1.000000
; T08 POINT 45 point-0000045 deposition
G1 A-90.000000 C-46.285714 X359.066690 Y-279.750000 Z79.215115 E1.915477984126907589 F1.000000
; T08 POINT 46 point-0000046 deposition
G1 A-90.000000 C-47.428571 X357.554465 Y-279.750000 Z86.363281 E1.936119622689380883 F1.000000
; T08 POINT 47 point-0000047 deposition
G1 A-90.000000 C-48.000000 X356.799595 Y-279.750000 Z89.926020 E1.957797887552991475 F1.000000
; T08 POINT 48 point-0000048 deposition
G1 A-90.000000 C-48.571429 X356.009236 Y-279.750000 Z93.480109 E1.979476152416577160 F1.000000
; T08 POINT 49 point-0000049 deposition
G1 A-90.000000 C-49.714286 X354.213116 Y-279.750000 Z100.562768 E2.000117790979043942 F1.000000
; T08 POINT 50 point-0000050 deposition
G1 A-90.000000 C-50.857143 X352.276086 Y-279.750000 Z107.608392 E2.020759235976982127 F1.000000
; T08 POINT 51 point-0000051 deposition
G1 A-90.000000 C-52.000000 X350.198913 Y-279.750000 Z114.614178 E2.041400539024163887 F1.000000
; T08 POINT 52 point-0000052 deposition
G1 A-90.000000 C-53.142857 X347.982419 Y-279.750000 Z121.577340 E2.062041751737552247 F1.000000
; T08 POINT 53 point-0000053 deposition
G1 A-90.000000 C-54.285714 X345.627481 Y-279.750000 Z128.495106 E2.082682925736089964 F1.000000
; T08 POINT 54 point-0000054 deposition
G1 A-90.000000 C-55.428571 X343.135033 Y-279.750000 Z135.364725 E2.103324112639603751 F1.000000
; T08 POINT 55 point-0000055 deposition
G1 A-90.000000 C-56.571429 X340.506062 Y-279.750000 Z142.183463 E2.123965364067609017 F1.000000
; T08 POINT 56 point-0000056 deposition
G1 A-90.000000 C-57.714286 X337.741610 Y-279.750000 Z148.948607 E2.144606731638235890 F1.000000
; T08 POINT 57 point-0000057 deposition
G1 A-90.000000 C-58.857143 X334.842773 Y-279.750000 Z155.657467 E2.165248266966943030 F1.000000
; T08 POINT 58 point-0000058 deposition
G1 A-90.000000 C-59.726706 X332.573953 Y-279.750000 Z160.722846 E2.186385704997449220 F1.000000
; T08 POINT 59 point-0000059 deposition
G1 A-90.000000 C-60.273294 X331.149166 Y-279.750000 Z163.888750 E2.208109013885018894 F1.000000
; T08 POINT 60 point-0000060 deposition
G1 A-90.000000 C-61.142857 X328.755863 Y-279.750000 Z168.895773 E2.229246451915485474 F1.000000
; T08 POINT 61 point-0000061 deposition
G1 A-90.000000 C-62.285714 X325.460976 Y-279.750000 Z175.419952 E2.249887987244211807 F1.000000
; T08 POINT 62 point-0000062 deposition
G1 A-90.000000 C-63.428571 X322.036616 Y-279.750000 Z181.877314 E2.270529354814825184 F1.000000
; T08 POINT 63 point-0000063 deposition
G1 A-90.000000 C-64.571429 X318.484141 Y-279.750000 Z188.265290 E2.291170606242831474 F1.000000
; T08 POINT 64 point-0000064 deposition
G1 A-90.000000 C-65.714286 X314.804962 Y-279.750000 Z194.581339 E2.311811793146348574 F1.000000
; T08 POINT 65 point-0000065 deposition
G1 A-90.000000 C-66.857143 X311.000537 Y-279.750000 Z200.822948 E2.332452967144886644 F1.000000
; T08 POINT 66 point-0000066 deposition
G1 A-90.000000 C-68.000000 X307.072375 Y-279.750000 Z206.987634 E2.353094179858274860 F1.000000
; T08 POINT 67 point-0000067 deposition
G1 A-90.000000 C-69.142857 X303.022037 Y-279.750000 Z213.072943 E2.373735482905459040 F1.000000
; T08 POINT 68 point-0000068 deposition
G1 A-90.000000 C-70.285714 X298.851128 Y-279.750000 Z219.076455 E2.394376927903394908 F1.000000
; T08 POINT 69 point-0000069 deposition
G1 A-90.000000 C-71.428571 X294.561305 Y-279.750000 Z224.995781 E2.415018566465858028 F1.000000
; T08 POINT 70 point-0000070 deposition
G1 A-90.000000 C-72.000000 X292.426967 Y-279.750000 Z227.923386 E2.436696831329476858 F1.000000
; T08 POINT 71 point-0000071 deposition
G1 A-90.000000 C-72.571429 X290.263542 Y-279.750000 Z230.828614 E2.458375096193064194 F1.000000
; T08 POINT 72 point-0000072 deposition
G1 A-90.000000 C-73.714286 X285.741043 Y-279.750000 Z236.572633 E2.479016734755526597 F1.000000
; T08 POINT 73 point-0000073 deposition
G1 A-90.000000 C-74.857143 X281.104877 Y-279.750000 Z242.225505 E2.499658179753464967 F1.000000
; T08 POINT 74 point-0000074 deposition
G1 A-90.000000 C-76.000000 X276.356883 Y-279.750000 Z247.784982 E2.520299482800651337 F1.000000
; T08 POINT 75 point-0000075 deposition
G1 A-90.000000 C-77.142857 X271.498947 Y-279.750000 Z253.248851 E2.540940695514030553 F1.000000
; T08 POINT 76 point-0000076 deposition
G1 A-90.000000 C-78.285714 X266.532997 Y-279.750000 Z258.614938 E2.561581869512575323 F1.000000
; T08 POINT 77 point-0000077 deposition
G1 A-90.000000 C-79.428571 X261.461004 Y-279.750000 Z263.881110 E2.582223056416082761 F1.000000
; T08 POINT 78 point-0000078 deposition
G1 A-90.000000 C-80.571429 X256.284983 Y-279.750000 Z269.045270 E2.602864307844097641 F1.000000
; T08 POINT 79 point-0000079 deposition
G1 A-90.000000 C-81.714286 X251.006988 Y-279.750000 Z274.105363 E2.623505675414710799 F1.000000
; T08 POINT 80 point-0000080 deposition
G1 A-90.000000 C-82.857143 X245.629116 Y-279.750000 Z279.059378 E2.644147210743432005 F1.000000
; T08 POINT 81 point-0000081 deposition
G1 A-90.000000 C-83.726706 X241.497804 Y-279.750000 Z282.756625 E2.665284648773934902 F1.000000
; T08 POINT 82 point-0000082 deposition
G1 A-90.000000 C-84.273294 X238.913005 Y-279.750000 Z285.048145 E2.687007957661503912 F1.000000
; T08 POINT 83 point-0000083 deposition
G1 A-90.000000 C-85.142857 X234.691590 Y-279.750000 Z288.641424 E2.708145395691974165 F1.000000
; T08 POINT 84 point-0000084 deposition
G1 A-90.000000 C-86.285714 X229.027053 Y-279.750000 Z293.265642 E2.728786931020693102 F1.000000
; T08 POINT 85 point-0000085 deposition
G1 A-90.000000 C-87.428571 X223.271409 Y-279.750000 Z297.776158 E2.749428298591302022 F1.000000
; T08 POINT 86 point-0000086 deposition
G1 A-90.000000 C-88.571429 X217.426944 Y-279.750000 Z302.171178 E2.770069550019321272 F1.000000
; T08 POINT 87 point-0000087 deposition
G1 A-90.000000 C-89.714286 X211.495981 Y-279.750000 Z306.448952 E2.790710736922831382 F1.000000
; T08 POINT 88 point-0000088 deposition
G1 A-90.000000 C-90.857143 X205.480874 Y-279.750000 Z310.607779 E2.811351910921372485 F1.000000
; T08 POINT 89 point-0000089 deposition
G1 A-90.000000 C-92.000000 X199.384013 Y-279.750000 Z314.646004 E2.831993123634754542 F1.000000
; T08 POINT 90 point-0000090 deposition
G1 A-90.000000 C-93.142857 X193.207818 Y-279.750000 Z318.562021 E2.852634426681940132 F1.000000
; T08 POINT 91 point-0000091 deposition
G1 A-90.000000 C-94.285714 X186.954744 Y-279.750000 Z322.354271 E2.873275871679874674 F1.000000
; T08 POINT 92 point-0000092 deposition
G1 A-90.000000 C-95.428571 X180.627273 Y-279.750000 Z326.021246 E2.893917510242345137 F1.000000
; T08 POINT 93 point-0000093 deposition
G1 A-90.000000 C-96.000000 X177.491059 Y-279.750000 Z327.807546 E2.915595775105961100 F1.000000
; T08 POINT 94 point-0000094 deposition
G1 A-90.000000 C-96.571429 X174.337191 Y-279.750000 Z329.561534 E2.937274039969540210 F1.000000
; T08 POINT 95 point-0000095 deposition
G1 A-90.000000 C-97.714286 X167.868496 Y-279.750000 Z332.973727 E2.957915678532018417 F1.000000
; T08 POINT 96 point-0000096 deposition
G1 A-90.000000 C-98.857143 X161.333029 Y-279.750000 Z336.256419 E2.978557123529944362 F1.000000
; T08 POINT 97 point-0000097 deposition
G1 A-90.000000 C-100.000000 X154.733387 Y-279.750000 Z339.408305 E2.999198426577132812 F1.000000
; T08 POINT 98 point-0000098 deposition
G1 A-90.000000 C-101.142857 X148.072190 Y-279.750000 Z342.428131 E3.019839639290517632 F1.000000
; T08 POINT 99 point-0000099 deposition
G1 A-90.000000 C-102.285714 X141.352086 Y-279.750000 Z345.314695 E3.040480813289061927 F1.000000
; T08 POINT 100 point-0000100 deposition
G1 A-90.000000 C-103.428571 X134.575742 Y-279.750000 Z348.066849 E3.061122000192564307 F1.000000
; T08 POINT 101 point-0000101 deposition
G1 A-90.000000 C-104.571429 X127.745853 Y-279.750000 Z350.683498 E3.081763251620582867 F1.000000
; T08 POINT 102 point-0000102 deposition
G1 A-90.000000 C-105.714286 X120.865129 Y-279.750000 Z353.163600 E3.102404619191198561 F1.000000
; T08 POINT 103 point-0000103 deposition
G1 A-90.000000 C-106.857143 X113.936306 Y-279.750000 Z355.506170 E3.123046154519914885 F1.000000
; T08 POINT 104 point-0000104 deposition
G1 A-90.000000 C-107.726706 X108.659991 Y-279.750000 Z357.196023 E3.144183592550419850 F1.000000
; T08 POINT 105 point-0000105 deposition
G1 A-90.000000 C-108.273294 X105.371114 Y-279.750000 Z358.216933 E3.165906901437987910 F1.000000
; T08 POINT 106 point-0000106 deposition
G1 A-90.000000 C-109.142857 X100.054658 Y-279.750000 Z359.775133 E3.187044339468450853 F1.000000
; T08 POINT 107 point-0000107 deposition
G1 A-90.000000 C-110.285714 X92.998120 Y-279.750000 Z361.699827 E3.207685874797179771 F1.000000
; T08 POINT 108 point-0000108 deposition
G1 A-90.000000 C-111.428571 X85.904595 Y-279.750000 Z363.483593 E3.228327242367786695 F1.000000
; T08 POINT 109 point-0000109 deposition
G1 A-90.000000 C-112.571429 X78.776903 Y-279.750000 Z365.125719 E3.248968493795799209 F1.000000
; T08 POINT 110 point-0000110 deposition
G1 A-90.000000 C-113.714286 X71.617874 Y-279.750000 Z366.625554 E3.269609680699318242 F1.000000
; T08 POINT 111 point-0000111 deposition
G1 A-90.000000 C-114.857143 X64.430352 Y-279.750000 Z367.982499 E3.290250854697851162 F1.000000
; T08 POINT 112 point-0000112 deposition
G1 A-90.000000 C-116.000000 X57.217194 Y-279.750000 Z369.196017 E3.310892067411241022 F1.000000
; T08 POINT 113 point-0000113 deposition
G1 A-90.000000 C-117.142857 X49.981264 Y-279.750000 Z370.265622 E3.331533370458424392 F1.000000
; T08 POINT 114 point-0000114 deposition
G1 A-90.000000 C-118.285714 X42.725437 Y-279.750000 Z371.190891 E3.352174815456358122 F1.000000
; T08 POINT 115 point-0000115 deposition
G1 A-90.000000 C-119.428571 X35.452597 Y-279.750000 Z371.971454 E3.372816454018825480 F1.000000
; T08 POINT 116 point-0000116 deposition
G1 A-90.000000 C-120.000000 X31.865335 Y-279.750000 Z372.307621 E3.394494718882446780 F1.000000
; T08 POINT 117 point-0000117 deposition
G1 A-90.000000 C-120.571429 X28.274903 Y-279.750000 Z372.607050 E3.416172983746030452 F1.000000
; T08 POINT 118 point-0000118 deposition
G1 A-90.000000 C-121.714286 X20.976709 Y-279.750000 Z373.097424 E3.436814622308496779 F1.000000
; T08 POINT 119 point-0000119 deposition
G1 A-90.000000 C-122.857143 X13.670184 Y-279.750000 Z373.442334 E3.457456067306429972 F1.000000
; T08 POINT 120 point-0000120 deposition
G1 A-90.000000 C-124.000000 X6.358231 Y-279.750000 Z373.641643 E3.478097370353611186 F1.000000
; T08 POINT 121 point-0000121 deposition
G1 A-90.000000 C-125.142857 X-0.956244 Y-279.750000 Z373.695273 E3.498738583067001723 F1.000000
; T08 POINT 122 point-0000122 deposition
G1 A-90.000000 C-126.285714 X-8.270335 Y-279.750000 Z373.603200 E3.519379757065538347 F1.000000
; T08 POINT 123 point-0000123 deposition
G1 A-90.000000 C-127.428571 X-15.581137 Y-279.750000 Z373.365463 E3.540020943969050025 F1.000000
; T08 POINT 124 point-0000124 deposition
G1 A-90.000000 C-128.571429 X-22.885745 Y-279.750000 Z372.982156 E3.560662195397069715 F1.000000
; T08 POINT 125 point-0000125 deposition
G1 A-90.000000 C-129.714286 X-30.181257 Y-279.750000 Z372.453431 E3.581303562967681548 F1.000000
; T08 POINT 126 point-0000126 deposition
G1 A-90.000000 C-130.857143 X-37.464775 Y-279.750000 Z371.779498 E3.601945098296398878 F1.000000
; T08 POINT 127 point-0000127 deposition
G1 A-90.000000 C-131.726706 X-42.970619 Y-279.750000 Z371.169790 E3.623082536326906018 F1.000000
; T08 POINT 128 point-0000128 deposition
G1 A-90.000000 C-132.273294 X-46.385901 Y-279.750000 Z370.743567 E3.644805845214474030 F1.000000
; T08 POINT 129 point-0000129 deposition
G1 A-90.000000 C-133.142857 X-51.874987 Y-279.750000 Z369.997236 E3.665943283244940227 F1.000000
; T08 POINT 130 point-0000130 deposition
G1 A-90.000000 C-134.285714 X-59.105185 Y-279.750000 Z368.889615 E3.686584818573662754 F1.000000
; T08 POINT 131 point-0000131 deposition
G1 A-90.000000 C-135.428571 X-66.311854 Y-279.750000 Z367.638204 E3.707226186144270208 F1.000000
; T08 POINT 132 point-0000132 deposition
G1 A-90.000000 C-136.571429 X-73.492131 Y-279.750000 Z366.243502 E3.727867437572290302 F1.000000
; T08 POINT 133 point-0000133 deposition
G1 A-90.000000 C-137.714286 X-80.643165 Y-279.750000 Z364.706063 E3.748508624475798722 F1.000000
; T08 POINT 134 point-0000134 deposition
G1 A-90.000000 C-138.857143 X-87.762113 Y-279.750000 Z363.026499 E3.769149798474342142 F1.000000
; T08 POINT 135 point-0000135 deposition
G1 A-90.000000 C-140.000000 X-94.846147 Y-279.750000 Z361.205478 E3.789791011187730198 F1.000000
; T08 POINT 136 point-0000136 deposition
G1 A-90.000000 C-141.142857 X-101.892454 Y-279.750000 Z359.243724 E3.810432314234909068 F1.000000
; T08 POINT 137 point-0000137 deposition
G1 A-90.000000 C-142.285714 X-108.898233 Y-279.750000 Z357.142019 E3.831073759232846726 F1.000000
; T08 POINT 138 point-0000138 deposition
G1 A-90.000000 C-143.428571 X-115.860703 Y-279.750000 Z354.901198 E3.851715397795316113 F1.000000
; T08 POINT 139 point-0000139 deposition
G1 A-90.000000 C-144.000000 X-119.270195 Y-279.750000 Z353.729145 E3.873393662658936020 F1.000000
; T08 POINT 140 point-0000140 deposition
G1 A-90.000000 C-144.571429 X-122.667825 Y-279.750000 Z352.522200 E3.895071927522519450 F1.000000
; T08 POINT 141 point-0000141 deposition
G1 A-90.000000 C-145.714286 X-129.535394 Y-279.750000 Z350.005972 E3.915713566084989386 F1.000000
; T08 POINT 142 point-0000142 deposition
G1 A-90.000000 C-146.857143 X-136.351412 Y-279.750000 Z347.353467 E3.936355011082919994 F1.000000
; T08 POINT 143 point-0000143 deposition
G1 A-90.000000 C-148.000000 X-143.113171 Y-279.750000 Z344.565741 E3.956996314130107974 F1.000000
; T08 POINT 144 point-0000144 deposition
G1 A-90.000000 C-149.142857 X-149.817985 Y-279.750000 Z341.643903 E3.977637526843495354 F1.000000
; T08 POINT 145 point-0000145 deposition
G1 A-90.000000 C-150.285714 X-156.463189 Y-279.750000 Z338.589115 E3.998278700842036200 F1.000000
; T08 POINT 146 point-0000146 deposition
G1 A-90.000000 C-151.428571 X-163.046145 Y-279.750000 Z335.402593 E4.018919887745545600 F1.000000
; T08 POINT 147 point-0000147 deposition
G1 A-90.000000 C-152.571429 X-169.564238 Y-279.750000 Z332.085604 E4.039561139173561312 F1.000000
; T08 POINT 148 point-0000148 deposition
G1 A-90.000000 C-153.714286 X-176.014877 Y-279.750000 Z328.639468 E4.060202506744170632 F1.000000
; T08 POINT 149 point-0000149 deposition
G1 A-90.000000 C-154.857143 X-182.395502 Y-279.750000 Z325.065556 E4.080844042072896608 F1.000000
; T08 POINT 150 point-0000150 deposition
G1 A-90.000000 C-155.726706 X-187.175718 Y-279.750000 Z322.261736 E4.101981480103397964 F1.000000
; T08 POINT 151 point-0000151 deposition
G1 A-90.000000 C-156.273294 X-190.117874 Y-279.750000 Z320.462077 E4.123704788990966784 F1.000000
; T08 POINT 152 point-0000152 deposition
G1 A-90.000000 C-157.142857 X-194.827327 Y-279.750000 Z317.540238 E4.144842227021433998 F1.000000
; T08 POINT 153 point-0000153 deposition
G1 A-90.000000 C-158.285714 X-200.982818 Y-279.750000 Z313.591825 E4.165483762350160868 F1.000000
; T08 POINT 154 point-0000154 deposition
G1 A-90.000000 C-159.428571 X-207.058333 Y-279.750000 Z309.521623 E4.186125129920770288 F1.000000
; T08 POINT 155 point-0000155 deposition
G1 A-90.000000 C-160.571429 X-213.051459 Y-279.750000 Z305.331251 E4.206766381348782558 F1.000000
; T08 POINT 156 point-0000156 deposition
G1 A-90.000000 C-161.714286 X-218.959817 Y-279.750000 Z301.022377 E4.227407568252296858 F1.000000
; T08 POINT 157 point-0000157 deposition
G1 A-90.000000 C-162.857143 X-224.781060 Y-279.750000 Z296.596715 E4.248048742250839238 F1.000000
; T08 POINT 158 point-0000158 deposition
G1 A-90.000000 C-164.000000 X-230.512876 Y-279.750000 Z292.056025 E4.268689954964226354 F1.000000
; T08 POINT 159 point-0000159 deposition
G1 A-90.000000 C-165.142857 X-236.152989 Y-279.750000 Z287.402114 E4.289331258011404542 F1.000000
; T08 POINT 160 point-0000160 deposition
G1 A-90.000000 C-166.285714 X-241.699158 Y-279.750000 Z282.636834 E4.309972703009348816 F1.000000
; T08 POINT 161 point-0000161 deposition
G1 A-90.000000 C-167.428571 X-247.149181 Y-279.750000 Z277.762080 E4.330614341571814279 F1.000000
; T08 POINT 162 point-0000162 deposition
G1 A-90.000000 C-168.000000 X-249.782825 Y-279.750000 Z275.284503 E4.352292606435429513 F1.000000
; T08 POINT 163 point-0000163 deposition
G1 A-90.000000 C-168.571429 X-252.391624 Y-279.750000 Z272.779839 E4.373970871299013619 F1.000000
; T08 POINT 164 point-0000164 deposition
G1 A-90.000000 C-169.714286 X-257.642903 Y-279.750000 Z267.692094 E4.394612509861479709 F1.000000
; T08 POINT 165 point-0000165 deposition
G1 A-90.000000 C-170.857143 X-262.791662 Y-279.750000 Z262.500822 E4.415253954859417759 F1.000000
; T08 POINT 166 point-0000166 deposition
G1 A-90.000000 C-172.000000 X-267.835857 Y-279.750000 Z257.208087 E4.435895257906604319 F1.000000
; T08 POINT 167 point-0000167 deposition
G1 A-90.000000 C-173.142857 X-272.773486 Y-279.750000 Z251.815995 E4.456536470619986963 F1.000000
; T08 POINT 168 point-0000168 deposition
G1 A-90.000000 C-174.285714 X-277.602587 Y-279.750000 Z246.326692 E4.477177644618536553 F1.000000
; T08 POINT 169 point-0000169 deposition
G1 A-90.000000 C-175.428571 X-282.321243 Y-279.750000 Z240.742362 E4.497818831522040773 F1.000000
; T08 POINT 170 point-0000170 deposition
G1 A-90.000000 C-176.571429 X-286.927582 Y-279.750000 Z235.065226 E4.518460082950055511 F1.000000
; T08 POINT 171 point-0000171 deposition
G1 A-90.000000 C-177.714286 X-291.419775 Y-279.750000 Z229.297544 E4.539101450520672251 F1.000000
; T08 POINT 172 point-0000172 deposition
G1 A-90.000000 C-178.857143 X-295.796038 Y-279.750000 Z223.441609 E4.559742985849391247 F1.000000
; T08 POINT 173 point-0000173 deposition
G1 A-90.000000 C-179.726706 X-299.020933 Y-279.750000 Z218.928508 E4.580880423879890695 F1.000000
; T08 POINT 174 point-0000174 deposition
G1 A-90.000000 C-180.273294 X-300.972241 Y-279.750000 Z216.066591 E4.602603732767457565 F1.000000
; T08 POINT 175 point-0000175 deposition
G1 A-90.000000 C-181.142857 X-304.084605 Y-279.750000 Z211.474430 E4.623741170797927475 F1.000000
; T08 POINT 176 point-0000176 deposition
G1 A-90.000000 C-182.285714 X-308.102847 Y-279.750000 Z205.367948 E4.644382706126653850 F1.000000
; T08 POINT 177 point-0000177 deposition
G1 A-90.000000 C-183.428571 X-311.998496 Y-279.750000 Z199.182734 E4.665024073697269034 F1.000000
; T08 POINT 178 point-0000178 deposition
G1 A-90.000000 C-184.571429 X-315.770005 Y-279.750000 Z192.921249 E4.685665325125277774 F1.000000
; T08 POINT 179 point-0000179 deposition
G1 A-90.000000 C-185.714286 X-319.415879 Y-279.750000 Z186.585984 E4.706306512028796838 F1.000000
; T08 POINT 180 point-0000180 deposition
G1 A-90.000000 C-186.857143 X-322.934670 Y-279.750000 Z180.179460 E4.726947686027330118 F1.000000
; T08 POINT 181 point-0000181 deposition
G1 A-90.000000 C-188.000000 X-326.324984 Y-279.750000 Z173.704226 E4.747588898740721553 F1.000000
; T08 POINT 182 point-0000182 deposition
G1 A-90.000000 C-189.142857 X-329.585475 Y-279.750000 Z167.162858 E4.768230201787907683 F1.000000
; T08 POINT 183 point-0000183 deposition
G1 A-90.000000 C-190.285714 X-332.714850 Y-279.750000 Z160.557957 E4.788871646785836751 F1.000000
; T08 POINT 184 point-0000184 deposition
G1 A-90.000000 C-191.428571 X-335.711869 Y-279.750000 Z153.892153 E4.809513285348312091 F1.000000
; T08 POINT 185 point-0000185 deposition
G1 A-90.000000 C-192.000000 X-337.105735 Y-279.750000 Z150.537489 E4.831191550211920237 F1.000000
; T08 POINT 186 point-0000186 deposition
G1 A-90.000000 C-192.571429 X-338.466071 Y-279.750000 Z147.168145 E4.852869815075509677 F1.000000
; T08 POINT 187 point-0000187 deposition
G1 A-90.000000 C-193.714286 X-341.194865 Y-279.750000 Z140.388607 E4.873511453637976577 F1.000000
; T08 POINT 188 point-0000188 deposition
G1 A-90.000000 C-194.857143 X-343.787898 Y-279.750000 Z133.556190 E4.894152898635912957 F1.000000
; T08 POINT 189 point-0000189 deposition
G1 A-90.000000 C-196.000000 X-346.244141 Y-279.750000 Z126.673611 E4.914794201683100475 F1.000000
; T08 POINT 190 point-0000190 deposition
G1 A-90.000000 C-197.142857 X-348.562623 Y-279.750000 Z119.743610 E4.935435414396485325 F1.000000
; T08 POINT 191 point-0000191 deposition
G1 A-90.000000 C-198.285714 X-350.742425 Y-279.750000 Z112.768943 E4.956076588395023485 F1.000000
; T08 POINT 192 point-0000192 deposition
G1 A-90.000000 C-199.428571 X-352.782683 Y-279.750000 Z105.752385 E4.976717775298541057 F1.000000
; T08 POINT 193 point-0000193 deposition
G1 A-90.000000 C-200.571429 X-354.682590 Y-279.750000 Z98.696728 E4.997359026726555607 F1.000000
; T08 POINT 194 point-0000194 deposition
G1 A-90.000000 C-201.714286 X-356.441394 Y-279.750000 Z91.604779 E5.018000394297165027 F1.000000
; T08 POINT 195 point-0000195 deposition
G1 A-90.000000 C-202.857143 X-358.058400 Y-279.750000 Z84.479360 E5.038641929625890797 F1.000000
; T08 POINT 196 point-0000196 deposition
G1 A-90.000000 C-203.726706 X-359.167211 Y-279.750000 Z79.037359 E5.059779367656381873 F1.000000
; T08 POINT 197 point-0000197 deposition
G1 A-90.000000 C-204.273294 X-359.781275 Y-279.750000 Z75.608035 E5.081502676543950541 F1.000000
; T08 POINT 198 point-0000198 deposition
G1 A-90.000000 C-205.142857 X-360.755245 Y-279.750000 Z70.139555 E5.102640114574420218 F1.000000
; T08 POINT 199 point-0000199 deposition
G1 A-90.000000 C-206.285714 X-361.943247 Y-279.750000 Z62.930876 E5.123281649903150170 F1.000000
; T08 POINT 200 point-0000200 deposition
G1 A-90.000000 C-207.428571 X-362.987236 Y-279.750000 Z55.700133 E5.143923017473764782 F1.000000
; T08 POINT 201 point-0000201 deposition
G1 A-90.000000 C-208.571429 X-363.886799 Y-279.750000 Z48.450205 E5.164564268901780494 F1.000000
; T08 POINT 202 point-0000202 deposition
G1 A-90.000000 C-209.714286 X-364.641583 Y-279.750000 Z41.183976 E5.185205455805289894 F1.000000
; T08 POINT 203 point-0000203 deposition
G1 A-90.000000 C-210.857143 X-365.251292 Y-279.750000 Z33.904337 E5.205846629803828721 F1.000000
; T08 POINT 204 point-0000204 deposition
G1 A-90.000000 C-212.000000 X-365.715686 Y-279.750000 Z26.614183 E5.226487842517213304 F1.000000
; T08 POINT 205 point-0000205 deposition
G1 A-90.000000 C-213.142857 X-366.034587 Y-279.750000 Z19.316415 E5.247129145564403320 F1.000000
; T08 POINT 206 point-0000206 deposition
G1 A-90.000000 C-214.285714 X-366.207870 Y-279.750000 Z12.013937 E5.267770590562335160 F1.000000
; T08 POINT 207 point-0000207 deposition
G1 A-90.000000 C-215.428571 X-366.235471 Y-279.750000 Z4.709655 E5.288412229124802206 F1.000000
; T08 POINT 208 point-0000208 deposition
G1 A-90.000000 C-216.000000 X-366.140001 Y-279.750000 Z1.057993 E5.310090493988411049 F1.000000
; T08 POINT 209 point-0000209 deposition
G1 A-90.000000 C-216.571429 X-366.008113 Y-279.750000 Z-2.593480 E5.331768758852007609 F1.000000
; T08 POINT 210 point-0000210 deposition
G1 A-90.000000 C-217.714286 X-365.744387 Y-279.750000 Z-9.892560 E5.352410397414472854 F1.000000
; T08 POINT 211 point-0000211 deposition
G1 A-90.000000 C-218.857143 X-365.335134 Y-279.750000 Z-17.184730 E5.373051842412414897 F1.000000
; T08 POINT 212 point-0000212 deposition
G1 A-90.000000 C-220.000000 X-364.780519 Y-279.750000 Z-24.467088 E5.393693145459594712 F1.000000
; T08 POINT 213 point-0000213 deposition
G1 A-90.000000 C-221.142857 X-364.080767 Y-279.750000 Z-31.736737 E5.414334358172978757 F1.000000
; T08 POINT 214 point-0000214 deposition
G1 A-90.000000 C-222.285714 X-363.236161 Y-279.750000 Z-38.990784 E5.434975532171526347 F1.000000
; T08 POINT 215 point-0000215 deposition
G1 A-90.000000 C-223.428571 X-362.247041 Y-279.750000 Z-46.226344 E5.455616719075034767 F1.000000
; T08 POINT 216 point-0000216 deposition
G1 A-90.000000 C-224.571429 X-361.113804 Y-279.750000 Z-53.440538 E5.476257970503050729 F1.000000
; T08 POINT 217 point-0000217 deposition
G1 A-90.000000 C-225.714286 X-359.836906 Y-279.750000 Z-60.630495 E5.496899338073662359 F1.000000
; T08 POINT 218 point-0000218 deposition
G1 A-90.000000 C-226.857143 X-358.416859 Y-279.750000 Z-67.793355 E5.517540873402384886 F1.000000
; T08 POINT 219 point-0000219 deposition
G1 A-90.000000 C-227.726706 X-357.214714 Y-279.750000 Z-73.223260 E5.538678311432874116 F1.000000
; T08 POINT 220 point-0000220 deposition
G1 A-90.000000 C-228.273294 X-356.376359 Y-279.750000 Z-76.627029 E5.560401620320442128 F1.000000
; T08 POINT 221 point-0000221 deposition
G1 A-90.000000 C-229.142857 X-355.040378 Y-279.750000 Z-82.026303 E5.581539058350925086 F1.000000
; T08 POINT 222 point-0000222 deposition
G1 A-90.000000 C-230.285714 X-353.194524 Y-279.750000 Z-89.090728 E5.602180593679644682 F1.000000
; T08 POINT 223 point-0000223 deposition
G1 A-90.000000 C-231.428571 X-351.208136 Y-279.750000 Z-96.116734 E5.622821961250262522 F1.000000
; T08 POINT 224 point-0000224 deposition
G1 A-90.000000 C-232.571429 X-349.082010 Y-279.750000 Z-103.101523 E5.643463212678267442 F1.000000
; T08 POINT 225 point-0000225 deposition
G1 A-90.000000 C-233.714286 X-346.816995 Y-279.750000 Z-110.042319 E5.664104399581788572 F1.000000
; T08 POINT 226 point-0000226 deposition
G1 A-90.000000 C-234.857143 X-344.413996 Y-279.750000 Z-116.936359 E5.684745573580328122 F1.000000
; T08 POINT 227 point-0000227 deposition
G1 A-90.000000 C-236.000000 X-341.873973 Y-279.750000 Z-123.780900 E5.705386786293706797 F1.000000
; T08 POINT 228 point-0000228 deposition
G1 A-90.000000 C-237.142857 X-339.197942 Y-279.750000 Z-130.573220 E5.726028089340898662 F1.000000
; T08 POINT 229 point-0000229 deposition
G1 A-90.000000 C-238.285714 X-336.386970 Y-279.750000 Z-137.310616 E5.746669534338833102 F1.000000
; T08 POINT 230 point-0000230 deposition
G1 A-90.000000 C-239.428571 X-333.442181 Y-279.750000 Z-143.990407 E5.767311172901300206 F1.000000
; T08 POINT 231 point-0000231 deposition
G1 A-90.000000 C-240.000000 X-331.865335 Y-279.750000 Z-147.307621 E5.788989437764904396 F1.000000
; T08 POINT 232 point-0000232 deposition
G1 A-90.000000 C-240.571429 X-330.255479 Y-279.750000 Z-150.609889 E5.810667702628500593 F1.000000
; T08 POINT 233 point-0000233 deposition
G1 A-90.000000 C-241.714286 X-327.046635 Y-279.750000 Z-157.166428 E5.831309341190973853 F1.000000
; T08 POINT 234 point-0000234 deposition
G1 A-90.000000 C-242.857143 X-323.707658 Y-279.750000 Z-163.657463 E5.851950786188906949 F1.000000
; T08 POINT 235 point-0000235 deposition
G1 A-90.000000 C-244.000000 X-320.239882 Y-279.750000 Z-170.080411 E5.872592089236092299 F1.000000
; T08 POINT 236 point-0000236 deposition
G1 A-90.000000 C-245.142857 X-316.644689 Y-279.750000 Z-176.432717 E5.893233301949473589 F1.000000
; T08 POINT 237 point-0000237 deposition
G1 A-90.000000 C-246.285714 X-312.923515 Y-279.750000 Z-182.711854 E5.913874475948024354 F1.000000
; T08 POINT 238 point-0000238 deposition
G1 A-90.000000 C-247.428571 X-309.077844 Y-279.750000 Z-188.915323 E5.934515662851524184 F1.000000
; T08 POINT 239 point-0000239 deposition
G1 A-90.000000 C-248.571429 X-305.109210 Y-279.750000 Z-195.040657 E5.955156914279545208 F1.000000
; T08 POINT 240 point-0000240 deposition
G1 A-90.000000 C-249.714286 X-301.019196 Y-279.750000 Z-201.085418 E5.975798281850155421 F1.000000
; T08 POINT 241 point-0000241 deposition
G1 A-90.000000 C-250.857143 X-296.809434 Y-279.750000 Z-207.047201 E5.996439817178876897 F1.000000
; T08 POINT 242 point-0000242 deposition
G1 A-90.000000 C-251.726706 X-293.501046 Y-279.750000 Z-211.526104 E6.017577255209364587 F1.000000
; T08 POINT 243 point-0000243 deposition
G1 A-90.000000 C-252.273294 X-291.346234 Y-279.750000 Z-214.315777 E6.039300564096933107 F1.000000
; T08 POINT 244 point-0000244 deposition
G1 A-90.000000 C-253.142857 X-287.928156 Y-279.750000 Z-218.712287 E6.060438002127418967 F1.000000
; T08 POINT 245 point-0000245 deposition
G1 A-90.000000 C-254.285714 X-283.369410 Y-279.750000 Z-224.410948 E6.081079537456138535 F1.000000
; T08 POINT 246 point-0000246 deposition
G1 A-90.000000 C-255.428571 X-278.697911 Y-279.750000 Z-230.017351 E6.101720905026753178 F1.000000
; T08 POINT 247 point-0000247 deposition
G1 A-90.000000 C-256.571429 X-273.915521 Y-279.750000 Z-235.529267 E6.122362156454763863 F1.000000
; T08 POINT 248 point-0000248 deposition
G1 A-90.000000 C-257.714286 X-269.024148 Y-279.750000 Z-240.944501 E6.143003343358276977 F1.000000
; T08 POINT 249 point-0000249 deposition
G1 A-90.000000 C-258.857143 X-264.025741 Y-279.750000 Z-246.260899 E6.163644517356819827 F1.000000
; T08 POINT 250 point-0000250 deposition
G1 A-90.000000 C-260.000000 X-258.922294 Y-279.750000 Z-251.476347 E6.184285730070197391 F1.000000
; T08 POINT 251 point-0000251 deposition
G1 A-90.000000 C-261.142857 X-253.715840 Y-279.750000 Z-256.588769 E6.204927033117394828 F1.000000
; T08 POINT 252 point-0000252 deposition
G1 A-90.000000 C-262.285714 X-248.408455 Y-279.750000 Z-261.596131 E6.225568478115320551 F1.000000
; T08 POINT 253 point-0000253 deposition
G1 A-90.000000 C-263.428571 X-243.002256 Y-279.750000 Z-266.496440 E6.246210116677797491 F1.000000
; T08 POINT 254 point-0000254 deposition
G1 A-90.000000 C-264.000000 X-240.208137 Y-279.750000 Z-268.905591 E6.267888381541393078 F1.000000
; T08 POINT 255 point-0000255 deposition
G1 A-90.000000 C-264.571429 X-237.390125 Y-279.750000 Z-271.287701 E6.289566646404992728 F1.000000
; T08 POINT 256 point-0000256 deposition
G1 A-90.000000 C-265.714286 X-231.792800 Y-279.750000 Z-275.968007 E6.310208284967457300 F1.000000
; T08 POINT 257 point-0000257 deposition
G1 A-90.000000 C-266.857143 X-226.103239 Y-279.750000 Z-280.535543 E6.330849729965393230 F1.000000
; T08 POINT 258 point-0000258 deposition
G1 A-90.000000 C-268.000000 X-220.323711 Y-279.750000 Z-284.988492 E6.351491033012584720 F1.000000
; T08 POINT 259 point-0000259 deposition
G1 A-90.000000 C-269.142857 X-214.456518 Y-279.750000 Z-289.325082 E6.372132245725969733 F1.000000
; T08 POINT 260 point-0000260 deposition
G1 A-90.000000 C-270.285714 X-208.504000 Y-279.750000 Z-293.543588 E6.392773419724510843 F1.000000
; T08 POINT 261 point-0000261 deposition
G1 A-90.000000 C-271.428571 X-202.468529 Y-279.750000 Z-297.642331 E6.413414606628019457 F1.000000
; T08 POINT 262 point-0000262 deposition
G1 A-90.000000 C-272.571429 X-196.352510 Y-279.750000 Z-301.619682 E6.434055858056031327 F1.000000
; T08 POINT 263 point-0000263 deposition
G1 A-90.000000 C-273.714286 X-190.158381 Y-279.750000 Z-305.474056 E6.454697225626649172 F1.000000
; T08 POINT 264 point-0000264 deposition
G1 A-90.000000 C-274.857143 X-183.888610 Y-279.750000 Z-309.203922 E6.475338760955365062 F1.000000
; T08 POINT 265 point-0000265 deposition
G1 A-90.000000 C-275.726706 X-179.042880 Y-279.750000 Z-311.957356 E6.496476198985853228 F1.000000
; T08 POINT 266 point-0000266 deposition
G1 A-90.000000 C-276.273294 X-175.935200 Y-279.750000 Z-313.650572 E6.518199507873422088 F1.000000
; T08 POINT 267 point-0000267 deposition
G1 A-90.000000 C-277.142857 X-171.022893 Y-279.750000 Z-316.284146 E6.539336945903910146 F1.000000
; T08 POINT 268 point-0000268 deposition
G1 A-90.000000 C-278.285714 X-164.541303 Y-279.750000 Z-319.631687 E6.559978481232623833 F1.000000
; T08 POINT 269 point-0000269 deposition
G1 A-90.000000 C-279.428571 X-157.994236 Y-279.750000 Z-322.849087 E6.580619848803244283 F1.000000
; T08 POINT 270 point-0000270 deposition
G1 A-90.000000 C-280.571429 X-151.384301 Y-279.750000 Z-325.935065 E6.601261100231250441 F1.000000
; T08 POINT 271 point-0000271 deposition
G1 A-90.000000 C-281.714286 X-144.714132 Y-279.750000 Z-328.888393 E6.621902287134769755 F1.000000
; T08 POINT 272 point-0000272 deposition
G1 A-90.000000 C-282.857143 X-137.986387 Y-279.750000 Z-331.707897 E6.642543461133305237 F1.000000
; T08 POINT 273 point-0000273 deposition
G1 A-90.000000 C-284.000000 X-131.203746 Y-279.750000 Z-334.392454 E6.663184673846691977 F1.000000
; T08 POINT 274 point-0000274 deposition
G1 A-90.000000 C-285.142857 X-124.368913 Y-279.750000 Z-336.940997 E6.683825976893876913 F1.000000
; T08 POINT 275 point-0000275 deposition
G1 A-90.000000 C-286.285714 X-117.484610 Y-279.750000 Z-339.352512 E6.704467421891818523 F1.000000
; T08 POINT 276 point-0000276 deposition
G1 A-90.000000 C-287.428571 X-110.553580 Y-279.750000 Z-341.626039 E6.725109060454284177 F1.000000
; T08 POINT 277 point-0000277 deposition
G1 A-90.000000 C-288.000000 X-107.016770 Y-279.750000 Z-342.710524 E6.746787325317883230 F1.000000
; T08 POINT 278 point-0000278 deposition
G1 A-90.000000 C-288.571429 X-103.469315 Y-279.750000 Z-343.760627 E6.768465590181479646 F1.000000
; T08 POINT 279 point-0000279 deposition
G1 A-90.000000 C-289.714286 X-96.453136 Y-279.750000 Z-345.755425 E6.789107228743950220 F1.000000
; T08 POINT 280 point-0000280 deposition
G1 A-90.000000 C-290.857143 X-89.398567 Y-279.750000 Z-347.609689 E6.809748673741888853 F1.000000
; T08 POINT 281 point-0000281 deposition
G1 A-90.000000 C-292.000000 X-82.308419 Y-279.750000 Z-349.322679 E6.830389976789071113 F1.000000
; T08 POINT 282 point-0000282 deposition
G1 A-90.000000 C-293.142857 X-75.185518 Y-279.750000 Z-350.893715 E6.851031189502454673 F1.000000
; T08 POINT 283 point-0000283 deposition
G1 A-90.000000 C-294.285714 X-68.032700 Y-279.750000 Z-352.322172 E6.871672363500996636 F1.000000
; T08 POINT 284 point-0000284 deposition
G1 A-90.000000 C-295.428571 X-60.852816 Y-279.750000 Z-353.607481 E6.892313550404514458 F1.000000
; T08 POINT 285 point-0000285 deposition
G1 A-90.000000 C-296.571429 X-53.648727 Y-279.750000 Z-354.749131 E6.912954801832523360 F1.000000
; T08 POINT 286 point-0000286 deposition
G1 A-90.000000 C-297.714286 X-46.423302 Y-279.750000 Z-355.746667 E6.933596169403136067 F1.000000
; T08 POINT 287 point-0000287 deposition
G1 A-90.000000 C-298.857143 X-39.179421 Y-279.750000 Z-356.599693 E6.954237704731855797 F1.000000
; T08 POINT 288 point-0000288 deposition
G1 A-90.000000 C-299.726706 X-33.631071 Y-279.750000 Z-357.151540 E6.975375142762342179 F1.000000
; T08 POINT 289 point-0000289 deposition
G1 A-90.000000 C-300.273294 X-30.098873 Y-279.750000 Z-357.455526 E6.997098451649909834 F1.000000
; T08 POINT 290 point-0000290 deposition
G1 A-90.000000 C-301.142857 X-24.538570 Y-279.750000 Z-357.870820 E7.018235889680392976 F1.000000
; T08 POINT 291 point-0000291 deposition
G1 A-90.000000 C-302.285714 X-17.256661 Y-279.750000 Z-358.288416 E7.038877425009119840 F1.000000
; T08 POINT 292 point-0000292 deposition
G1 A-90.000000 C-303.428571 X-9.967873 Y-279.750000 Z-358.560489 E7.059518792579727457 F1.000000
; T08 POINT 293 point-0000293 deposition
G1 A-90.000000 C-304.571429 X-2.675110 Y-279.750000 Z-358.686933 E7.080160044007751583 F1.000000
; T08 POINT 294 point-0000294 deposition
G1 A-90.000000 C-305.714286 X4.618722 Y-279.750000 Z-358.667697 E7.100801230911253023 F1.000000
; T08 POINT 295 point-0000295 deposition
G1 A-90.000000 C-306.857143 X11.910718 Y-279.750000 Z-358.502789 E7.121442404909798123 F1.000000
; T08 POINT 296 point-0000296 deposition
G1 A-90.000000 C-308.000000 X19.197972 Y-279.750000 Z-358.192274 E7.142083617623179993 F1.000000
; T08 POINT 297 point-0000297 deposition
G1 A-90.000000 C-309.142857 X26.477581 Y-279.750000 Z-357.736276 E7.162724920670369138 F1.000000
; T08 POINT 298 point-0000298 deposition
G1 A-90.000000 C-310.285714 X33.746645 Y-279.750000 Z-357.134976 E7.183366365668307323 F1.000000
; T08 POINT 299 point-0000299 deposition
G1 A-90.000000 C-311.428571 X41.002266 Y-279.750000 Z-356.388613 E7.204008004230767860 F1.000000
; T08 POINT 300 point-0000300 deposition
G1 A-90.000000 C-312.000000 X44.678769 Y-279.750000 Z-355.960875 E7.225686269094372310 F1.000000
; T08 POINT 301 point-0000301 deposition
G1 A-90.000000 C-312.571429 X48.350827 Y-279.750000 Z-355.497437 E7.247364533957971380 F1.000000
; T08 POINT 302 point-0000302 deposition
G1 A-90.000000 C-313.714286 X55.570899 Y-279.750000 Z-354.461803 E7.268006172520443657 F1.000000
; T08 POINT 303 point-0000303 deposition
G1 A-90.000000 C-314.857143 X62.768877 Y-279.750000 Z-353.282170 E7.288647617518371621 F1.000000
; T08 POINT 304 point-0000304 deposition
G1 A-90.000000 C-316.000000 X69.941894 Y-279.750000 Z-351.959007 E7.309288920565564211 F1.000000
; T08 POINT 305 point-0000305 deposition
G1 A-90.000000 C-317.142857 X77.087092 Y-279.750000 Z-350.492841 E7.329930133278948523 F1.000000
; T08 POINT 306 point-0000306 deposition
G1 A-90.000000 C-318.285714 X84.201623 Y-279.750000 Z-348.884255 E7.350571307277483383 F1.000000
; T08 POINT 307 point-0000307 deposition
G1 A-90.000000 C-319.428571 X91.282653 Y-279.750000 Z-347.133889 E7.371212494180995956 F1.000000
; T08 POINT 308 point-0000308 deposition
G1 A-90.000000 C-320.571429 X98.327361 Y-279.750000 Z-345.242440 E7.391853745609016772 F1.000000
; T08 POINT 309 point-0000309 deposition
G1 A-90.000000 C-321.714286 X105.332939 Y-279.750000 Z-343.210659 E7.412495113179623279 F1.000000
; T08 POINT 310 point-0000310 deposition
G1 A-90.000000 C-322.857143 X112.296597 Y-279.750000 Z-341.039355 E7.433136648508352724 F1.000000
; T08 POINT 311 point-0000311 deposition
G1 A-90.000000 C-323.726706 X117.591356 Y-279.750000 Z-339.294170 E7.454274086538831709 F1.000000
; T08 POINT 312 point-0000312 deposition
G1 A-90.000000 C-324.273294 X120.946321 Y-279.750000 Z-338.156366 E7.475997395426401081 F1.000000
; T08 POINT 313 point-0000313 deposition
G1 A-90.000000 C-325.142857 X126.196342 Y-279.750000 Z-336.281596 E7.497134833456890575 F1.000000
; T08 POINT 314 point-0000314 deposition
G1 A-90.000000 C-326.285714 X133.017662 Y-279.750000 Z-333.697034 E7.517776368785604845 F1.000000
; T08 POINT 315 point-0000315 deposition
G1 A-90.000000 C-327.428571 X139.786074 Y-279.750000 Z-330.976733 E7.538417736356214967 F1.000000
; T08 POINT 316 point-0000316 deposition
G1 A-90.000000 C-328.571429 X146.498880 Y-279.750000 Z-328.121778 E7.559058987784237607 F1.000000
; T08 POINT 317 point-0000317 deposition
G1 A-90.000000 C-329.714286 X153.153407 Y-279.750000 Z-325.133302 E7.579700174687751267 F1.000000
; T08 POINT 318 point-0000318 deposition
G1 A-90.000000 C-330.857143 X159.747002 Y-279.750000 Z-322.012496 E7.600341348686284723 F1.000000
; T08 POINT 319 point-0000319 deposition
G1 A-90.000000 C-332.000000 X166.277038 Y-279.750000 Z-318.760601 E7.620982561399671243 F1.000000
; T08 POINT 320 point-0000320 deposition
G1 A-90.000000 C-333.142857 X172.740912 Y-279.750000 Z-315.378912 E7.641623864446861370 F1.000000
; T08 POINT 321 point-0000321 deposition
G1 A-90.000000 C-334.285714 X179.136049 Y-279.750000 Z-311.868772 E7.662265309444793636 F1.000000
; T08 POINT 322 point-0000322 deposition
G1 A-90.000000 C-335.428571 X185.459901 Y-279.750000 Z-308.231579 E7.682906948007261313 F1.000000
; T08 POINT 323 point-0000323 deposition
G1 A-90.000000 C-336.000000 X188.648942 Y-279.750000 Z-306.365539 E7.704585212870861327 F1.000000
; T08 POINT 324 point-0000324 deposition
G1 A-90.000000 C-336.571429 X191.819219 Y-279.750000 Z-304.468732 E7.726263477734456797 F1.000000
; T08 POINT 325 point-0000325 deposition
G1 A-90.000000 C-337.714286 X197.992969 Y-279.750000 Z-300.581730 E7.746905116296932735 F1.000000
; T08 POINT 326 point-0000326 deposition
G1 A-90.000000 C-338.857143 X204.087961 Y-279.750000 Z-296.572164 E7.767546561294864589 F1.000000
; T08 POINT 327 point-0000327 deposition
G1 A-90.000000 C-340.000000 X210.101768 Y-279.750000 Z-292.441632 E7.788187864342052479 F1.000000
; T08 POINT 328 point-0000328 deposition
G1 A-90.000000 C-341.142857 X216.031992 Y-279.750000 Z-288.191775 E7.808829077055434169 F1.000000
; T08 POINT 329 point-0000329 deposition
G1 A-90.000000 C-342.285714 X221.876270 Y-279.750000 Z-283.824285 E7.829470251053974495 F1.000000
; T08 POINT 330 point-0000330 deposition
G1 A-90.000000 C-343.428571 X227.632272 Y-279.750000 Z-279.340899 E7.850111437957491453 F1.000000
; T08 POINT 331 point-0000331 deposition
G1 A-90.000000 C-344.571429 X233.297705 Y-279.750000 Z-274.743402 E7.870752689385504753 F1.000000
; T08 POINT 332 point-0000332 deposition
G1 A-90.000000 C-345.714286 X238.870310 Y-279.750000 Z-270.033621 E7.891394056956114327 F1.000000
; T08 POINT 333 point-0000333 deposition
G1 A-90.000000 C-346.857143 X244.347866 Y-279.750000 Z-265.213432 E7.912035592284832819 F1.000000
; T08 POINT 334 point-0000334 deposition
G1 A-90.000000 C-347.726706 X248.476672 Y-279.750000 Z-261.472949 E7.933173030315321637 F1.000000
; T08 POINT 335 point-0000335 deposition
G1 A-90.000000 C-348.273294 X251.083296 Y-279.750000 Z-259.090090 E7.954896339202890010 F1.000000
; T08 POINT 336 point-0000336 deposition
G1 A-90.000000 C-349.142857 X255.118407 Y-279.750000 Z-255.249447 E7.976033777233383116 F1.000000
; T08 POINT 337 point-0000337 deposition
G1 A-90.000000 C-350.285714 X260.297871 Y-279.750000 Z-250.109615 E7.996675312562092536 F1.000000
; T08 POINT 338 point-0000338 deposition
G1 A-90.000000 C-351.428571 X265.373788 Y-279.750000 Z-244.867301 E8.017316680132715082 F1.000000
; T08 POINT 339 point-0000339 deposition
G1 A-90.000000 C-352.571429 X270.344133 Y-279.750000 Z-239.524590 E8.037957931560725139 F1.000000
; T08 POINT 340 point-0000340 deposition
G1 A-90.000000 C-353.714286 X275.206926 Y-279.750000 Z-234.083609 E8.058599118464235196 F1.000000
; T08 POINT 341 point-0000341 deposition
G1 A-90.000000 C-354.857143 X279.960228 Y-279.750000 Z-228.546521 E8.079240292462774262 F1.000000
; T08 POINT 342 point-0000342 deposition
G1 A-90.000000 C-356.000000 X284.602143 Y-279.750000 Z-222.915531 E8.099881505176160157 F1.000000
; T08 POINT 343 point-0000343 deposition
G1 A-90.000000 C-357.142857 X289.130821 Y-279.750000 Z-217.192878 E8.120522808223352310 F1.000000
; T08 POINT 344 point-0000344 deposition
G1 A-90.000000 C-358.285714 X293.544456 Y-279.750000 Z-211.380838 E8.141164253221280146 F1.000000
; T08 POINT 345 point-0000345 deposition
G1 A-90.000000 C-359.428571 X297.841287 Y-279.750000 Z-205.481726 E8.161805891783750071 F1.000000
; T08 POINT 346 point-0000346 deposition
G1 A-90.000000 C-360.000000 X300.000000 Y-279.750000 Z-202.500000 E8.183484156647351391 F1.000000
M400 ; finish queued motion
M2
