; 5AxisSclicer paper-core AC offline review program
; CONTROLLER_PROFILE {"axis_mode":"absolute","controller_family":"custom-klipper-derived","controller_version":null,"coordinated_xyzac_verified":false,"cutter_relative_z_mm":20.0,"extrusion_mode":"relative","feed_mode":"units_per_minute","machine_executable":false,"machine_profile_id":"builtin.machine.own_ac_fdm.v1","macro_version":null,"maximum_cumulative_c_rad":null,"profile_id":"builtin.controller.own_ac.offline.v1","qualification_issues":["controller.version_unknown","controller.macros_unverified","controller.xyzac_coordination_unverified","controller.cumulative_c_limit_unknown"],"reorientation_absolute_z_mm":20.0,"schema_version":1}
; EXECUTION_QUALIFICATION offline_only
G21 ; millimetres
G90 ; absolute machine axes
M83 ; relative extrusion
G94 ; units per minute
G92 E0 ; explicit extrusion origin
; PAC POINT 1 point-0000001 approach - -
G1 A-3.703242 C-47.901536 X73.763490 Y3.667891 Z59.756136 F3000.000000
; PAC EVENT material-0001-retract retract
; PAC EVENT_CONTEXT {"channel_id":"T0","extrusion_length_mm":-1.0,"material_id":"PLA","material_plan_id":"fan_blade-materials","sensor_required":true,"sequence_index":1,"tool_command":"T0"}
G1 E-1.000000000000 F900.000000
; PAC EVENT material-0001-cut cut
; PAC EVENT_CONTEXT {"channel_id":"T0","material_id":"PLA","material_plan_id":"fan_blade-materials","sensor_required":true,"sequence_index":1,"tool_command":"T0"}
M98 P100 ; OFFLINE _5AXIS_CUT macro semantic
; PAC EVENT material-0001-park park
; PAC EVENT_CONTEXT {"channel_id":"T0","material_id":"PLA","material_plan_id":"fan_blade-materials","sensor_required":true,"sequence_index":1,"tool_command":"T0"}
G91
G1 Z20.000000 F900.000000
G90
; PAC EVENT material-0001-switch switch
; PAC EVENT_CONTEXT {"channel_id":"T0","material_id":"PLA","material_plan_id":"fan_blade-materials","sensor_required":true,"sequence_index":1,"tool_command":"T0"}
T0
; PAC EVENT material-0001-load load
; PAC EVENT_CONTEXT {"channel_id":"T0","extrusion_length_mm":0.0,"material_id":"PLA","material_plan_id":"fan_blade-materials","sensor_required":true,"sequence_index":1,"tool_command":"T0"}
G1 E0.000000000000 F900.000000
; PAC EVENT material-0001-temperature_wait temperature_wait
; PAC EVENT_CONTEXT {"channel_id":"T0","material_id":"PLA","material_plan_id":"fan_blade-materials","sensor_required":true,"sequence_index":1,"target_temperature_c":195.0,"timeout_s":180.0,"tool_command":"T0"}
M109 S195.000
; PAC EVENT material-0001-purge purge
; PAC EVENT_CONTEXT {"channel_id":"T0","extrusion_length_mm":5.0,"material_id":"PLA","material_plan_id":"fan_blade-materials","sensor_required":true,"sequence_index":1,"tool_command":"T0"}
G1 E5.000000000000 F900.000000
; PAC EVENT material-0001-prime prime
; PAC EVENT_CONTEXT {"channel_id":"T0","extrusion_length_mm":1.0,"material_id":"PLA","material_plan_id":"fan_blade-materials","sensor_required":true,"sequence_index":1,"tool_command":"T0"}
G1 E1.000000000000 F900.000000
; PAC EVENT material-0001-resume resume
; PAC EVENT_CONTEXT {"channel_id":"T0","material_id":"PLA","material_plan_id":"fan_blade-materials","sensor_required":true,"sequence_index":1,"tool_command":"T0"}
M98 P101 ; OFFLINE _5AXIS_RESUME macro semantic
; PAC EVENT event-0000001 prime
; PAC EVENT_CONTEXT {"extrusion_length_mm":1.0,"sequence_index":1}
G1 E1.000000000000 F900.000000
; PAC POINT 2 point-0000002 deposition PLA T0
G1 A-3.649234 C-45.755828 X74.867761 Y3.601617 Z59.581123 E0.099738053603 F900.000000
; PAC POINT 3 point-0000003 deposition PLA T0
G1 A-3.599552 C-43.620688 X75.909107 Y3.542210 Z59.406633 E0.099738103147 F900.000000
; PAC POINT 4 point-0000004 deposition PLA T0
G1 A-3.554030 C-41.495277 X76.886254 Y3.489020 Z59.232630 E0.099738024910 F900.000000
; PAC POINT 5 point-0000005 deposition PLA T0
G1 A-3.512492 C-39.378941 X77.798153 Y3.441284 Z59.059089 E0.099738076105 F900.000000
; PAC POINT 6 point-0000006 deposition PLA T0
G1 A-3.474748 C-37.271187 X78.643959 Y3.398134 Z58.885997 E0.099738064143 F900.000000
; PAC POINT 7 point-0000007 deposition PLA T0
G1 A-3.440635 C-35.171591 X79.422682 Y3.358636 Z58.713341 E0.099738062684 F900.000000
; PAC POINT 8 point-0000008 deposition PLA T0
G1 A-3.410058 C-33.079772 X80.133636 Y3.321988 Z58.541103 E0.099738078493 F900.000000
; PAC POINT 9 point-0000009 deposition PLA T0
G1 A-3.382900 C-30.994953 X80.776045 Y3.287939 Z58.369233 E0.099738053149 F900.000000
; PAC POINT 10 point-0000010 deposition PLA T0
G1 A-3.359057 C-28.916323 X81.349250 Y3.256380 Z58.197671 E0.099738071442 F900.000000
; PAC POINT 11 point-0000011 deposition PLA T0
G1 A-3.338417 C-26.843096 X81.852690 Y3.227230 Z58.026364 E0.099738070217 F900.000000
; PAC POINT 12 point-0000012 deposition PLA T0
G1 A-3.320864 C-24.774485 X82.285707 Y3.200442 Z57.855255 E0.099738038530 F900.000000
; PAC POINT 13 point-0000013 deposition PLA T0
G1 A-3.306320 C-22.709747 X82.648017 Y3.176025 Z57.684293 E0.099738095072 F900.000000
; PAC POINT 14 point-0000014 deposition PLA T0
G1 A-3.294719 C-20.648188 X82.939414 Y3.153980 Z57.513424 E0.099738074232 F900.000000
; PAC POINT 15 point-0000015 deposition PLA T0
G1 A-3.286002 C-18.589097 X83.159526 Y3.134339 Z57.342597 E0.099738101265 F900.000000
; PAC POINT 16 point-0000016 deposition PLA T0
G1 A-3.280155 C-16.531781 X83.308118 Y3.117185 Z57.171757 E0.099738041024 F900.000000
; PAC POINT 17 point-0000017 deposition PLA T0
G1 A-3.277164 C-14.475546 X83.384747 Y3.102606 Z57.000850 E0.099738065310 F900.000000
; PAC POINT 18 point-0000018 deposition PLA T0
G1 A-3.276985 C-12.419725 X83.389612 Y3.090658 Z56.829823 E0.099738093213 F900.000000
; PAC POINT 19 point-0000019 deposition PLA T0
G1 A-3.279614 C-10.363646 X83.322758 Y3.081437 Z56.658623 E0.099738058760 F900.000000
; PAC POINT 20 point-0000020 deposition PLA T0
G1 A-3.285058 C-8.306626 X83.184190 Y3.075066 Z56.487195 E0.099738102358 F900.000000
; PAC POINT 21 point-0000021 deposition PLA T0
G1 A-3.293351 C-6.247971 X82.974137 Y3.071693 Z56.315480 E0.099738060005 F900.000000
; PAC POINT 22 point-0000022 deposition PLA T0
G1 A-3.304558 C-4.186993 X82.692557 Y3.071492 Z56.143417 E0.099738065313 F900.000000
; PAC POINT 23 point-0000023 deposition PLA T0
G1 A-3.318721 C-2.122971 X82.339914 Y3.074599 Z55.970942 E0.099738085835 F900.000000
; PAC POINT 24 point-0000024 deposition PLA T0
G1 A-3.335877 C-0.055182 X81.916574 Y3.081140 Z55.797993 E0.099738067105 F900.000000
; PAC POINT 25 point-0000025 deposition PLA T0
G1 A-3.356121 C2.017242 X81.423055 Y3.091444 Z55.624490 E0.099738121247 F900.000000
; PAC POINT 26 point-0000026 deposition PLA T0
G1 A-3.379514 C4.095206 X80.859882 Y3.105815 Z55.450351 E0.099738059123 F900.000000
; PAC POINT 27 point-0000027 deposition PLA T0
G1 A-3.406170 C6.179057 X80.227292 Y3.123837 Z55.275539 E0.099738060339 F900.000000
; PAC POINT 28 point-0000028 deposition PLA T0
G1 A-3.436204 C8.269235 X79.526105 Y3.145076 Z55.100009 E0.099738084863 F900.000000
; PAC POINT 29 point-0000029 deposition PLA T0
G1 A-3.469724 C10.366244 X78.757206 Y3.169125 Z54.923708 E0.099738104686 F900.000000
; PAC POINT 30 point-0000030 deposition PLA T0
G1 A-3.506829 C12.470660 X77.921509 Y3.195614 Z54.746583 E0.099738138315 F900.000000
; PAC POINT 31 point-0000031 deposition PLA T0
G1 A-3.547617 C14.582806 X77.019763 Y3.223835 Z54.568602 E0.099738050227 F900.000000
; PAC POINT 32 point-0000032 deposition PLA T0
G1 A-3.592317 C16.703036 X76.052602 Y3.253253 Z54.389727 E0.099738087726 F900.000000
; PAC POINT 33 point-0000033 deposition PLA T0
G1 A-3.641184 C18.832518 X75.021334 Y3.284163 Z54.209847 E0.099738114679 F900.000000
; PAC POINT 34 point-0000034 deposition PLA T0
G1 A-3.694482 C20.972429 X73.926989 Y3.316889 Z54.028848 E0.099738061989 F900.000000
; PAC POINT 35 point-0000035 deposition PLA T0
G1 A-3.752461 C23.124079 X72.770738 Y3.351746 Z53.846604 E0.099738130546 F900.000000
; PAC POINT 36 point-0000036 deposition PLA T0
G1 A-3.815369 C25.288947 X71.553985 Y3.389053 Z53.662978 E0.099738100779 F900.000000
; PAC POINT 37 point-0000037 deposition PLA T0
G1 A-3.883579 C27.468626 X70.277772 Y3.429392 Z53.477813 E0.099738100204 F900.000000
; PAC POINT 38 point-0000038 deposition PLA T0
G1 A-3.957263 C29.665092 X68.943852 Y3.473136 Z53.290937 E0.099738149567 F900.000000
; PAC POINT 39 point-0000039 deposition PLA T0
G1 A-4.036645 C31.880205 X67.553490 Y3.520608 Z53.102191 E0.099738032975 F900.000000
; PAC POINT 40 point-0000040 deposition PLA T0
G1 A-4.121897 C34.116132 X66.108314 Y3.572044 Z52.911405 E0.099738183706 F900.000000
; PAC POINT 41 point-0000041 deposition PLA T0
G1 A-4.213126 C36.375357 X64.610282 Y3.627571 Z52.718401 E0.099738101897 F900.000000
; PAC EVENT event-0000002 retract
; PAC EVENT_CONTEXT {"extrusion_length_mm":-1.0,"sequence_index":41}
G1 E-1.000000000000 F3000.000000
; PAC POINT 42 point-0000042 travel - -
G1 A4.213126 C-23.624643 X-64.610282 Y-3.627571 Z52.718401 F3000.000000
; PAC EVENT material-0002-retract retract
; PAC EVENT_CONTEXT {"channel_id":"T1","extrusion_length_mm":-1.0,"material_id":"PETG","material_plan_id":"fan_blade-materials","sensor_required":true,"sequence_index":42,"tool_command":"T1"}
G1 E-1.000000000000 F900.000000
; PAC EVENT material-0002-cut cut
; PAC EVENT_CONTEXT {"channel_id":"T1","material_id":"PETG","material_plan_id":"fan_blade-materials","sensor_required":true,"sequence_index":42,"tool_command":"T1"}
M98 P100 ; OFFLINE _5AXIS_CUT macro semantic
; PAC EVENT material-0002-park park
; PAC EVENT_CONTEXT {"channel_id":"T1","material_id":"PETG","material_plan_id":"fan_blade-materials","sensor_required":true,"sequence_index":42,"tool_command":"T1"}
G91
G1 Z20.000000 F900.000000
G90
; PAC EVENT material-0002-switch switch
; PAC EVENT_CONTEXT {"channel_id":"T1","material_id":"PETG","material_plan_id":"fan_blade-materials","sensor_required":true,"sequence_index":42,"tool_command":"T1"}
T1
; PAC EVENT material-0002-load load
; PAC EVENT_CONTEXT {"channel_id":"T1","extrusion_length_mm":0.0,"material_id":"PETG","material_plan_id":"fan_blade-materials","sensor_required":true,"sequence_index":42,"tool_command":"T1"}
G1 E0.000000000000 F900.000000
; PAC EVENT material-0002-temperature_wait temperature_wait
; PAC EVENT_CONTEXT {"channel_id":"T1","material_id":"PETG","material_plan_id":"fan_blade-materials","sensor_required":true,"sequence_index":42,"target_temperature_c":235.0,"timeout_s":180.0,"tool_command":"T1"}
M109 S235.000
; PAC EVENT material-0002-purge purge
; PAC EVENT_CONTEXT {"channel_id":"T1","extrusion_length_mm":6.0,"material_id":"PETG","material_plan_id":"fan_blade-materials","sensor_required":true,"sequence_index":42,"tool_command":"T1"}
G1 E6.000000000000 F900.000000
; PAC EVENT material-0002-prime prime
; PAC EVENT_CONTEXT {"channel_id":"T1","extrusion_length_mm":1.0,"material_id":"PETG","material_plan_id":"fan_blade-materials","sensor_required":true,"sequence_index":42,"tool_command":"T1"}
G1 E1.000000000000 F900.000000
; PAC EVENT material-0002-resume resume
; PAC EVENT_CONTEXT {"channel_id":"T1","material_id":"PETG","material_plan_id":"fan_blade-materials","sensor_required":true,"sequence_index":42,"tool_command":"T1"}
M98 P101 ; OFFLINE _5AXIS_RESUME macro semantic
; PAC EVENT event-0000003 prime
; PAC EVENT_CONTEXT {"extrusion_length_mm":1.0,"sequence_index":42}
G1 E1.000000000000 F900.000000
; PAC POINT 43 point-0000043 deposition PETG T1
G1 A4.121897 C-25.883868 X-66.108314 Y-3.572044 Z52.911405 E0.099738101897 F900.000000
; PAC POINT 44 point-0000044 deposition PETG T1
G1 A4.036645 C-28.119795 X-67.553490 Y-3.520608 Z53.102191 E0.099738183706 F900.000000
; PAC POINT 45 point-0000045 deposition PETG T1
G1 A3.957263 C-30.334908 X-68.943852 Y-3.473136 Z53.290937 E0.099738032975 F900.000000
; PAC POINT 46 point-0000046 deposition PETG T1
G1 A3.883579 C-32.531374 X-70.277772 Y-3.429392 Z53.477813 E0.099738149567 F900.000000
; PAC POINT 47 point-0000047 deposition PETG T1
G1 A3.815369 C-34.711053 X-71.553985 Y-3.389053 Z53.662978 E0.099738100204 F900.000000
; PAC POINT 48 point-0000048 deposition PETG T1
G1 A3.752461 C-36.875921 X-72.770738 Y-3.351746 Z53.846604 E0.099738100779 F900.000000
; PAC POINT 49 point-0000049 deposition PETG T1
G1 A3.694482 C-39.027571 X-73.926989 Y-3.316889 Z54.028848 E0.099738130546 F900.000000
; PAC POINT 50 point-0000050 deposition PETG T1
G1 A3.641184 C-41.167482 X-75.021334 Y-3.284163 Z54.209847 E0.099738061989 F900.000000
; PAC POINT 51 point-0000051 deposition PETG T1
G1 A3.592317 C-43.296964 X-76.052602 Y-3.253253 Z54.389727 E0.099738114679 F900.000000
; PAC POINT 52 point-0000052 deposition PETG T1
G1 A3.547617 C-45.417194 X-77.019763 Y-3.223835 Z54.568602 E0.099738087726 F900.000000
; PAC POINT 53 point-0000053 deposition PETG T1
G1 A3.506829 C-47.529340 X-77.921509 Y-3.195614 Z54.746583 E0.099738050227 F900.000000
; PAC POINT 54 point-0000054 deposition PETG T1
G1 A3.469724 C-49.633756 X-78.757206 Y-3.169125 Z54.923708 E0.099738138315 F900.000000
; PAC POINT 55 point-0000055 deposition PETG T1
G1 A3.436204 C-51.730765 X-79.526105 Y-3.145076 Z55.100009 E0.099738104686 F900.000000
; PAC POINT 56 point-0000056 deposition PETG T1
G1 A3.406170 C-53.820943 X-80.227292 Y-3.123837 Z55.275539 E0.099738084863 F900.000000
; PAC POINT 57 point-0000057 deposition PETG T1
G1 A3.379514 C-55.904794 X-80.859882 Y-3.105815 Z55.450351 E0.099738060339 F900.000000
; PAC POINT 58 point-0000058 deposition PETG T1
G1 A3.356121 C-57.982758 X-81.423055 Y-3.091444 Z55.624490 E0.099738059123 F900.000000
; PAC POINT 59 point-0000059 deposition PETG T1
G1 A3.335877 C-60.055182 X-81.916574 Y-3.081140 Z55.797993 E0.099738121247 F900.000000
; PAC POINT 60 point-0000060 deposition PETG T1
G1 A3.318721 C-62.122971 X-82.339914 Y-3.074599 Z55.970942 E0.099738067105 F900.000000
; PAC POINT 61 point-0000061 deposition PETG T1
G1 A3.304558 C-64.186993 X-82.692557 Y-3.071492 Z56.143417 E0.099738085835 F900.000000
; PAC POINT 62 point-0000062 deposition PETG T1
G1 A3.293351 C-66.247971 X-82.974137 Y-3.071693 Z56.315480 E0.099738065313 F900.000000
; PAC POINT 63 point-0000063 deposition PETG T1
G1 A3.285058 C-68.306626 X-83.184190 Y-3.075066 Z56.487195 E0.099738060005 F900.000000
; PAC POINT 64 point-0000064 deposition PETG T1
G1 A3.279614 C-70.363646 X-83.322758 Y-3.081437 Z56.658623 E0.099738102358 F900.000000
; PAC POINT 65 point-0000065 deposition PETG T1
G1 A3.276985 C-72.419725 X-83.389612 Y-3.090658 Z56.829823 E0.099738058760 F900.000000
; PAC POINT 66 point-0000066 deposition PETG T1
G1 A3.277164 C-74.475546 X-83.384747 Y-3.102606 Z57.000850 E0.099738093213 F900.000000
; PAC POINT 67 point-0000067 deposition PETG T1
G1 A3.280155 C-76.531781 X-83.308118 Y-3.117185 Z57.171757 E0.099738065310 F900.000000
; PAC POINT 68 point-0000068 deposition PETG T1
G1 A3.286002 C-78.589097 X-83.159526 Y-3.134339 Z57.342597 E0.099738041024 F900.000000
; PAC POINT 69 point-0000069 deposition PETG T1
G1 A3.294719 C-80.648188 X-82.939414 Y-3.153980 Z57.513424 E0.099738101265 F900.000000
; PAC POINT 70 point-0000070 deposition PETG T1
G1 A3.306320 C-82.709747 X-82.648017 Y-3.176025 Z57.684293 E0.099738074232 F900.000000
; PAC POINT 71 point-0000071 deposition PETG T1
G1 A3.320864 C-84.774485 X-82.285707 Y-3.200442 Z57.855255 E0.099738095072 F900.000000
; PAC POINT 72 point-0000072 deposition PETG T1
G1 A3.338417 C-86.843096 X-81.852690 Y-3.227230 Z58.026364 E0.099738038530 F900.000000
; PAC POINT 73 point-0000073 deposition PETG T1
G1 A3.359057 C-88.916323 X-81.349250 Y-3.256380 Z58.197671 E0.099738070217 F900.000000
; PAC POINT 74 point-0000074 deposition PETG T1
G1 A3.382900 C-90.994953 X-80.776045 Y-3.287939 Z58.369233 E0.099738071442 F900.000000
; PAC POINT 75 point-0000075 deposition PETG T1
G1 A3.410058 C-93.079772 X-80.133636 Y-3.321988 Z58.541103 E0.099738053149 F900.000000
; PAC POINT 76 point-0000076 deposition PETG T1
G1 A3.440635 C-95.171591 X-79.422682 Y-3.358636 Z58.713341 E0.099738078493 F900.000000
; PAC POINT 77 point-0000077 deposition PETG T1
G1 A3.474748 C-97.271187 X-78.643959 Y-3.398134 Z58.885997 E0.099738062684 F900.000000
; PAC POINT 78 point-0000078 deposition PETG T1
G1 A3.512492 C-99.378941 X-77.798153 Y-3.441284 Z59.059089 E0.099738064143 F900.000000
; PAC POINT 79 point-0000079 deposition PETG T1
G1 A3.554030 C-101.495277 X-76.886254 Y-3.489020 Z59.232630 E0.099738076105 F900.000000
; PAC POINT 80 point-0000080 deposition PETG T1
G1 A3.599552 C-103.620688 X-75.909107 Y-3.542210 Z59.406633 E0.099738024910 F900.000000
; PAC POINT 81 point-0000081 deposition PETG T1
G1 A3.649234 C-105.755828 X-74.867761 Y-3.601617 Z59.581123 E0.099738103147 F900.000000
; PAC POINT 82 point-0000082 deposition PETG T1
G1 A3.703242 C-107.901536 X-73.763490 Y-3.667891 Z59.756136 E0.099738053603 F900.000000
; PAC EVENT event-0000004 retract
; PAC EVENT_CONTEXT {"extrusion_length_mm":-1.0,"sequence_index":82}
G1 E-1.000000000000 F3000.000000
; PAC POINT 83 point-0000083 travel - -
G1 A-3.703242 C-167.901536 X73.763490 Y3.667891 Z59.756136 F3000.000000
; PAC EVENT material-0003-prepare_pause prepare_pause
; PAC EVENT_CONTEXT {"channel_id":"T2","material_id":"PA","material_plan_id":"fan_blade-materials","sensor_required":true,"sequence_index":83,"tool_command":"T2"}
M0 ; operator material preparation
; PAC EVENT material-0003-retract retract
; PAC EVENT_CONTEXT {"channel_id":"T2","extrusion_length_mm":-1.0,"material_id":"PA","material_plan_id":"fan_blade-materials","sensor_required":true,"sequence_index":83,"tool_command":"T2"}
G1 E-1.000000000000 F900.000000
; PAC EVENT material-0003-cut cut
; PAC EVENT_CONTEXT {"channel_id":"T2","material_id":"PA","material_plan_id":"fan_blade-materials","sensor_required":true,"sequence_index":83,"tool_command":"T2"}
M98 P100 ; OFFLINE _5AXIS_CUT macro semantic
; PAC EVENT material-0003-park park
; PAC EVENT_CONTEXT {"channel_id":"T2","material_id":"PA","material_plan_id":"fan_blade-materials","sensor_required":true,"sequence_index":83,"tool_command":"T2"}
G91
G1 Z20.000000 F900.000000
G90
; PAC EVENT material-0003-switch switch
; PAC EVENT_CONTEXT {"channel_id":"T2","material_id":"PA","material_plan_id":"fan_blade-materials","sensor_required":true,"sequence_index":83,"tool_command":"T2"}
T2
; PAC EVENT material-0003-load load
; PAC EVENT_CONTEXT {"channel_id":"T2","extrusion_length_mm":0.0,"material_id":"PA","material_plan_id":"fan_blade-materials","sensor_required":true,"sequence_index":83,"tool_command":"T2"}
G1 E0.000000000000 F900.000000
; PAC EVENT material-0003-temperature_wait temperature_wait
; PAC EVENT_CONTEXT {"channel_id":"T2","material_id":"PA","material_plan_id":"fan_blade-materials","sensor_required":true,"sequence_index":83,"target_temperature_c":275.0,"timeout_s":180.0,"tool_command":"T2"}
M109 S275.000
; PAC EVENT material-0003-purge purge
; PAC EVENT_CONTEXT {"channel_id":"T2","extrusion_length_mm":7.0,"material_id":"PA","material_plan_id":"fan_blade-materials","sensor_required":true,"sequence_index":83,"tool_command":"T2"}
G1 E7.000000000000 F900.000000
; PAC EVENT material-0003-prime prime
; PAC EVENT_CONTEXT {"channel_id":"T2","extrusion_length_mm":1.0,"material_id":"PA","material_plan_id":"fan_blade-materials","sensor_required":true,"sequence_index":83,"tool_command":"T2"}
G1 E1.000000000000 F900.000000
; PAC EVENT material-0003-resume resume
; PAC EVENT_CONTEXT {"channel_id":"T2","material_id":"PA","material_plan_id":"fan_blade-materials","sensor_required":true,"sequence_index":83,"tool_command":"T2"}
M98 P101 ; OFFLINE _5AXIS_RESUME macro semantic
; PAC EVENT event-0000005 prime
; PAC EVENT_CONTEXT {"extrusion_length_mm":1.0,"sequence_index":83}
G1 E1.000000000000 F900.000000
; PAC POINT 84 point-0000084 deposition PA T2
G1 A-3.649234 C-165.755828 X74.867761 Y3.601617 Z59.581123 E0.099738053613 F900.000000
; PAC POINT 85 point-0000085 deposition PA T2
G1 A-3.599552 C-163.620688 X75.909107 Y3.542210 Z59.406633 E0.099738103157 F900.000000
; PAC POINT 86 point-0000086 deposition PA T2
G1 A-3.554030 C-161.495277 X76.886254 Y3.489020 Z59.232630 E0.099738024920 F900.000000
; PAC POINT 87 point-0000087 deposition PA T2
G1 A-3.512492 C-159.378941 X77.798153 Y3.441284 Z59.059089 E0.099738076114 F900.000000
; PAC POINT 88 point-0000088 deposition PA T2
G1 A-3.474748 C-157.271187 X78.643959 Y3.398134 Z58.885997 E0.099738064152 F900.000000
; PAC POINT 89 point-0000089 deposition PA T2
G1 A-3.440635 C-155.171591 X79.422682 Y3.358636 Z58.713341 E0.099738062694 F900.000000
; PAC POINT 90 point-0000090 deposition PA T2
G1 A-3.410058 C-153.079772 X80.133636 Y3.321988 Z58.541103 E0.099738078503 F900.000000
; PAC POINT 91 point-0000091 deposition PA T2
G1 A-3.382900 C-150.994953 X80.776045 Y3.287939 Z58.369233 E0.099738053233 F900.000000
; PAC POINT 92 point-0000092 deposition PA T2
G1 A-3.359057 C-148.916323 X81.349250 Y3.256380 Z58.197671 E0.099738071484 F900.000000
; PAC POINT 93 point-0000093 deposition PA T2
G1 A-3.338417 C-146.843096 X81.852690 Y3.227230 Z58.026364 E0.099738070227 F900.000000
; PAC POINT 94 point-0000094 deposition PA T2
G1 A-3.320864 C-144.774485 X82.285707 Y3.200442 Z57.855255 E0.099738038442 F900.000000
; PAC POINT 95 point-0000095 deposition PA T2
G1 A-3.306320 C-142.709747 X82.648017 Y3.176025 Z57.684293 E0.099738095087 F900.000000
; PAC POINT 96 point-0000096 deposition PA T2
G1 A-3.294719 C-140.648188 X82.939414 Y3.153980 Z57.513424 E0.099738074241 F900.000000
; PAC POINT 97 point-0000097 deposition PA T2
G1 A-3.286002 C-138.589097 X83.159526 Y3.134339 Z57.342597 E0.099738101274 F900.000000
; PAC POINT 98 point-0000098 deposition PA T2
G1 A-3.280155 C-136.531781 X83.308118 Y3.117185 Z57.171757 E0.099738041033 F900.000000
; PAC POINT 99 point-0000099 deposition PA T2
G1 A-3.277164 C-134.475546 X83.384747 Y3.102606 Z57.000850 E0.099738065319 F900.000000
; PAC POINT 100 point-0000100 deposition PA T2
G1 A-3.276985 C-132.419725 X83.389612 Y3.090658 Z56.829823 E0.099738093222 F900.000000
; PAC POINT 101 point-0000101 deposition PA T2
G1 A-3.279614 C-130.363646 X83.322758 Y3.081437 Z56.658623 E0.099738058769 F900.000000
; PAC POINT 102 point-0000102 deposition PA T2
G1 A-3.285058 C-128.306626 X83.184190 Y3.075066 Z56.487195 E0.099738102367 F900.000000
; PAC POINT 103 point-0000103 deposition PA T2
G1 A-3.293351 C-126.247971 X82.974137 Y3.071693 Z56.315480 E0.099738060014 F900.000000
; PAC POINT 104 point-0000104 deposition PA T2
G1 A-3.304558 C-124.186993 X82.692557 Y3.071492 Z56.143417 E0.099738065227 F900.000000
; PAC POINT 105 point-0000105 deposition PA T2
G1 A-3.318721 C-122.122971 X82.339914 Y3.074599 Z55.970942 E0.099738085851 F900.000000
; PAC POINT 106 point-0000106 deposition PA T2
G1 A-3.335877 C-120.055182 X81.916574 Y3.081140 Z55.797993 E0.099738067114 F900.000000
; PAC POINT 107 point-0000107 deposition PA T2
G1 A-3.356121 C-117.982758 X81.423055 Y3.091444 Z55.624490 E0.099738121256 F900.000000
; PAC POINT 108 point-0000108 deposition PA T2
G1 A-3.379514 C-115.904794 X80.859882 Y3.105815 Z55.450351 E0.099738059132 F900.000000
; PAC POINT 109 point-0000109 deposition PA T2
G1 A-3.406170 C-113.820943 X80.227292 Y3.123837 Z55.275539 E0.099738060256 F900.000000
; PAC POINT 110 point-0000110 deposition PA T2
G1 A-3.436204 C-111.730765 X79.526105 Y3.145076 Z55.100009 E0.099738084878 F900.000000
; PAC POINT 111 point-0000111 deposition PA T2
G1 A-3.469724 C-109.633756 X78.757206 Y3.169125 Z54.923708 E0.099738104695 F900.000000
; PAC POINT 112 point-0000112 deposition PA T2
G1 A-3.506829 C-107.529340 X77.921509 Y3.195614 Z54.746583 E0.099738138325 F900.000000
; PAC POINT 113 point-0000113 deposition PA T2
G1 A-3.547617 C-105.417194 X77.019763 Y3.223835 Z54.568602 E0.099738050237 F900.000000
; PAC POINT 114 point-0000114 deposition PA T2
G1 A-3.592317 C-103.296964 X76.052602 Y3.253253 Z54.389727 E0.099738087736 F900.000000
; PAC POINT 115 point-0000115 deposition PA T2
G1 A-3.641184 C-101.167482 X75.021334 Y3.284163 Z54.209847 E0.099738114689 F900.000000
; PAC POINT 116 point-0000116 deposition PA T2
G1 A-3.694482 C-99.027571 X73.926989 Y3.316889 Z54.028848 E0.099738061998 F900.000000
; PAC POINT 117 point-0000117 deposition PA T2
G1 A-3.752461 C-96.875921 X72.770738 Y3.351746 Z53.846604 E0.099738130556 F900.000000
; PAC POINT 118 point-0000118 deposition PA T2
G1 A-3.815369 C-94.711053 X71.553985 Y3.389053 Z53.662978 E0.099738100788 F900.000000
; PAC POINT 119 point-0000119 deposition PA T2
G1 A-3.883579 C-92.531374 X70.277772 Y3.429392 Z53.477813 E0.099738100214 F900.000000
; PAC POINT 120 point-0000120 deposition PA T2
G1 A-3.957263 C-90.334908 X68.943852 Y3.473136 Z53.290937 E0.099738149577 F900.000000
; PAC POINT 121 point-0000121 deposition PA T2
G1 A-4.036645 C-88.119795 X67.553490 Y3.520608 Z53.102191 E0.099738032984 F900.000000
; PAC POINT 122 point-0000122 deposition PA T2
G1 A-4.121897 C-85.883868 X66.108314 Y3.572044 Z52.911405 E0.099738183716 F900.000000
; PAC POINT 123 point-0000123 deposition PA T2
G1 A-4.213126 C-83.624643 X64.610282 Y3.627571 Z52.718401 E0.099738101906 F900.000000
G90 ; restore absolute axes
M83 ; restore relative extrusion
G94 ; restore units per minute
M400
M2
