; 5AxisSclicer R02 Rotary Spiral
; reference XYZAC profile; offline simulation only
G21 ; millimetres
G90 ; absolute axes
M82 ; absolute extrusion
G92 E0 ; known initial extrusion position
G93 ; inverse-time coordinated motion
; R02 POINT 1 point-0000001 travel
G1 A90.000000 C90.000000 X-230.000000 Y-255.000000 Z275.000000 F60.000000
; R02 EVENT event-0000001 safe_approach
; R02 POINT 2 point-0000002 approach
G1 A90.000000 C90.000000 X-230.000000 Y-255.000000 Z274.000000 F300.000000
; R02 EVENT event-0000002 index_start
; R02 EVENT event-0000003 prime
G94 ; extrusion actuator feed
G1 E1.0 F300.000000
G93 ; resume inverse-time motion
; R02 POINT 3 point-0000003 deposition
G1 A90.000000 C85.000000 X-206.464287 Y-255.111111 Z293.056442 E1.05252167536841377 F68.754935
; R02 POINT 4 point-0000004 deposition
G1 A90.000000 C80.000000 X-181.357257 Y-255.222222 Z309.989097 E1.10504335073682763 F68.754935
; R02 POINT 5 point-0000005 deposition
G1 A90.000000 C75.000000 X-154.869988 Y-255.333333 Z324.669095 E1.15756502610524135 F68.754935
; R02 POINT 6 point-0000006 deposition
G1 A90.000000 C70.000000 X-127.204066 Y-255.444444 Z336.984714 E1.21008670147365519 F68.754935
; R02 POINT 7 point-0000007 deposition
G1 A90.000000 C65.000000 X-98.570043 Y-255.555556 Z346.842225 E1.26260837684206900 F68.754935
; R02 POINT 8 point-0000008 deposition
G1 A90.000000 C60.000000 X-69.185843 Y-255.666667 Z354.166605 E1.315130052210482734 F68.754935
; R02 POINT 9 point-0000009 deposition
G1 A90.000000 C55.000000 X-39.275097 Y-255.777778 Z358.902112 E1.367651727578896574 F68.754935
; R02 POINT 10 point-0000010 deposition
G1 A90.000000 C50.000000 X-9.065443 Y-255.888889 Z361.012705 E1.420173402947310238 F68.754935
; R02 POINT 11 point-0000011 deposition
G1 A90.000000 C45.000000 X21.213203 Y-256.000000 Z360.482323 E1.472695078315724128 F68.754935
; R02 POINT 12 point-0000012 deposition
G1 A90.000000 C40.000000 X51.330405 Y-256.111111 Z357.315000 E1.525216753684137898 F68.754935
; R02 POINT 13 point-0000013 deposition
G1 A90.000000 C35.000000 X81.056951 Y-256.222222 Z351.534844 E1.577738429052551738 F68.754935
; R02 POINT 14 point-0000014 deposition
G1 A90.000000 C30.000000 X110.166605 Y-256.333333 Z343.185843 E1.630260104420965513 F68.754935
; R02 POINT 15 point-0000015 deposition
G1 A90.000000 C25.000000 X138.437824 Y-256.444444 Z332.331539 E1.682781779789379288 F68.754935
; R02 POINT 16 point-0000016 deposition
G1 A90.000000 C20.000000 X165.655448 Y-256.555556 Z319.054540 E1.735303455157793063 F68.754935
; R02 POINT 17 point-0000017 deposition
G1 A90.000000 C15.000000 X191.612334 Y-256.666667 Z303.455892 E1.787825130526206903 F68.754935
; R02 POINT 18 point-0000018 deposition
G1 A90.000000 C10.000000 X216.110935 Y-256.777778 Z285.654309 E1.840346805894620658 F68.754935
; R02 POINT 19 point-0000019 deposition
G1 A90.000000 C5.000000 X238.964801 Y-256.888889 Z265.785274 E1.892868481263034322 F68.754935
; R02 POINT 20 point-0000020 deposition
G1 A90.000000 C0.000000 X260.000000 Y-257.000000 Z244.000000 E1.945390156631448257 F68.754935
; R02 POINT 21 point-0000021 deposition
G1 A90.000000 C-5.000000 X279.056442 Y-257.111111 Z220.464287 E1.997911831999862117 F68.754935
; R02 POINT 22 point-0000022 deposition
G1 A90.000000 C-10.000000 X295.989097 Y-257.222222 Z195.357257 E2.050433507368275823 F68.754935
; R02 POINT 23 point-0000023 deposition
G1 A90.000000 C-15.000000 X310.669095 Y-257.333333 Z168.869988 E2.102955182736689703 F68.754935
; R02 POINT 24 point-0000024 deposition
G1 A90.000000 C-20.000000 X322.984714 Y-257.444444 Z141.204066 E2.155476858105103423 F68.754935
; R02 POINT 25 point-0000025 deposition
G1 A90.000000 C-25.000000 X332.842225 Y-257.555556 Z112.570043 E2.207998533473517157 F68.754935
; R02 POINT 26 point-0000026 deposition
G1 A90.000000 C-30.000000 X340.166605 Y-257.666667 Z83.185843 E2.260520208841930891 F68.754935
; R02 POINT 27 point-0000027 deposition
G1 A90.000000 C-35.000000 X344.902112 Y-257.777778 Z53.275097 E2.313041884210344591 F68.754935
; R02 POINT 28 point-0000028 deposition
G1 A90.000000 C-40.000000 X347.012705 Y-257.888889 Z23.065443 E2.365563559578758631 F68.754935
; R02 POINT 29 point-0000029 deposition
G1 A90.000000 C-45.000000 X346.482323 Y-258.000000 Z-7.213203 E2.418085234947172337 F68.754935
; R02 POINT 30 point-0000030 deposition
G1 A90.000000 C-50.000000 X343.315000 Y-258.111111 Z-37.330405 E2.470606910315586107 F68.754935
; R02 POINT 31 point-0000031 deposition
G1 A90.000000 C-55.000000 X337.534844 Y-258.222222 Z-67.056951 E2.523128585684000111 F68.754935
; R02 POINT 32 point-0000032 deposition
G1 A90.000000 C-60.000000 X329.185843 Y-258.333333 Z-96.166605 E2.575650261052413775 F68.754935
; R02 POINT 33 point-0000033 deposition
G1 A90.000000 C-65.000000 X318.331539 Y-258.444444 Z-124.437824 E2.628171936420827475 F68.754935
; R02 POINT 34 point-0000034 deposition
G1 A90.000000 C-70.000000 X305.054540 Y-258.555556 Z-151.655448 E2.680693611789241250 F68.754935
; R02 POINT 35 point-0000035 deposition
G1 A90.000000 C-75.000000 X289.455892 Y-258.666667 Z-177.612334 E2.733215287157654970 F68.754935
; R02 POINT 36 point-0000036 deposition
G1 A90.000000 C-80.000000 X271.654309 Y-258.777778 Z-202.110935 E2.785736962526068740 F68.754935
; R02 POINT 37 point-0000037 deposition
G1 A90.000000 C-85.000000 X251.785274 Y-258.888889 Z-224.964801 E2.838258637894482744 F68.754935
; R02 POINT 38 point-0000038 deposition
G1 A90.000000 C-90.000000 X230.000000 Y-259.000000 Z-246.000000 E2.890780313262896514 F68.754935
; R02 POINT 39 point-0000039 deposition
G1 A90.000000 C-95.000000 X206.464287 Y-259.111111 Z-265.056442 E2.943301988631310109 F68.754935
; R02 POINT 40 point-0000040 deposition
G1 A90.000000 C-100.000000 X181.357257 Y-259.222222 Z-281.989097 E2.995823663999724113 F68.754935
; R02 POINT 41 point-0000041 deposition
G1 A90.000000 C-105.000000 X154.869988 Y-259.333333 Z-296.669095 E3.048345339368137683 F68.754935
; R02 POINT 42 point-0000042 deposition
G1 A90.000000 C-110.000000 X127.204066 Y-259.444444 Z-308.984714 E3.100867014736551667 F68.754935
; R02 POINT 43 point-0000043 deposition
G1 A90.000000 C-115.000000 X98.570043 Y-259.555556 Z-318.842225 E3.153388690104965367 F68.754935
; R02 POINT 44 point-0000044 deposition
G1 A90.000000 C-120.000000 X69.185843 Y-259.666667 Z-326.166605 E3.205910365473379257 F68.754935
; R02 POINT 45 point-0000045 deposition
G1 A90.000000 C-125.000000 X39.275097 Y-259.777778 Z-330.902112 E3.258432040841792787 F68.754935
; R02 POINT 46 point-0000046 deposition
G1 A90.000000 C-130.000000 X9.065443 Y-259.888889 Z-333.012705 E3.310953716210206722 F68.754935
; R02 POINT 47 point-0000047 deposition
G1 A90.000000 C-135.000000 X-21.213203 Y-260.000000 Z-332.482323 E3.363475391578620492 F68.754935
; R02 POINT 48 point-0000048 deposition
G1 A90.000000 C-140.000000 X-51.330405 Y-260.111111 Z-329.315000 E3.415997066947034282 F68.754935
; R02 POINT 49 point-0000049 deposition
G1 A90.000000 C-145.000000 X-81.056951 Y-260.222222 Z-323.534844 E3.468518742315448002 F68.754935
; R02 POINT 50 point-0000050 deposition
G1 A90.000000 C-150.000000 X-110.166605 Y-260.333333 Z-315.185843 E3.521040417683861757 F68.754935
; R02 POINT 51 point-0000051 deposition
G1 A90.000000 C-155.000000 X-138.437824 Y-260.444444 Z-304.331539 E3.573562093052276067 F68.754935
; R02 POINT 52 point-0000052 deposition
G1 A90.000000 C-160.000000 X-165.655448 Y-260.555556 Z-291.054540 E3.626083768420689217 F68.754935
; R02 POINT 53 point-0000053 deposition
G1 A90.000000 C-165.000000 X-191.612334 Y-260.666667 Z-275.455892 E3.678605443789103527 F68.754935
; R02 POINT 54 point-0000054 deposition
G1 A90.000000 C-170.000000 X-216.110935 Y-260.777778 Z-257.654309 E3.731127119157517167 F68.754935
; R02 POINT 55 point-0000055 deposition
G1 A90.000000 C-175.000000 X-238.964801 Y-260.888889 Z-237.785274 E3.783648794525930937 F68.754935
; R02 POINT 56 point-0000056 deposition
G1 A90.000000 C-180.000000 X-260.000000 Y-261.000000 Z-216.000000 E3.836170469894344707 F68.754935
; R02 POINT 57 point-0000057 deposition
G1 A90.000000 C-185.000000 X-279.056442 Y-261.111111 Z-192.464287 E3.888692145262758377 F68.754935
; R02 POINT 58 point-0000058 deposition
G1 A90.000000 C-190.000000 X-295.989097 Y-261.222222 Z-167.357257 E3.941213820631172132 F68.754935
; R02 POINT 59 point-0000059 deposition
G1 A90.000000 C-195.000000 X-310.669095 Y-261.333333 Z-140.869988 E3.993735495999585887 F68.754935
; R02 POINT 60 point-0000060 deposition
G1 A90.000000 C-200.000000 X-322.984714 Y-261.444444 Z-113.204066 E4.046257171368000147 F68.754935
; R02 POINT 61 point-0000061 deposition
G1 A90.000000 C-205.000000 X-332.842225 Y-261.555556 Z-84.570043 E4.098778846736413327 F68.754935
; R02 POINT 62 point-0000062 deposition
G1 A90.000000 C-210.000000 X-340.166605 Y-261.666667 Z-55.185843 E4.151300522104827537 F68.754935
; R02 POINT 63 point-0000063 deposition
G1 A90.000000 C-215.000000 X-344.902112 Y-261.777778 Z-25.275097 E4.203822197473241377 F68.754935
; R02 POINT 64 point-0000064 deposition
G1 A90.000000 C-220.000000 X-347.012705 Y-261.888889 Z4.934557 E4.256343872841654957 F68.754935
; R02 POINT 65 point-0000065 deposition
G1 A90.000000 C-225.000000 X-346.482323 Y-262.000000 Z35.213203 E4.308865548210068781 F68.754935
; R02 POINT 66 point-0000066 deposition
G1 A90.000000 C-230.000000 X-343.315000 Y-262.111111 Z65.330405 E4.361387223578482361 F68.754935
; R02 POINT 67 point-0000067 deposition
G1 A90.000000 C-235.000000 X-337.534844 Y-262.222222 Z95.056951 E4.413908898946896296 F68.754935
; R02 POINT 68 point-0000068 deposition
G1 A90.000000 C-240.000000 X-329.185843 Y-262.333333 Z124.166605 E4.466430574315309891 F68.754935
; R02 POINT 69 point-0000069 deposition
G1 A90.000000 C-245.000000 X-318.331539 Y-262.444444 Z152.437824 E4.518952249683724201 F68.754935
; R02 POINT 70 point-0000070 deposition
G1 A90.000000 C-250.000000 X-305.054540 Y-262.555556 Z179.655448 E4.571473925052137541 F68.754935
; R02 POINT 71 point-0000071 deposition
G1 A90.000000 C-255.000000 X-289.455892 Y-262.666667 Z205.612334 E4.623995600420551711 F68.754935
; R02 POINT 72 point-0000072 deposition
G1 A90.000000 C-260.000000 X-271.654309 Y-262.777778 Z230.110935 E4.676517275788965431 F68.754935
; R02 POINT 73 point-0000073 deposition
G1 A90.000000 C-265.000000 X-251.785274 Y-262.888889 Z252.964801 E4.729038951157379101 F68.754935
; R02 POINT 74 point-0000074 deposition
G1 A90.000000 C-270.000000 X-230.000000 Y-263.000000 Z274.000000 E4.781560626525792871 F68.754935
; R02 EVENT event-0000004 index_end
; R02 EVENT event-0000005 retract
G94 ; extrusion actuator feed
G1 E3.781560626525792871 F300.000000
G93 ; resume inverse-time motion
; R02 EVENT event-0000006 safe_depart
; R02 POINT 75 point-0000075 depart
G1 A90.000000 C-270.000000 X-230.000000 Y-263.000000 Z275.000000 F300.000000
; R02 EVENT event-0000007 finish
G94 ; restore units-per-minute mode
M400 ; finish queued motion
M2
