; 5AxisSclicer R02 Rotary Spiral
; reference XYZAC profile; offline simulation only
G21 ; millimetres
G90 ; absolute axes
M82 ; absolute extrusion
G92 E0 ; known initial extrusion position
G93 ; inverse-time coordinated motion
; R02 POINT 1 point-0000001 travel
G1 A45.000000 C90.000000 X-230.000000 Y14.849242 Z377.473701 F60.000000
; R02 EVENT event-0000001 safe_approach
; R02 POINT 2 point-0000002 approach
G1 A45.000000 C90.000000 X-230.000000 Y14.142136 Z376.766594 F240.000000
; R02 EVENT event-0000002 index_start
; R02 EVENT event-0000003 prime
G94 ; extrusion actuator feed
G1 E1.0 F240.000000
G93 ; resume inverse-time motion
; R02 POINT 3 point-0000003 deposition
G1 A45.000000 C85.000000 X-206.464287 Y27.499224 Z390.241534 E1.0653687603396309 F68.754935
; R02 POINT 4 point-0000004 deposition
G1 A45.000000 C80.000000 X-181.357257 Y39.354568 Z402.214728 E1.13037630089502404 F68.754935
; R02 POINT 5 point-0000005 deposition
G1 A45.000000 C75.000000 X-154.869988 Y49.617043 Z412.595055 E1.19502263820459889 F68.754935
; R02 POINT 6 point-0000006 deposition
G1 A45.000000 C70.000000 X-127.204066 Y58.207650 Z421.303513 E1.25930778908555257 F68.754935
; R02 POINT 7 point-0000007 deposition
G1 A45.000000 C65.000000 X-98.570043 Y65.060111 Z428.273825 E1.32323177064014547 F68.754935
; R02 POINT 8 point-0000008 deposition
G1 A45.000000 C60.000000 X-69.185843 Y70.121379 Z433.452944 E1.38679460026216774 F68.754935
; R02 POINT 9 point-0000009 deposition
G1 A45.000000 C55.000000 X-39.275097 Y73.352037 Z436.801453 E1.44999629564358807 F68.754935
; R02 POINT 10 point-0000010 deposition
G1 A45.000000 C50.000000 X-9.065443 Y74.726601 Z438.293868 E1.51283687478139379 F68.754935
; R02 POINT 11 point-0000011 deposition
G1 A45.000000 C45.000000 X21.213203 Y74.233712 Z437.918831 E1.57531635598462651 F68.754935
; R02 POINT 12 point-0000012 deposition
G1 A45.000000 C40.000000 X51.330405 Y71.876226 Z435.679196 E1.63743475788162285 F68.754935
; R02 POINT 13 point-0000013 deposition
G1 A45.000000 C35.000000 X81.056951 Y67.671187 Z431.592008 E1.69919209942746435 F68.754935
; R02 POINT 14 point-0000014 deposition
G1 A45.000000 C30.000000 X110.166605 Y61.649701 Z425.688373 E1.76058839991164680 F68.754935
; R02 POINT 15 point-0000015 deposition
G1 A45.000000 C25.000000 X138.437824 Y53.856698 Z418.013221 E1.82162367896597471 F68.754935
; R02 POINT 16 point-0000016 deposition
G1 A45.000000 C20.000000 X165.655448 Y44.350591 Z408.624965 E1.88229795657268910 F68.754935
; R02 POINT 17 point-0000017 deposition
G1 A45.000000 C15.000000 X191.612334 Y33.202829 Z397.595055 E1.94261125307283884 F68.754935
; R02 POINT 18 point-0000018 deposition
G1 A45.000000 C10.000000 X216.110935 Y20.497359 Z385.007435 E2.00256358917490082 F68.754935
; R02 POINT 19 point-0000019 deposition
G1 A45.000000 C5.000000 X238.964801 Y6.329978 Z370.957905 E2.06215498596366222 F68.754935
; R02 POINT 20 point-0000020 deposition
G1 A45.000000 C0.000000 X260.000000 Y-9.192388 Z355.553391 E2.121385464909369985 F68.754935
; R02 POINT 21 point-0000021 deposition
G1 A45.000000 C-5.000000 X279.056442 Y-25.952501 Z338.911129 E2.180255047877160535 F68.754935
; R02 POINT 22 point-0000022 deposition
G1 A45.000000 C-10.000000 X295.989097 Y-43.823704 Z321.157777 E2.238763757136779045 F68.754935
; R02 POINT 23 point-0000023 deposition
G1 A45.000000 C-15.000000 X310.669095 Y-62.670882 Z302.428450 E2.296911615372598055 F68.754935
; R02 POINT 24 point-0000024 deposition
G1 A45.000000 C-20.000000 X322.984714 Y-82.351495 Z282.865688 E2.354698645693947385 F68.754935
; R02 POINT 25 point-0000025 deposition
G1 A45.000000 C-25.000000 X332.842225 Y-102.716658 Z262.618377 E2.412124871645767955 F68.754935
; R02 POINT 26 point-0000026 deposition
G1 A45.000000 C-30.000000 X340.166605 Y-123.612276 Z241.840610 E2.469190317219599131 F68.754935
; R02 POINT 27 point-0000027 deposition
G1 A45.000000 C-35.000000 X344.902112 Y-144.880219 Z220.690518 E2.525895006864914631 F68.754935
; R02 POINT 28 point-0000028 deposition
G1 A45.000000 C-40.000000 X347.012705 Y-166.359520 Z199.329067 E2.582238965500819765 F68.754935
; R02 POINT 29 point-0000029 deposition
G1 A45.000000 C-45.000000 X346.482323 Y-187.887608 Z177.918831 E2.638222218528121631 F68.754935
; R02 POINT 30 point-0000030 deposition
G1 A45.000000 C-50.000000 X343.315000 Y-209.301537 Z156.622753 E2.693844791841791507 F68.754935
; R02 POINT 31 point-0000031 deposition
G1 A45.000000 C-55.000000 X337.534844 Y-230.439230 Z135.602911 E2.749106711843829307 F68.754935
; R02 POINT 32 point-0000032 deposition
G1 A45.000000 C-60.000000 X329.185843 Y-251.140715 Z115.019277 E2.804008005456547917 F68.754935
; R02 POINT 33 point-0000033 deposition
G1 A45.000000 C-65.000000 X318.331539 Y-271.249337 Z95.028506 E2.858548700136297047 F68.754935
; R02 POINT 34 point-0000034 deposition
G1 A45.000000 C-70.000000 X305.054540 Y-290.612955 Z75.782740 E2.912728823887638207 F68.754935
; R02 POINT 35 point-0000035 deposition
G1 A45.000000 C-75.000000 X289.455892 Y-309.085096 Z57.428450 E2.966548405277992572 F68.754935
; R02 POINT 36 point-0000036 deposition
G1 A45.000000 C-80.000000 X271.654309 Y-326.526073 Z40.105323 E3.020007473452781082 F68.754935
; R02 POINT 37 point-0000037 deposition
G1 A45.000000 C-85.000000 X251.785274 Y-342.804048 Z23.945200 E3.073106058151073682 F68.754935
; R02 POINT 38 point-0000038 deposition
G1 A45.000000 C-90.000000 X230.000000 Y-357.796031 Z9.071068 E3.125844189721770002 F68.754935
; R02 POINT 39 point-0000039 deposition
G1 A45.000000 C-95.000000 X206.464287 Y-371.388822 Z-4.403872 E3.178221899140336232 F68.754935
; R02 POINT 40 point-0000040 deposition
G1 A45.000000 C-100.000000 X181.357257 Y-383.479868 Z-16.377066 E3.230239218026115328 F68.754935
; R02 POINT 41 point-0000041 deposition
G1 A45.000000 C-105.000000 X154.869988 Y-393.978045 Z-26.757393 E3.281896178660236358 F68.754935
; R02 POINT 42 point-0000042 deposition
G1 A45.000000 C-110.000000 X127.204066 Y-402.804354 Z-35.465851 E3.333192814004154458 F68.754935
; R02 POINT 43 point-0000043 deposition
G1 A45.000000 C-115.000000 X98.570043 Y-409.892518 Z-42.436163 E3.384129157718833373 F68.754935
; R02 POINT 44 point-0000044 deposition
G1 A45.000000 C-120.000000 X69.185843 Y-415.189488 Z-47.615282 E3.434705244184615993 F68.754935
; R02 POINT 45 point-0000045 deposition
G1 A45.000000 C-125.000000 X39.275097 Y-418.655848 Z-50.963791 E3.484921108521795068 F68.754935
; R02 POINT 46 point-0000046 deposition
G1 A45.000000 C-130.000000 X9.065443 Y-420.266114 Z-52.456206 E3.534776786611929098 F68.754935
; R02 POINT 47 point-0000047 deposition
G1 A45.000000 C-135.000000 X-21.213203 Y-420.008928 Z-52.081169 E3.584272315119920788 F68.754935
; R02 POINT 48 point-0000048 deposition
G1 A45.000000 C-140.000000 X-51.330405 Y-417.887144 Z-49.841534 E3.633407731516906178 F68.754935
; R02 POINT 49 point-0000049 deposition
G1 A45.000000 C-145.000000 X-81.056951 Y-413.917807 Z-45.754346 E3.682183074103977812 F68.754935
; R02 POINT 50 point-0000050 deposition
G1 A45.000000 C-150.000000 X-110.166605 Y-408.132023 Z-39.850711 E3.730598382036785442 F68.754935
; R02 POINT 51 point-0000051 deposition
G1 A45.000000 C-155.000000 X-138.437824 Y-400.574723 Z-32.175559 E3.778653695351052312 F68.754935
; R02 POINT 52 point-0000052 deposition
G1 A45.000000 C-160.000000 X-165.655448 Y-391.304318 Z-22.787303 E3.826349054989043506 F68.754935
; R02 POINT 53 point-0000053 deposition
G1 A45.000000 C-165.000000 X-191.612334 Y-380.392259 Z-11.757393 E3.873684502827041326 F68.754935
; R02 POINT 54 point-0000054 deposition
G1 A45.000000 C-170.000000 X-216.110935 Y-367.922491 Z0.830227 E3.920660081703852356 F68.754935
; R02 POINT 55 point-0000055 deposition
G1 A45.000000 C-175.000000 X-238.964801 Y-353.990812 Z14.879757 E3.967275835450419216 F68.754935
; R02 POINT 56 point-0000056 deposition
G1 A45.000000 C-180.000000 X-260.000000 Y-338.704148 Z30.284271 E4.013531808920566426 F68.754935
; R02 POINT 57 point-0000057 deposition
G1 A45.000000 C-185.000000 X-279.056442 Y-322.179737 Z46.926533 E4.059428048022944936 F68.754935
; R02 POINT 58 point-0000058 deposition
G1 A45.000000 C-190.000000 X-295.989097 Y-304.544237 Z64.679885 E4.104964599754227521 F68.754935
; R02 POINT 59 point-0000059 deposition
G1 A45.000000 C-195.000000 X-310.669095 Y-285.932761 Z83.409212 E4.150141512233614461 F68.754935
; R02 POINT 60 point-0000060 deposition
G1 A45.000000 C-200.000000 X-322.984714 Y-266.487850 Z102.971974 E4.194958834738712541 F68.754935
; R02 POINT 61 point-0000061 deposition
G1 A45.000000 C-205.000000 X-332.842225 Y-246.358390 Z123.219285 E4.239416617742849975 F68.754935
; R02 POINT 62 point-0000062 deposition
G1 A45.000000 C-210.000000 X-340.166605 Y-225.698474 Z143.997052 E4.283514912953906150 F68.754935
; R02 POINT 63 point-0000063 deposition
G1 A45.000000 C-215.000000 X-344.902112 Y-204.666234 Z165.147144 E4.327253773354711856 F68.754935
; R02 POINT 64 point-0000064 deposition
G1 A45.000000 C-220.000000 X-347.012705 Y-183.422634 Z186.508594 E4.370633253245119406 F68.754935
; R02 POINT 65 point-0000065 deposition
G1 A45.000000 C-225.000000 X-346.482323 Y-162.130249 Z207.918831 E4.413653408285805691 F68.754935
; R02 POINT 66 point-0000066 deposition
G1 A45.000000 C-230.000000 X-343.315000 Y-140.952022 Z229.214908 E4.456314295543907011 F68.754935
; R02 POINT 67 point-0000067 deposition
G1 A45.000000 C-235.000000 X-337.534844 Y-120.050031 Z250.234751 E4.498615973540572131 F68.754935
; R02 POINT 68 point-0000068 deposition
G1 A45.000000 C-240.000000 X-329.185843 Y-99.584249 Z270.818384 E4.540558502300530831 F68.754935
; R02 POINT 69 point-0000069 deposition
G1 A45.000000 C-245.000000 X-318.331539 Y-79.711329 Z290.809155 E4.582141943403784485 F68.754935
; R02 POINT 70 point-0000070 deposition
G1 A45.000000 C-250.000000 X-305.054540 Y-60.583413 Z310.054922 E4.623366360039521129 F68.754935
; R02 POINT 71 point-0000071 deposition
G1 A45.000000 C-255.000000 X-289.455892 Y-42.346974 Z328.409212 E4.664231817062382049 F68.754935
; R02 POINT 72 point-0000072 deposition
G1 A45.000000 C-260.000000 X-271.654309 Y-25.141699 Z345.732338 E4.704738381051185699 F68.754935
; R02 POINT 73 point-0000073 deposition
G1 A45.000000 C-265.000000 X-251.785274 Y-9.099427 Z361.892462 E4.744886120370257504 F68.754935
; R02 POINT 74 point-0000074 deposition
G1 A45.000000 C-270.000000 X-230.000000 Y5.656854 Z376.766594 E4.784675105233490504 F68.754935
; R02 EVENT event-0000004 index_end
; R02 EVENT event-0000005 retract
G94 ; extrusion actuator feed
G1 E3.784675105233490504 F240.000000
G93 ; resume inverse-time motion
; R02 EVENT event-0000006 safe_depart
; R02 POINT 75 point-0000075 depart
G1 A45.000000 C-270.000000 X-230.000000 Y6.363961 Z377.473701 F240.000000
; R02 EVENT event-0000007 finish
G94 ; restore units-per-minute mode
M400 ; finish queued motion
M2
