; 5AxisSclicer P07 Support motion evidence
; reference XYZAC profile; offline simulation only
G21 ; millimetres
G90 ; absolute axes
M82 ; absolute extrusion
G92 E0 ; known initial extrusion position
; P07 POINT 1 point-0000001 approach
G1 A0.000000 C0.000000 X254.300000 Y252.800000 Z252.500000 F100.000000
; P07 EVENT event-0000001 prime
G1 E1.0 F100.000000
; P07 POINT 2 point-0000002 deposition
G1 A0.000000 C0.000000 X261.700000 Y252.800000 Z252.500000 E1.922968747530469 F100.000000
; P07 EVENT event-0000002 retract
G1 E0.922968747530469 F100.000000
; P07 POINT 3 point-0000003 travel
G1 A0.000000 C0.000000 X261.700000 Y253.800000 Z252.500000 F100.000000
; P07 EVENT event-0000003 prime
G1 E1.922968747530469 F100.000000
; P07 POINT 4 point-0000004 deposition
G1 A0.000000 C0.000000 X254.300000 Y253.800000 Z252.500000 E2.845937495060938 F100.000000
; P07 EVENT event-0000004 retract
G1 E1.845937495060938 F100.000000
; P07 POINT 5 point-0000005 travel
G1 A0.000000 C0.000000 X254.300000 Y254.800000 Z252.500000 F100.000000
; P07 EVENT event-0000005 prime
G1 E2.845937495060938 F100.000000
; P07 POINT 6 point-0000006 deposition
G1 A0.000000 C0.000000 X261.700000 Y254.800000 Z252.500000 E3.768906242591407 F100.000000
; P07 EVENT event-0000006 retract
G1 E2.768906242591407 F100.000000
; P07 POINT 7 point-0000007 travel
G1 A0.000000 C0.000000 X261.700000 Y255.800000 Z252.500000 F100.000000
; P07 EVENT event-0000007 prime
G1 E3.768906242591407 F100.000000
; P07 POINT 8 point-0000008 deposition
G1 A0.000000 C0.000000 X254.300000 Y255.800000 Z252.500000 E4.691874990121876 F100.000000
; P07 EVENT event-0000008 retract
G1 E3.691874990121876 F100.000000
; P07 POINT 9 point-0000009 travel
G1 A0.000000 C0.000000 X254.300000 Y256.800000 Z252.500000 F100.000000
; P07 EVENT event-0000009 prime
G1 E4.691874990121876 F100.000000
; P07 POINT 10 point-0000010 deposition
G1 A0.000000 C0.000000 X261.700000 Y256.800000 Z252.500000 E5.614843737652345 F100.000000
; P07 EVENT event-0000010 retract
G1 E4.614843737652345 F100.000000
; P07 POINT 11 point-0000011 travel
G1 A0.000000 C0.000000 X254.800000 Y252.300000 Z253.000000 F100.000000
; P07 EVENT event-0000011 prime
G1 E5.614843737652345 F100.000000
; P07 POINT 12 point-0000012 deposition
G1 A0.000000 C0.000000 X254.800000 Y257.700000 Z253.000000 E6.2883614723367414 F100.000000
; P07 EVENT event-0000012 retract
G1 E5.2883614723367414 F100.000000
; P07 POINT 13 point-0000013 travel
G1 A0.000000 C0.000000 X255.800000 Y257.700000 Z253.000000 F100.000000
; P07 EVENT event-0000013 prime
G1 E6.2883614723367414 F100.000000
; P07 POINT 14 point-0000014 deposition
G1 A0.000000 C0.000000 X255.800000 Y252.300000 Z253.000000 E6.9618792070211378 F100.000000
; P07 EVENT event-0000014 retract
G1 E5.9618792070211378 F100.000000
; P07 POINT 15 point-0000015 travel
G1 A0.000000 C0.000000 X256.800000 Y252.300000 Z253.000000 F100.000000
; P07 EVENT event-0000015 prime
G1 E6.9618792070211378 F100.000000
; P07 POINT 16 point-0000016 deposition
G1 A0.000000 C0.000000 X256.800000 Y257.700000 Z253.000000 E7.6353969417055342 F100.000000
; P07 EVENT event-0000016 retract
G1 E6.6353969417055342 F100.000000
; P07 POINT 17 point-0000017 travel
G1 A0.000000 C0.000000 X257.800000 Y257.700000 Z253.000000 F100.000000
; P07 EVENT event-0000017 prime
G1 E7.6353969417055342 F100.000000
; P07 POINT 18 point-0000018 deposition
G1 A0.000000 C0.000000 X257.800000 Y252.300000 Z253.000000 E8.3089146763899306 F100.000000
; P07 EVENT event-0000018 retract
G1 E7.3089146763899306 F100.000000
; P07 POINT 19 point-0000019 travel
G1 A0.000000 C0.000000 X258.800000 Y252.300000 Z253.000000 F100.000000
; P07 EVENT event-0000019 prime
G1 E8.3089146763899306 F100.000000
; P07 POINT 20 point-0000020 deposition
G1 A0.000000 C0.000000 X258.800000 Y257.700000 Z253.000000 E8.9824324110743270 F100.000000
; P07 EVENT event-0000020 retract
G1 E7.9824324110743270 F100.000000
; P07 POINT 21 point-0000021 travel
G1 A0.000000 C0.000000 X259.800000 Y257.700000 Z253.000000 F100.000000
; P07 EVENT event-0000021 prime
G1 E8.9824324110743270 F100.000000
; P07 POINT 22 point-0000022 deposition
G1 A0.000000 C0.000000 X259.800000 Y252.300000 Z253.000000 E9.6559501457587234 F100.000000
; P07 EVENT event-0000022 retract
G1 E8.6559501457587234 F100.000000
; P07 POINT 23 point-0000023 travel
G1 A0.000000 C0.000000 X260.800000 Y252.300000 Z253.000000 F100.000000
; P07 EVENT event-0000023 prime
G1 E9.6559501457587234 F100.000000
; P07 POINT 24 point-0000024 deposition
G1 A0.000000 C0.000000 X260.800000 Y257.700000 Z253.000000 E10.3294678804431198 F100.000000
; P07 EVENT event-0000024 retract
G1 E9.3294678804431198 F100.000000
; P07 POINT 25 point-0000025 travel
G1 A0.000000 C0.000000 X254.300000 Y252.600000 Z253.500000 F100.000000
; P07 EVENT event-0000025 prime
G1 E10.3294678804431198 F100.000000
; P07 POINT 26 point-0000026 deposition
G1 A0.000000 C0.000000 X261.700000 Y252.600000 Z253.500000 E11.2524366279735888 F100.000000
; P07 EVENT event-0000026 retract
G1 E10.2524366279735888 F100.000000
; P07 POINT 27 point-0000027 travel
G1 A0.000000 C0.000000 X261.700000 Y253.200000 Z253.500000 F100.000000
; P07 EVENT event-0000027 prime
G1 E11.2524366279735888 F100.000000
; P07 POINT 28 point-0000028 deposition
G1 A0.000000 C0.000000 X254.300000 Y253.200000 Z253.500000 E12.1754053755040578 F100.000000
; P07 EVENT event-0000028 retract
G1 E11.1754053755040578 F100.000000
; P07 POINT 29 point-0000029 travel
G1 A0.000000 C0.000000 X254.300000 Y253.800000 Z253.500000 F100.000000
; P07 EVENT event-0000029 prime
G1 E12.1754053755040578 F100.000000
; P07 POINT 30 point-0000030 deposition
G1 A0.000000 C0.000000 X261.700000 Y253.800000 Z253.500000 E13.0983741230345268 F100.000000
; P07 EVENT event-0000030 retract
G1 E12.0983741230345268 F100.000000
; P07 POINT 31 point-0000031 travel
G1 A0.000000 C0.000000 X261.700000 Y254.400000 Z253.500000 F100.000000
; P07 EVENT event-0000031 prime
G1 E13.0983741230345268 F100.000000
; P07 POINT 32 point-0000032 deposition
G1 A0.000000 C0.000000 X254.300000 Y254.400000 Z253.500000 E14.0213428705649958 F100.000000
; P07 EVENT event-0000032 retract
G1 E13.0213428705649958 F100.000000
; P07 POINT 33 point-0000033 travel
G1 A0.000000 C0.000000 X254.300000 Y255.000000 Z253.500000 F100.000000
; P07 EVENT event-0000033 prime
G1 E14.0213428705649958 F100.000000
; P07 POINT 34 point-0000034 deposition
G1 A0.000000 C0.000000 X261.700000 Y255.000000 Z253.500000 E14.9443116180954648 F100.000000
; P07 EVENT event-0000034 retract
G1 E13.9443116180954648 F100.000000
; P07 POINT 35 point-0000035 travel
G1 A0.000000 C0.000000 X261.700000 Y255.600000 Z253.500000 F100.000000
; P07 EVENT event-0000035 prime
G1 E14.9443116180954648 F100.000000
; P07 POINT 36 point-0000036 deposition
G1 A0.000000 C0.000000 X254.300000 Y255.600000 Z253.500000 E15.8672803656259338 F100.000000
; P07 EVENT event-0000036 retract
G1 E14.8672803656259338 F100.000000
; P07 POINT 37 point-0000037 travel
G1 A0.000000 C0.000000 X254.300000 Y256.200000 Z253.500000 F100.000000
; P07 EVENT event-0000037 prime
G1 E15.8672803656259338 F100.000000
; P07 POINT 38 point-0000038 deposition
G1 A0.000000 C0.000000 X261.700000 Y256.200000 Z253.500000 E16.7902491131564028 F100.000000
; P07 EVENT event-0000038 retract
G1 E15.7902491131564028 F100.000000
; P07 POINT 39 point-0000039 travel
G1 A0.000000 C0.000000 X261.700000 Y256.800000 Z253.500000 F100.000000
; P07 EVENT event-0000039 prime
G1 E16.7902491131564028 F100.000000
; P07 POINT 40 point-0000040 deposition
G1 A0.000000 C0.000000 X254.300000 Y256.800000 Z253.500000 E17.7132178606868718 F100.000000
; P07 EVENT event-0000040 retract
G1 E16.7132178606868718 F100.000000
; P07 POINT 41 point-0000041 travel
G1 A0.000000 C0.000000 X254.300000 Y257.400000 Z253.500000 F100.000000
; P07 EVENT event-0000041 prime
G1 E17.7132178606868718 F100.000000
; P07 POINT 42 point-0000042 deposition
G1 A0.000000 C0.000000 X261.700000 Y257.400000 Z253.500000 E18.6361866082173408 F100.000000
; P07 EVENT event-0000042 retract
G1 E17.6361866082173408 F100.000000
; P07 POINT 43 point-0000043 travel
G1 A0.000000 C0.000000 X254.600000 Y252.300000 Z254.000000 F100.000000
; P07 EVENT event-0000043 prime
G1 E18.6361866082173408 F100.000000
; P07 POINT 44 point-0000044 deposition
G1 A0.000000 C0.000000 X254.600000 Y257.700000 Z254.000000 E19.3097043429017372 F100.000000
; P07 EVENT event-0000044 retract
G1 E18.3097043429017372 F100.000000
; P07 POINT 45 point-0000045 travel
G1 A0.000000 C0.000000 X255.200000 Y257.700000 Z254.000000 F100.000000
; P07 EVENT event-0000045 prime
G1 E19.3097043429017372 F100.000000
; P07 POINT 46 point-0000046 deposition
G1 A0.000000 C0.000000 X255.200000 Y252.300000 Z254.000000 E19.9832220775861336 F100.000000
; P07 EVENT event-0000046 retract
G1 E18.9832220775861336 F100.000000
; P07 POINT 47 point-0000047 travel
G1 A0.000000 C0.000000 X255.800000 Y252.300000 Z254.000000 F100.000000
; P07 EVENT event-0000047 prime
G1 E19.9832220775861336 F100.000000
; P07 POINT 48 point-0000048 deposition
G1 A0.000000 C0.000000 X255.800000 Y257.700000 Z254.000000 E20.6567398122705300 F100.000000
; P07 EVENT event-0000048 retract
G1 E19.6567398122705300 F100.000000
; P07 POINT 49 point-0000049 travel
G1 A0.000000 C0.000000 X256.400000 Y257.700000 Z254.000000 F100.000000
; P07 EVENT event-0000049 prime
G1 E20.6567398122705300 F100.000000
; P07 POINT 50 point-0000050 deposition
G1 A0.000000 C0.000000 X256.400000 Y252.300000 Z254.000000 E21.3302575469549264 F100.000000
; P07 EVENT event-0000050 retract
G1 E20.3302575469549264 F100.000000
; P07 POINT 51 point-0000051 travel
G1 A0.000000 C0.000000 X257.000000 Y252.300000 Z254.000000 F100.000000
; P07 EVENT event-0000051 prime
G1 E21.3302575469549264 F100.000000
; P07 POINT 52 point-0000052 deposition
G1 A0.000000 C0.000000 X257.000000 Y257.700000 Z254.000000 E22.0037752816393228 F100.000000
; P07 EVENT event-0000052 retract
G1 E21.0037752816393228 F100.000000
; P07 POINT 53 point-0000053 travel
G1 A0.000000 C0.000000 X257.600000 Y257.700000 Z254.000000 F100.000000
; P07 EVENT event-0000053 prime
G1 E22.0037752816393228 F100.000000
; P07 POINT 54 point-0000054 deposition
G1 A0.000000 C0.000000 X257.600000 Y252.300000 Z254.000000 E22.6772930163237192 F100.000000
; P07 EVENT event-0000054 retract
G1 E21.6772930163237192 F100.000000
; P07 POINT 55 point-0000055 travel
G1 A0.000000 C0.000000 X258.200000 Y252.300000 Z254.000000 F100.000000
; P07 EVENT event-0000055 prime
G1 E22.6772930163237192 F100.000000
; P07 POINT 56 point-0000056 deposition
G1 A0.000000 C0.000000 X258.200000 Y257.700000 Z254.000000 E23.3508107510081156 F100.000000
; P07 EVENT event-0000056 retract
G1 E22.3508107510081156 F100.000000
; P07 POINT 57 point-0000057 travel
G1 A0.000000 C0.000000 X258.800000 Y257.700000 Z254.000000 F100.000000
; P07 EVENT event-0000057 prime
G1 E23.3508107510081156 F100.000000
; P07 POINT 58 point-0000058 deposition
G1 A0.000000 C0.000000 X258.800000 Y252.300000 Z254.000000 E24.0243284856925120 F100.000000
; P07 EVENT event-0000058 retract
G1 E23.0243284856925120 F100.000000
; P07 POINT 59 point-0000059 travel
G1 A0.000000 C0.000000 X259.400000 Y252.300000 Z254.000000 F100.000000
; P07 EVENT event-0000059 prime
G1 E24.0243284856925120 F100.000000
; P07 POINT 60 point-0000060 deposition
G1 A0.000000 C0.000000 X259.400000 Y257.700000 Z254.000000 E24.6978462203769084 F100.000000
; P07 EVENT event-0000060 retract
G1 E23.6978462203769084 F100.000000
; P07 POINT 61 point-0000061 travel
G1 A0.000000 C0.000000 X260.000000 Y257.700000 Z254.000000 F100.000000
; P07 EVENT event-0000061 prime
G1 E24.6978462203769084 F100.000000
; P07 POINT 62 point-0000062 deposition
G1 A0.000000 C0.000000 X260.000000 Y252.300000 Z254.000000 E25.3713639550613048 F100.000000
; P07 EVENT event-0000062 retract
G1 E24.3713639550613048 F100.000000
; P07 POINT 63 point-0000063 travel
G1 A0.000000 C0.000000 X260.600000 Y252.300000 Z254.000000 F100.000000
; P07 EVENT event-0000063 prime
G1 E25.3713639550613048 F100.000000
; P07 POINT 64 point-0000064 deposition
G1 A0.000000 C0.000000 X260.600000 Y257.700000 Z254.000000 E26.0448816897457012 F100.000000
; P07 EVENT event-0000064 retract
G1 E25.0448816897457012 F100.000000
; P07 POINT 65 point-0000065 travel
G1 A0.000000 C0.000000 X261.200000 Y257.700000 Z254.000000 F100.000000
; P07 EVENT event-0000065 prime
G1 E26.0448816897457012 F100.000000
; P07 POINT 66 point-0000066 deposition
G1 A0.000000 C0.000000 X261.200000 Y252.300000 Z254.000000 E26.7183994244300976 F100.000000
M400 ; finish queued motion
M2
