; 5AxisSclicer C04 Curve Offset Buildup
; reference XYZAC profile; offline simulation only
G21 ; millimetres
G90 ; absolute axes
M82 ; absolute extrusion
G92 E0 ; known initial extrusion position
; C04 POINT 1 point-0000001 approach
G1 A-69.343889 C-71.999992 X327.018400 Y216.607482 Z255.696774 F1800.000000
; C04 EVENT event-0000001 prime
G1 E1.0 F900.000000
; C04 POINT 2 point-0000002 deposition
G1 A-69.358135 C-68.695884 X335.751897 Y222.419754 Z237.755046 E1.19746594292852795 F900.000000
; C04 POINT 3 point-0000003 deposition
G1 A-69.423765 C-65.470474 X343.252319 Y228.419059 Z219.603555 E1.39493150726321968 F900.000000
; C04 POINT 4 point-0000004 deposition
G1 A-69.531132 C-62.323780 X349.572700 Y234.492968 Z201.348015 E1.59239618343306191 F900.000000
; C04 POINT 5 point-0000005 deposition
G1 A-69.671915 C-59.253854 X354.773420 Y240.552783 Z183.074141 E1.78985971868147586 F900.000000
; C04 POINT 6 point-0000006 deposition
G1 A-69.839202 C-56.257399 X358.917482 Y246.530893 Z164.849859 E1.98732219193139164 F900.000000
; C04 POINT 7 point-0000007 deposition
G1 A-70.027495 C-53.330323 X362.067206 Y252.377340 Z146.727987 E2.18478434534509480 F900.000000
; C04 POINT 8 point-0000008 deposition
G1 A-70.232654 C-50.468228 X364.282182 Y258.056097 Z128.749146 E2.38224707371212124 F900.000000
; C04 POINT 9 point-0000009 deposition
G1 A-70.451783 C-47.666804 X365.618309 Y263.541484 Z110.944599 E2.57971097678612024 F900.000000
; C04 POINT 10 point-0000010 deposition
G1 A-70.677832 C-44.919019 X366.127482 Y268.813135 Z93.344749 E2.77717617877779564 F900.000000
; C04 POINT 11 point-0000011 deposition
G1 A-70.917794 C-42.226425 X365.856852 Y273.861324 Z75.962797 E2.97464171543370944 F900.000000
; C04 POINT 12 point-0000012 deposition
G1 A-71.180611 C-39.592732 X364.857359 Y278.667795 Z58.808981 E3.17210652129328248 F900.000000
; C04 POINT 13 point-0000013 deposition
G1 A-71.461512 C-37.013279 X363.176972 Y283.214011 Z41.904302 E3.36956994508324385 F900.000000
; C04 POINT 14 point-0000014 deposition
G1 A-71.756594 C-34.483650 X360.858852 Y287.488703 Z25.265459 E3.56703174056659668 F900.000000
; C04 POINT 15 point-0000015 deposition
G1 A-72.062721 C-31.999830 X357.941967 Y291.485853 Z8.906405 E3.76449227074548244 F900.000000
; C04 POINT 16 point-0000016 deposition
G1 A-72.377403 C-29.558341 X354.461920 Y295.203067 Z-7.160311 E3.96195156030835170 F900.000000
; C04 POINT 17 point-0000017 deposition
G1 A-72.698711 C-27.156252 X350.451745 Y298.640428 Z-22.922958 E4.15941430959574905 F900.000000
; C04 POINT 18 point-0000018 deposition
G1 A-73.025148 C-24.791385 X345.943079 Y301.799390 Z-38.368906 E4.35687741358782381 F900.000000
; C04 POINT 19 point-0000019 deposition
G1 A-73.358620 C-22.465666 X340.975249 Y304.673472 Z-53.481424 E4.55434159254018221 F900.000000
; C04 POINT 20 point-0000020 deposition
G1 A-73.714784 C-20.197652 X335.633402 Y307.211541 Z-68.227318 E4.75180534247781545 F900.000000
; C04 POINT 21 point-0000021 deposition
G1 A-74.091274 C-17.986048 X329.961078 Y309.410573 Z-82.596927 E4.94926800895545045 F900.000000
; C04 POINT 22 point-0000022 deposition
G1 A-74.484449 C-15.827947 X323.994143 Y311.276025 Z-96.583631 E5.14672936097172675 F900.000000
; C04 POINT 23 point-0000023 deposition
G1 A-74.890948 C-13.720661 X317.765266 Y312.816794 Z-110.181450 E5.34418960812728795 F900.000000
; C04 POINT 24 point-0000024 deposition
G1 A-75.307640 C-11.661750 X311.304397 Y314.044639 Z-123.384698 E5.54164949998336152 F900.000000
; C04 POINT 25 point-0000025 deposition
G1 A-75.731578 C-9.649035 X304.639216 Y314.973737 Z-136.187740 E5.73911009574863488 F900.000000
; C04 POINT 26 point-0000026 deposition
G1 A-76.159961 C-7.680603 X297.795547 Y315.620344 Z-148.584810 E5.93657198191906038 F900.000000
; C04 POINT 27 point-0000027 deposition
G1 A-76.590582 C-5.755628 X290.801014 Y316.000204 Z-160.568569 E6.13403510489514786 F900.000000
; C04 POINT 28 point-0000028 deposition
G1 A-77.034138 C-3.895442 X283.774441 Y316.067116 Z-172.097081 E6.33149836262366246 F900.000000
; C04 POINT 29 point-0000029 deposition
G1 A-77.493261 C-2.108021 X276.788214 Y315.812322 Z-183.158027 E6.52896091235670966 F900.000000
; C04 POINT 30 point-0000030 deposition
G1 A-77.964429 C-0.390624 X269.868805 Y315.259189 Z-193.758986 E6.72642259734866806 F900.000000
; C04 POINT 31 point-0000031 deposition
G1 A-78.444258 C1.259539 X263.038331 Y314.432834 Z-203.908177 E6.92388367731673647 F900.000000
; C04 POINT 32 point-0000032 deposition
G1 A-78.929482 C2.845298 X256.314889 Y313.359747 Z-213.614249 E7.12134475466531540 F900.000000
; C04 POINT 33 point-0000033 deposition
G1 A-79.416947 C4.369457 X249.713171 Y312.067335 Z-222.885899 E7.31880648242616085 F900.000000
; C04 POINT 34 point-0000034 deposition
G1 A-79.903609 C5.834664 X243.245372 Y310.583447 Z-231.731336 E7.51626909424113067 F900.000000
; C04 POINT 35 point-0000035 deposition
G1 A-80.386502 C7.243453 X236.921338 Y308.936313 Z-240.158341 E7.71373242035114314 F900.000000
; C04 POINT 36 point-0000036 deposition
G1 A-80.865736 C8.591053 X230.786059 Y307.136656 Z-248.161813 E7.91119606135358010 F900.000000
; C04 POINT 37 point-0000037 deposition
G1 A-81.348077 C9.856935 X224.967421 Y305.156184 Z-255.713360 E8.10865943431080007 F900.000000
; C04 POINT 38 point-0000038 deposition
G1 A-81.831497 C11.041933 X219.484436 Y303.018559 Z-262.825803 E8.30612224484528798 F900.000000
; C04 POINT 39 point-0000039 deposition
G1 A-82.313343 C12.148633 X214.344090 Y300.751331 Z-269.514436 E8.50358456595488331 F900.000000
; C04 POINT 40 point-0000040 deposition
G1 A-82.791019 C13.179657 X209.550344 Y298.381696 Z-275.793729 E8.70104675100404738 F900.000000
; C04 POINT 41 point-0000041 deposition
G1 A-83.261971 C14.137676 X205.104386 Y295.936512 Z-281.677281 E8.89850927152431213 F900.000000
; C04 POINT 42 point-0000042 deposition
G1 A-83.723677 C15.025324 X201.005361 Y293.442143 Z-287.177510 E9.09597243106124768 F900.000000
; C04 POINT 43 point-0000043 deposition
G1 A-84.173641 C15.845148 X197.250881 Y290.924420 Z-292.305494 E9.29343623908903514 F900.000000
; C04 POINT 44 point-0000044 deposition
G1 A-84.609356 C16.599682 X193.836871 Y288.408810 Z-297.071100 E9.49090046850892884 F900.000000
; C04 POINT 45 point-0000045 deposition
G1 A-85.033900 C17.272908 X190.863632 Y285.885430 Z-301.449579 E9.68836473670508468 F900.000000
; C04 POINT 46 point-0000046 deposition
G1 A-85.450548 C17.849066 X188.431161 Y283.343445 Z-305.419658 E9.88582879741486778 F900.000000
; C04 POINT 47 point-0000047 deposition
G1 A-85.857170 C18.330718 X186.534101 Y280.805514 Z-308.992939 E10.08329267951997302 F900.000000
; C04 POINT 48 point-0000048 deposition
G1 A-86.251640 C18.720391 X185.165281 Y278.293649 Z-312.178465 E10.28075658339765264 F900.000000
; C04 POINT 49 point-0000049 deposition
G1 A-86.631821 C19.020569 X184.315993 Y275.829299 Z-314.982781 E10.47822068870635494 F900.000000
; C04 POINT 50 point-0000050 deposition
G1 A-86.995555 C19.233711 X183.976108 Y273.433467 Z-317.410109 E10.67568502053390934 F900.000000
; C04 POINT 51 point-0000051 deposition
G1 A-87.340670 C19.362207 X184.134484 Y271.126621 Z-319.462328 E10.87314946324788499 F900.000000
; C04 POINT 52 point-0000052 deposition
G1 A-87.664973 C19.408382 X184.779063 Y268.928673 Z-321.139140 E11.07061385877002639 F900.000000
; C04 POINT 53 point-0000053 deposition
G1 A-87.966213 C19.374599 X185.896386 Y266.859196 Z-322.438328 E11.26807813304265303 F900.000000
; C04 POINT 54 point-0000054 deposition
G1 A-88.249028 C19.228454 X187.674186 Y264.894501 Z-323.274369 E11.46554240773836479 F900.000000
; C04 POINT 55 point-0000055 deposition
G1 A-88.514391 C18.959115 X190.172157 Y263.034502 Z-323.608999 E11.66300713431522905 F900.000000
; C04 POINT 56 point-0000056 deposition
G1 A-88.760671 C18.569371 X193.368091 Y261.294741 Z-323.431613 E11.86047274954026111 F900.000000
; C04 POINT 57 point-0000057 deposition
G1 A-88.986296 C18.061871 X197.238076 Y259.689542 Z-322.727666 E12.05793924987933873 F900.000000
; C04 POINT 58 point-0000058 deposition
G1 A-89.189774 C17.439239 X201.755835 Y258.231831 Z-321.479501 E12.25540583574179603 F900.000000
; C04 POINT 59 point-0000059 deposition
G1 A-89.369726 C16.704195 X206.892039 Y256.932849 Z-319.667270 E12.45287136576130198 F900.000000
; C04 POINT 60 point-0000060 deposition
G1 A-89.524931 C15.859676 X212.613605 Y255.801763 Z-317.269991 E12.65033503276771168 F900.000000
; C04 POINT 61 point-0000061 deposition
G1 A-89.654373 C14.908962 X218.883028 Y254.845267 Z-314.266753 E12.84779675392585868 F900.000000
; C04 POINT 62 point-0000062 deposition
G1 A-89.761944 C13.808975 X225.914116 Y254.041165 Z-310.474441 E13.04525694106673308 F900.000000
; C04 POINT 63 point-0000063 deposition
G1 A-89.848205 C12.564659 X233.643870 Y253.386527 Z-305.865864 E13.24271468073948358 F900.000000
; C04 POINT 64 point-0000064 deposition
G1 A-89.913264 C11.185628 X241.979598 Y252.879094 Z-300.429044 E13.44016808303510555 F900.000000
; C04 POINT 65 point-0000065 deposition
G1 A-89.958751 C9.670156 X250.884512 Y252.507134 Z-294.110967 E13.63761691289099460 F900.000000
; C04 POINT 66 point-0000066 deposition
G1 A-89.986937 C8.016409 X260.314547 Y252.254922 Z-286.856966 E13.83506243563488510 F900.000000
; C04 POINT 67 point-0000067 deposition
G1 A-90.000842 C6.222805 X270.215646 Y252.102747 Z-278.613358 E14.03250731647793250 F900.000000
; C04 POINT 68 point-0000068 deposition
G1 A-90.004322 C4.288439 X280.521035 Y252.027246 Z-269.330862 E14.22995400235865287 F900.000000
; C04 POINT 69 point-0000069 deposition
G1 A-90.002143 C2.213548 X291.148773 Y252.002215 Z-258.968814 E14.42740289673252187 F900.000000
; C04 POINT 70 point-0000070 deposition
G1 A-90.000000 C0.000000 X302.000000 Y252.000000 Z-247.500000 E14.62485260688009732 F900.000000
; C04 EVENT event-0000002 retract
G1 E13.62485260688009732 F1800.000000
; C04 POINT 71 point-0000071 travel
G1 A-90.000000 C0.000000 X302.000000 Y255.000000 Z-247.500000 F1800.000000
; C04 EVENT event-0000003 prime
G1 E14.62485260688009732 F900.000000
; C04 POINT 72 point-0000072 deposition
G1 A-90.002143 C2.213548 X291.220238 Y255.001185 Z-258.968907 E14.80804210278978995 F900.000000
; C04 POINT 73 point-0000073 deposition
G1 A-90.004322 C4.288439 X280.663489 Y255.023243 Z-269.331180 E14.99131567786853435 F900.000000
; C04 POINT 74 point-0000074 deposition
G1 A-90.000842 C6.222805 X270.428576 Y255.094045 Z-278.613955 E15.17467007812146583 F900.000000
; C04 POINT 75 point-0000075 deposition
G1 A-89.986937 C8.016409 X260.597524 Y255.240048 Z-286.857838 E15.35808229440656363 F900.000000
; C04 POINT 76 point-0000076 deposition
G1 A-89.958751 C9.670156 X251.236766 Y255.484913 Z-294.112061 E15.54161871892216081 F900.000000
; C04 POINT 77 point-0000077 deposition
G1 A-89.913264 C11.185628 X242.399568 Y255.848446 Z-300.430263 E15.72543364780164567 F900.000000
; C04 POINT 78 point-0000078 deposition
G1 A-89.848205 C12.564659 X234.130086 Y256.346273 Z-305.867085 E15.90949998596117853 F900.000000
; C04 POINT 79 point-0000079 deposition
G1 A-89.761944 C13.808975 X226.465163 Y256.989982 Z-310.475524 E16.09379425810953243 F900.000000
; C04 POINT 80 point-0000080 deposition
G1 A-89.654373 C14.908962 X219.497547 Y257.781653 Z-314.267499 E16.27828943198459433 F900.000000
; C04 POINT 81 point-0000081 deposition
G1 A-89.524931 C15.859676 X213.290121 Y258.724489 Z-317.270282 E16.46301187208750113 F900.000000
; C04 POINT 82 point-0000082 deposition
G1 A-89.369726 C16.704195 X207.629098 Y259.840897 Z-319.666965 E16.64795964615970213 F900.000000
; C04 POINT 83 point-0000083 deposition
G1 A-89.189774 C17.439239 X202.552037 Y261.124244 Z-321.478451 E16.83312295001505017 F900.000000
; C04 POINT 84 point-0000084 deposition
G1 A-88.986296 C18.061871 X198.092096 Y262.565411 Z-322.725719 E17.01848833329106329 F900.000000
; C04 POINT 85 point-0000085 deposition
G1 A-88.760671 C18.569371 X194.278638 Y264.153211 Z-323.428613 E17.20405320990024319 F900.000000
; C04 POINT 86 point-0000086 deposition
G1 A-88.514391 C18.959115 X191.138155 Y265.874706 Z-323.604784 E17.38977951552479179 F900.000000
; C04 POINT 87 point-0000087 deposition
G1 A-88.249028 C19.228454 X188.694617 Y267.715597 Z-323.268770 E17.57566360921751092 F900.000000
; C04 POINT 88 point-0000088 deposition
G1 A-87.966213 C19.374599 X186.970287 Y269.660362 Z-322.431169 E17.76170549892234354 F900.000000
; C04 POINT 89 point-0000089 deposition
G1 A-87.664973 C19.408382 X185.905481 Y271.709117 Z-321.130320 E17.94791002903595406 F900.000000
; C04 POINT 90 point-0000090 deposition
G1 A-87.340670 C19.362207 X185.312637 Y273.885515 Z-319.451776 E18.13423801367895356 F900.000000
; C04 POINT 91 point-0000091 deposition
G1 A-86.995555 C19.233711 X185.205296 Y276.169969 Z-317.397697 E18.32068068270317426 F900.000000
; C04 POINT 92 point-0000092 deposition
G1 A-86.631821 C19.020569 X185.595530 Y278.542580 Z-314.968379 E18.50724497192758966 F900.000000
; C04 POINT 93 point-0000093 deposition
G1 A-86.251640 C18.720391 X186.494484 Y280.982896 Z-312.161934 E18.69394241100711940 F900.000000
; C04 POINT 94 point-0000094 deposition
G1 A-85.857170 C18.330718 X187.912487 Y283.469827 Z-308.974132 E18.88074097965469273 F900.000000
; C04 POINT 95 point-0000095 deposition
G1 A-85.450548 C17.849066 X189.858432 Y285.981823 Z-305.398412 E19.06761171423042129 F900.000000
; C04 POINT 96 point-0000096 deposition
G1 A-85.033900 C17.272908 X192.339498 Y288.496851 Z-301.425723 E19.25456492229007392 F900.000000
; C04 POINT 97 point-0000097 deposition
G1 A-84.609356 C16.599682 X195.361043 Y290.992228 Z-297.044454 E19.44161319943786362 F900.000000
; C04 POINT 98 point-0000098 deposition
G1 A-84.173641 C15.845148 X198.823026 Y293.478799 Z-292.276027 E19.62876264791429268 F900.000000
; C04 POINT 99 point-0000099 deposition
G1 A-83.723677 C15.025324 X202.625292 Y295.966337 Z-287.145135 E19.81597032413285184 F900.000000
; C04 POINT 100 point-0000100 deposition
G1 A-83.261971 C14.137676 X206.771904 Y298.429348 Z-281.641863 E20.00324700231293102 F900.000000
; C04 POINT 101 point-0000101 deposition
G1 A-82.791019 C13.179657 X211.265234 Y300.841982 Z-275.755130 E20.19060609173641167 F900.000000
; C04 POINT 102 point-0000102 deposition
G1 A-82.313343 C12.148633 X216.106093 Y303.177875 Z-269.472517 E20.37806878731889237 F900.000000
; C04 POINT 103 point-0000103 deposition
G1 A-81.831497 C11.041933 X221.293441 Y305.410020 Z-262.780413 E20.56560784618321130 F900.000000
; C04 POINT 104 point-0000104 deposition
G1 A-81.348077 C9.856935 X226.823344 Y307.511139 Z-255.664341 E20.75322347195309408 F900.000000
; C04 POINT 105 point-0000105 deposition
G1 A-80.865736 C8.591053 X232.688785 Y309.453634 Z-248.109012 E20.94092893042509173 F900.000000
; C04 POINT 106 point-0000106 deposition
G1 A-80.386502 C7.243453 X238.870680 Y311.213833 Z-240.101635 E21.12874510715646827 F900.000000
; C04 POINT 107 point-0000107 deposition
G1 A-79.903609 C5.834664 X245.241065 Y312.820034 Z-231.670815 E21.31665978761637111 F900.000000
; C04 POINT 108 point-0000108 deposition
G1 A-79.416947 C4.369457 X251.754969 Y314.261451 Z-222.821506 E21.50465811402173063 F900.000000
; C04 POINT 109 point-0000109 deposition
G1 A-78.929482 C2.845298 X258.402507 Y315.509802 Z-213.545910 E21.69274901374757033 F900.000000
; C04 POINT 110 point-0000110 deposition
G1 A-78.444258 C1.259539 X265.171445 Y316.537201 Z-203.835821 E21.88094375547705325 F900.000000
; C04 POINT 111 point-0000111 deposition
G1 A-77.964429 C-0.390624 X272.046989 Y317.316275 Z-193.682557 E22.06927319106259108 F900.000000
; C04 POINT 112 point-0000112 deposition
G1 A-77.493261 C-2.108021 X279.011132 Y317.820349 Z-183.077462 E22.25770885948226878 F900.000000
; C04 POINT 113 point-0000113 deposition
G1 A-77.034138 C-3.895442 X286.041719 Y318.024221 Z-172.012327 E22.44625334023608208 F900.000000
; C04 POINT 114 point-0000114 deposition
G1 A-76.590582 C-5.755628 X293.112228 Y317.904449 Z-160.479585 E22.63491010757040082 F900.000000
; C04 POINT 115 point-0000115 deposition
G1 A-76.159961 C-7.680603 X300.150004 Y317.469942 Z-148.491758 E22.82371946935739880 F900.000000
; C04 POINT 116 point-0000116 deposition
G1 A-75.731578 C-9.649035 X307.036029 Y316.767009 Z-136.090929 E23.01267146575282214 F900.000000
; C04 POINT 117 point-0000117 deposition
G1 A-75.307640 C-11.661750 X313.742721 Y315.779888 Z-123.284264 E23.20175586412981598 F900.000000
; C04 POINT 118 point-0000118 deposition
G1 A-74.890948 C-13.720661 X320.244314 Y314.492288 Z-110.077531 E23.39096475328975526 F900.000000
; C04 POINT 119 point-0000119 deposition
G1 A-74.484449 C-15.827947 X326.513094 Y312.890090 Z-96.476385 E23.58031726398304233 F900.000000
; C04 POINT 120 point-0000120 deposition
G1 A-74.091274 C-17.986048 X332.518908 Y310.961648 Z-82.486558 E23.76986083890941763 F900.000000
; C04 POINT 121 point-0000121 deposition
G1 A-73.714784 C-20.197652 X338.229045 Y308.697864 Z-68.114049 E23.95957002967167194 F900.000000
; C04 POINT 122 point-0000122 deposition
G1 A-73.358620 C-22.465666 X343.607580 Y306.093125 Z-53.365500 E24.14942673076534208 F900.000000
; C04 POINT 123 point-0000123 deposition
G1 A-73.025148 C-24.791385 X348.610884 Y303.150372 Z-38.250641 E24.33942146200069621 F900.000000
; C04 POINT 124 point-0000124 deposition
G1 A-72.698711 C-27.156252 X353.153377 Y299.921244 Z-22.803053 E24.52962606935150821 F900.000000
; C04 POINT 125 point-0000125 deposition
G1 A-72.377403 C-29.558341 X357.195739 Y296.412249 Z-7.039300 E24.72003025096365161 F900.000000
; C04 POINT 126 point-0000126 deposition
G1 A-72.062721 C-31.999830 X360.706508 Y292.621851 Z9.027986 E24.91060371069433893 F900.000000
; C04 POINT 127 point-0000127 deposition
G1 A-71.756594 C-34.483650 X363.652825 Y288.549796 Z25.387061 E25.10131406817191629 F900.000000
; C04 POINT 128 point-0000128 deposition
G1 A-71.461512 C-37.013279 X365.999020 Y284.198732 Z42.025284 E25.29222484693637057 F900.000000
; C04 POINT 129 point-0000129 deposition
G1 A-71.180611 C-39.592732 X367.705907 Y279.574745 Z58.928598 E25.48337763622465287 F900.000000
; C04 POINT 130 point-0000130 deposition
G1 A-70.917794 C-42.226425 X368.730198 Y274.688757 Z76.080236 E25.67472628193362490 F900.000000
; C04 POINT 131 point-0000131 deposition
G1 A-70.677832 C-44.919019 X369.023774 Y269.558975 Z93.459119 E25.86622515538578786 F900.000000
; C04 POINT 132 point-0000132 deposition
G1 A-70.451783 C-47.666804 X368.535447 Y264.203656 Z111.054737 E26.05786929093315054 F900.000000
; C04 POINT 133 point-0000133 deposition
G1 A-70.232654 C-50.468228 X367.217753 Y258.633075 Z128.853811 E26.24976609310015287 F900.000000
; C04 POINT 134 point-0000134 deposition
G1 A-70.027495 C-53.330323 X365.018959 Y252.867310 Z146.825856 E26.44187106127042371 F900.000000
; C04 POINT 135 point-0000135 deposition
G1 A-69.839202 C-56.257399 X361.883311 Y246.931696 Z164.939539 E26.63412080936886838 F900.000000
; C04 POINT 136 point-0000136 deposition
G1 A-69.671915 C-59.253854 X357.751279 Y240.861945 Z183.154167 E26.82646317353040074 F900.000000
; C04 POINT 137 point-0000137 deposition
G1 A-69.531132 C-62.323780 X352.560324 Y234.708573 Z201.416696 E27.01902429424246029 F900.000000
; C04 POINT 138 point-0000138 deposition
G1 A-69.423765 C-65.470474 X346.246998 Y228.539112 Z219.659079 E27.21179373164277037 F900.000000
; C04 POINT 139 point-0000139 deposition
G1 A-69.358135 C-68.695884 X338.750407 Y222.441938 Z237.795591 E27.40468881309310161 F900.000000
; C04 POINT 140 point-0000140 deposition
G1 A-69.343889 C-71.999992 X330.016957 Y216.529291 Z255.720586 E27.59762422324553287 F900.000000
; C04 EVENT event-0000004 retract
G1 E26.59762422324553287 F1800.000000
; C04 POINT 141 point-0000141 travel
G1 A-69.343889 C-71.999992 X333.012635 Y216.488425 Z255.799722 F1800.000000
; C04 EVENT event-0000005 prime
G1 E27.59762422324553287 F900.000000
; C04 POINT 142 point-0000142 deposition
G1 A-69.358135 C-68.695884 X341.738653 Y222.522540 Z237.925560 E27.79158259959098337 F900.000000
; C04 POINT 143 point-0000143 deposition
G1 A-69.423765 C-65.470474 X349.221522 Y228.733617 Z219.834333 E27.98549867558127571 F900.000000
; C04 POINT 144 point-0000144 deposition
G1 A-69.531132 C-62.323780 X355.516644 Y235.009884 Z201.631348 E28.17914373689674971 F900.000000
; C04 POINT 145 point-0000145 deposition
G1 A-69.671915 C-59.253854 X360.686346 Y241.263865 Z183.402326 E28.37228905394270607 F900.000000
; C04 POINT 146 point-0000146 deposition
G1 A-69.839202 C-56.257399 X364.795094 Y247.428825 Z165.215699 E28.56485331499556588 F900.000000
; C04 POINT 147 point-0000147 deposition
G1 A-70.027495 C-53.330323 X367.906115 Y253.454477 Z147.125280 E28.75703652183770390 F900.000000
; C04 POINT 148 point-0000148 deposition
G1 A-70.232654 C-50.468228 X370.079411 Y259.306011 Z129.172106 E28.94871347678571006 F900.000000
; C04 POINT 149 point-0000149 deposition
G1 A-70.451783 C-47.666804 X371.370966 Y264.959014 Z111.387901 E29.13974306837119788 F900.000000
; C04 POINT 150 point-0000150 deposition
G1 A-70.677832 C-44.919019 X371.832727 Y270.393975 Z93.803331 E29.33006366686815106 F900.000000
; C04 POINT 151 point-0000151 deposition
G1 A-70.917794 C-42.226425 X371.512163 Y275.600643 Z76.432400 E29.51985750896251188 F900.000000
; C04 POINT 152 point-0000152 deposition
G1 A-71.180611 C-39.592732 X370.460395 Y280.561113 Z59.286156 E29.70911094640250445 F900.000000
; C04 POINT 153 point-0000153 deposition
G1 A-71.461512 C-37.013279 X368.725485 Y285.257651 Z42.385917 E29.89774817207710088 F900.000000
; C04 POINT 154 point-0000154 deposition
G1 A-71.756594 C-34.483650 X366.350623 Y289.679761 Z25.748642 E30.08569277377308950 F900.000000
; C04 POINT 155 point-0000155 deposition
G1 A-72.062721 C-31.999830 X363.374963 Y293.821345 Z9.388696 E30.27303935946015145 F900.000000
; C04 POINT 156 point-0000156 deposition
G1 A-72.377403 C-29.558341 X359.834184 Y297.679605 Z-6.681002 E30.45992505066085575 F900.000000
; C04 POINT 157 point-0000157 deposition
G1 A-72.698711 C-27.156252 X355.761117 Y301.254979 Z-22.448637 E30.64631359059895850 F900.000000
; C04 POINT 158 point-0000158 deposition
G1 A-73.025148 C-24.791385 X351.187238 Y304.549122 Z-37.901716 E30.83217079407508197 F900.000000
; C04 POINT 159 point-0000159 deposition
G1 A-73.358620 C-22.465666 X346.151731 Y307.555678 Z-53.023539 E31.01746067844188180 F900.000000
; C04 POINT 160 point-0000160 deposition
G1 A-73.714784 C-20.197652 X340.740152 Y310.222622 Z-67.779855 E31.20231197425037274 F900.000000
; C04 POINT 161 point-0000161 deposition
G1 A-74.091274 C-17.986048 X334.996116 Y312.547084 Z-82.160817 E31.38671660337858916 F900.000000
; C04 POINT 162 point-0000162 deposition
G1 A-74.484449 C-15.827947 X328.955522 Y314.534795 Z-96.159734 E31.57064944197756463 F900.000000
; C04 POINT 163 point-0000163 deposition
G1 A-74.890948 C-13.720661 X322.651022 Y316.194994 Z-109.770575 E31.75406894012231723 F900.000000
; C04 POINT 164 point-0000164 deposition
G1 A-75.307640 C-11.661750 X316.112869 Y317.539162 Z-122.987483 E31.93707543983609893 F900.000000
; C04 POINT 165 point-0000165 deposition
G1 A-75.731578 C-9.649035 X309.368843 Y318.581351 Z-135.804745 E32.11971782414241970 F900.000000
; C04 POINT 166 point-0000166 deposition
G1 A-76.159961 C-7.680603 X302.444828 Y319.337833 Z-148.216740 E32.30200836575687494 F900.000000
; C04 POINT 167 point-0000167 deposition
G1 A-76.590582 C-5.755628 X295.368369 Y319.824464 Z-160.216457 E32.48391659232859487 F900.000000
; C04 POINT 168 point-0000168 deposition
G1 A-77.034138 C-3.895442 X288.258409 Y319.994875 Z-171.761309 E32.66540640925079829 F900.000000
; C04 POINT 169 point-0000169 deposition
G1 A-77.493261 C-2.108021 X281.187732 Y319.839986 Z-182.838482 E32.84655769100955665 F900.000000
; C04 POINT 170 point-0000170 deposition
G1 A-77.964429 C-0.390624 X274.182906 Y319.383283 Z-193.455510 E33.02738455679472353 F900.000000
; C04 POINT 171 point-0000171 deposition
G1 A-78.444258 C1.259539 X267.266120 Y318.650020 Z-203.620577 E33.20789832208463176 F900.000000
; C04 POINT 172 point-0000172 deposition
G1 A-78.929482 C2.845298 X260.455306 Y317.667034 Z-213.342355 E33.38804784626139636 F900.000000
; C04 POINT 173 point-0000173 deposition
G1 A-79.416947 C4.369457 X253.765358 Y316.461642 Z-222.629485 E33.56789892494973424 F900.000000
; C04 POINT 174 point-0000174 deposition
G1 A-79.903609 C5.834664 X247.208581 Y315.061732 Z-231.490174 E33.74748381608715734 F900.000000
; C04 POINT 175 point-0000175 deposition
G1 A-80.386502 C7.243453 X240.794968 Y313.495585 Z-239.932418 E33.92683377091535108 F900.000000
; C04 POINT 176 point-0000176 deposition
G1 A-80.865736 C8.591053 X234.569422 Y311.774077 Z-247.951248 E34.10591110057130166 F900.000000
; C04 POINT 177 point-0000177 deposition
G1 A-81.348077 C9.856935 X228.659881 Y309.868913 Z-255.517665 E34.28468635246598466 F900.000000
; C04 POINT 178 point-0000178 deposition
G1 A-81.831497 C11.041933 X223.085513 Y307.803762 Z-262.644411 E34.46320613005391319 F900.000000
; C04 POINT 179 point-0000179 deposition
G1 A-82.313343 C12.148633 X217.853379 Y305.606249 Z-269.346770 E34.64150195112350869 F900.000000
; C04 POINT 180 point-0000180 deposition
G1 A-82.791019 C13.179657 X212.967406 Y303.303725 Z-275.639230 E34.81957869571623919 F900.000000
; C04 POINT 181 point-0000181 deposition
G1 A-83.261971 C14.137676 X208.428502 Y300.923332 Z-281.535434 E34.99738606397980439 F900.000000
; C04 POINT 182 point-0000182 deposition
G1 A-83.723677 C15.025324 X204.235918 Y298.491427 Z-287.047801 E35.17497011387524755 F900.000000
; C04 POINT 183 point-0000183 deposition
G1 A-84.173641 C15.845148 X200.387324 Y296.033864 Z-292.187438 E35.35236371397456489 F900.000000
; C04 POINT 184 point-0000184 deposition
G1 A-84.609356 C16.599682 X196.878721 Y293.576147 Z-296.964478 E35.52959662136622984 F900.000000
; C04 POINT 185 point-0000185 deposition
G1 A-85.033900 C17.272908 X193.810072 Y291.108622 Z-301.354087 E35.70657848114387101 F900.000000
; C04 POINT 186 point-0000186 deposition
G1 A-85.450548 C17.849066 X191.281441 Y288.620437 Z-305.334607 E35.88332259697723628 F900.000000
; C04 POINT 187 point-0000187 deposition
G1 A-85.857170 C18.330718 X189.287488 Y286.134289 Z-308.917670 E36.05985867249382308 F900.000000
; C04 POINT 188 point-0000188 deposition
G1 A-86.251640 C18.720391 X187.821042 Y283.672228 Z-312.112350 E36.23621129243603452 F900.000000
; C04 POINT 189 point-0000189 deposition
G1 A-86.631821 C19.020569 X186.873043 Y281.255901 Z-314.925243 E36.41232620777228930 F900.000000
; C04 POINT 190 point-0000190 deposition
G1 A-86.995555 C19.233711 X186.432973 Y278.906482 Z-317.360610 E36.58814292839337210 F900.000000
; C04 POINT 191 point-0000191 deposition
G1 A-87.340670 C19.362207 X186.489700 Y276.644401 Z-319.420352 E36.76368793915761452 F900.000000
; C04 POINT 192 point-0000192 deposition
G1 A-87.664973 C19.408382 X187.031148 Y274.489543 Z-321.104188 E36.93897875339629517 F900.000000
; C04 POINT 193 point-0000193 deposition
G1 A-87.966213 C19.374599 X188.043716 Y272.461504 Z-322.410169 E37.11400246775400547 F900.000000
; C04 POINT 194 point-0000194 deposition
G1 A-88.249028 C19.228454 X189.714782 Y270.536669 Z-323.252487 E37.28868018437597717 F900.000000
; C04 POINT 195 point-0000195 deposition
G1 A-88.514391 C18.959115 X192.104025 Y268.714888 Z-323.592682 E37.46302436813923531 F900.000000
; C04 POINT 196 point-0000196 deposition
G1 A-88.760671 C18.569371 X195.189142 Y267.011665 Z-323.420180 E37.63703808634711789 F900.000000
; C04 POINT 197 point-0000197 deposition
G1 A-88.986296 C18.061871 X198.946115 Y265.441269 Z-322.720460 E37.81071714036026651 F900.000000
; C04 POINT 198 point-0000198 deposition
G1 A-89.189774 C17.439239 X203.348250 Y264.016652 Z-321.475887 E37.98398896693421336 F900.000000
; C04 POINT 199 point-0000199 deposition
G1 A-89.369726 C16.704195 X208.366162 Y262.748944 Z-319.666624 E38.15685211642840026 F900.000000
; C04 POINT 200 point-0000200 deposition
G1 A-89.524931 C15.859676 X213.966623 Y261.647217 Z-317.271703 E38.32928276337960651 F900.000000
; C04 POINT 201 point-0000201 deposition
G1 A-89.654373 C14.908962 X220.112027 Y260.718044 Z-314.270308 E38.50126291096962146 F900.000000
; C04 POINT 202 point-0000202 deposition
G1 A-89.761944 C13.808975 X227.016176 Y259.938938 Z-310.479211 E38.67279033483397878 F900.000000
; C04 POINT 203 point-0000203 deposition
G1 A-89.848205 C12.564659 X234.616329 Y259.306596 Z-305.871113 E38.84391889894818348 F900.000000
; C04 POINT 204 point-0000204 deposition
G1 A-89.913264 C11.185628 X242.819625 Y258.818884 Z-300.434203 E39.01459548665650876 F900.000000
; C04 POINT 205 point-0000205 deposition
G1 A-89.958751 C9.670156 X251.589136 Y258.464140 Z-294.115547 E39.18477323103799335 F900.000000
; C04 POINT 206 point-0000206 deposition
G1 A-89.986937 C8.016409 X260.880603 Y258.226658 Z-286.860585 E39.35439707239981845 F900.000000
; C04 POINT 207 point-0000207 deposition
G1 A-90.000842 C6.222805 X270.641565 Y258.086472 Z-278.615815 E39.52377370353758233 F900.000000
; C04 POINT 208 point-0000208 deposition
G1 A-90.004322 C4.288439 X280.805964 Y258.019858 Z-269.332160 E39.69303411339932079 F900.000000
; C04 POINT 209 point-0000209 deposition
G1 A-90.002143 C2.213548 X291.291706 Y258.000333 Z-258.969194 E39.86213162492692162 F900.000000
; C04 POINT 210 point-0000210 deposition
G1 A-90.000000 C0.000000 X302.000000 Y258.000000 Z-247.500000 E40.03106039553217117 F900.000000
M400 ; finish queued motion
M2
