; 5AxisSclicer P03 P06 real STEP planar_offset
; reference XYZAC profile; offline simulation only
G21 ; millimetres
G90 ; absolute axes
M82 ; absolute extrusion
G92 E0 ; known initial extrusion position
; P03 POINT 1 point-0000001 approach
G1 A0.000000 C0.000000 X254.784315 Y240.721539 Z312.000000 F100.000000
; P03 EVENT event-0000001 prime
G1 E1.0 F100.000000
; P03 POINT 2 point-0000002 deposition
G1 A0.000000 C0.000000 X255.071578 Y240.335432 Z312.000000 E1.07202854709770912 F100.000000
; P03 POINT 3 point-0000003 deposition
G1 A0.000000 C0.000000 X284.271914 Y201.087850 Z312.000000 E8.39370957502815112 F100.000000
; P03 POINT 4 point-0000004 deposition
G1 A0.000000 C0.000000 X286.999738 Y203.117360 Z312.000000 E8.90258818046242992 F100.000000
; P03 POINT 5 point-0000005 deposition
G1 A0.000000 C0.000000 X257.512138 Y242.751050 Z312.000000 E16.29629791270394192 F100.000000
; P03 POINT 6 point-0000006 deposition
G1 A0.000000 C0.000000 X254.784315 Y240.721539 Z312.000000 E16.80517653228855152 F100.000000
; P03 EVENT event-0000002 retract
G1 E15.80517653228855152 F100.000000
; P03 POINT 7 point-0000007 travel
G1 A0.000000 C0.000000 X255.623846 Y240.598307 Z312.000000 F100.000000
; P03 EVENT event-0000003 prime
G1 E16.80517653228855152 F100.000000
; P03 POINT 8 point-0000008 deposition
G1 A0.000000 C0.000000 X284.395146 Y201.927382 Z312.000000 E24.01928140581101252 F100.000000
; P03 POINT 9 point-0000009 deposition
G1 A0.000000 C0.000000 X286.160206 Y203.240592 Z312.000000 E24.34855528199611912 F100.000000
; P03 POINT 10 point-0000010 deposition
G1 A0.000000 C0.000000 X257.388905 Y241.911518 Z312.000000 E31.56266025724478112 F100.000000
; P03 POINT 11 point-0000011 deposition
G1 A0.000000 C0.000000 X255.623846 Y240.598307 Z312.000000 E31.89193413342990467 F100.000000
; P03 EVENT event-0000004 retract
G1 E30.89193413342990467 F100.000000
; P03 POINT 12 point-0000012 travel
G1 A0.000000 C0.000000 X256.463378 Y240.475075 Z312.000000 F100.000000
; P03 EVENT event-0000005 prime
G1 E31.89193413342990467 F100.000000
; P03 POINT 13 point-0000013 deposition
G1 A0.000000 C0.000000 X284.518378 Y202.766914 Z312.000000 E38.92643430544681967 F100.000000
; P03 POINT 14 point-0000014 deposition
G1 A0.000000 C0.000000 X285.320674 Y203.363825 Z312.000000 E39.07610345238275407 F100.000000
; P03 POINT 15 point-0000015 deposition
G1 A0.000000 C0.000000 X257.265673 Y241.071985 Z312.000000 E46.11060367063860907 F100.000000
; P03 POINT 16 point-0000016 deposition
G1 A0.000000 C0.000000 X256.463378 Y240.475075 Z312.000000 E46.26027281757455192 F100.000000
M400 ; finish queued motion
M2
