; 5AxisSclicer C02 Curve Buildup
; reference XYZAC profile; offline simulation only
G21 ; millimetres
G90 ; absolute axes
M82 ; absolute extrusion
G92 E0 ; known initial extrusion position
; C02 POINT 1 point-0000001 approach
G1 A-90.000000 C0.000000 X302.000000 Y252.000000 Z-247.500000 F1800.000000
; C02 EVENT event-0000001 prime
G1 E1.0 F900.000000
; C02 POINT 2 point-0000002 deposition
G1 A-90.002143 C2.213548 X291.148768 Y252.002036 Z-258.968771 E1.19745035297461133 F900.000000
; C02 POINT 3 point-0000003 deposition
G1 A-90.004322 C4.288439 X280.521004 Y252.026629 Z-269.330672 E1.39490226317007393 F900.000000
; C02 POINT 4 point-0000004 deposition
G1 A-90.000842 C6.222805 X270.215561 Y252.101617 Z-278.612950 E1.59235560879232885 F900.000000
; C02 POINT 5 point-0000005 deposition
G1 A-89.986937 C8.016409 X260.314399 Y252.253438 Z-286.856377 E1.78981024714836917 F900.000000
; C02 POINT 6 point-0000006 deposition
G1 A-89.958751 C9.670156 X250.884333 Y252.505688 Z-294.110366 E1.98726615595860181 F900.000000
; C02 POINT 7 point-0000007 deposition
G1 A-89.913264 C11.185628 X241.979438 Y252.878012 Z-300.428566 E2.18472336982730911 F900.000000
; C02 POINT 8 point-0000008 deposition
G1 A-89.848205 C12.564659 X233.643772 Y253.385954 Z-305.865596 E2.38218175091224155 F900.000000
; C02 POINT 9 point-0000009 deposition
G1 A-89.761944 C13.808975 X225.914090 Y254.041031 Z-310.474376 E2.57964118235938715 F900.000000
; C02 POINT 10 point-0000010 deposition
G1 A-89.654373 C14.908962 X218.883028 Y254.845267 Z-314.266770 E2.77710154091914465 F900.000000
; C02 POINT 11 point-0000011 deposition
G1 A-89.524931 C15.859676 X212.613605 Y255.801763 Z-317.270350 E2.97456265850492470 F900.000000
; C02 POINT 12 point-0000012 deposition
G1 A-89.369726 C16.704195 X206.892039 Y256.932849 Z-319.668212 E3.17202443464770613 F900.000000
; C02 POINT 13 point-0000013 deposition
G1 A-89.189774 C17.439239 X201.755835 Y258.231831 Z-321.480997 E3.36948679930322125 F900.000000
; C02 POINT 14 point-0000014 deposition
G1 A-88.986296 C18.061871 X197.238076 Y259.689542 Z-322.729434 E3.56694967853752555 F900.000000
; C02 POINT 15 point-0000015 deposition
G1 A-88.760671 C18.569371 X193.368091 Y261.294741 Z-323.433181 E3.76441297367307050 F900.000000
; C02 POINT 16 point-0000016 deposition
G1 A-88.514391 C18.959115 X190.172157 Y263.034502 Z-323.610041 E3.96187656849785465 F900.000000
; C02 POINT 17 point-0000017 deposition
G1 A-88.249028 C19.228454 X187.674186 Y264.894501 Z-323.274819 E4.15934042267889975 F900.000000
; C02 POINT 18 point-0000018 deposition
G1 A-87.966213 C19.374599 X185.896386 Y266.859196 Z-322.438378 E4.35680449491481159 F900.000000
; C02 POINT 19 point-0000019 deposition
G1 A-87.664973 C19.408382 X184.779063 Y268.928673 Z-321.139193 E4.55426874363417284 F900.000000
; C02 POINT 20 point-0000020 deposition
G1 A-87.340670 C19.362207 X184.134484 Y271.126621 Z-319.462673 E4.75173309685505630 F900.000000
; C02 POINT 21 point-0000021 deposition
G1 A-86.995555 C19.233711 X183.976108 Y273.433467 Z-317.410846 E4.94919752417750690 F900.000000
; C02 POINT 22 point-0000022 deposition
G1 A-86.631821 C19.020569 X184.315993 Y275.829299 Z-314.983840 E5.14666200248455200 F900.000000
; C02 POINT 23 point-0000023 deposition
G1 A-86.251640 C18.720391 X185.165281 Y278.293649 Z-312.179602 E5.34412650956495170 F900.000000
; C02 POINT 24 point-0000024 deposition
G1 A-85.857170 C18.330718 X186.534101 Y280.805514 Z-308.993851 E5.54159101529463378 F900.000000
; C02 POINT 25 point-0000025 deposition
G1 A-85.450548 C17.849066 X188.431161 Y283.343445 Z-305.420190 E5.73905549119447812 F900.000000
; C02 POINT 26 point-0000026 deposition
G1 A-85.033900 C17.272908 X190.863632 Y285.885430 Z-301.449751 E5.93651992427609999 F900.000000
; C02 POINT 27 point-0000027 deposition
G1 A-84.609356 C16.599682 X193.836871 Y288.408810 Z-297.071100 E6.13398430149097166 F900.000000
; C02 POINT 28 point-0000028 deposition
G1 A-84.173641 C15.845148 X197.250881 Y290.924420 Z-292.305616 E6.33144862417851768 F900.000000
; C02 POINT 29 point-0000029 deposition
G1 A-83.723677 C15.025324 X201.005361 Y293.442143 Z-287.177937 E6.52891287770609825 F900.000000
; C02 POINT 30 point-0000030 deposition
G1 A-83.261971 C14.137676 X205.104386 Y295.936512 Z-281.678041 E6.72637705529005807 F900.000000
; C02 POINT 31 point-0000031 deposition
G1 A-82.791019 C13.179657 X209.550344 Y298.381696 Z-275.794701 E6.92384115034726995 F900.000000
; C02 POINT 32 point-0000032 deposition
G1 A-82.313343 C12.148633 X214.344090 Y300.751331 Z-269.515362 E7.12130516964013220 F900.000000
; C02 POINT 33 point-0000033 deposition
G1 A-81.831497 C11.041933 X219.484436 Y303.018559 Z-262.826460 E7.31876912613947446 F900.000000
; C02 POINT 34 point-0000034 deposition
G1 A-81.348077 C9.856935 X224.967421 Y305.156184 Z-255.713679 E7.51623301384297927 F900.000000
; C02 POINT 35 point-0000035 deposition
G1 A-80.865736 C8.591053 X230.786059 Y307.136656 Z-248.161872 E7.71369682912976424 F900.000000
; C02 POINT 36 point-0000036 deposition
G1 A-80.386502 C7.243453 X236.921337 Y308.936313 Z-240.158360 E7.91116057320432032 F900.000000
; C02 POINT 37 point-0000037 deposition
G1 A-79.903609 C5.834664 X243.245366 Y310.583441 Z-231.731571 E8.10862427872205219 F900.000000
; C02 POINT 38 point-0000038 deposition
G1 A-79.416947 C4.369457 X249.713168 Y312.067332 Z-222.886471 E8.30608794048086025 F900.000000
; C02 POINT 39 point-0000039 deposition
G1 A-78.929482 C2.845298 X256.314889 Y313.359747 Z-213.615126 E8.50355155404668987 F900.000000
; C02 POINT 40 point-0000040 deposition
G1 A-78.444258 C1.259539 X263.038331 Y314.432834 Z-203.909174 E8.70101511524974362 F900.000000
; C02 POINT 41 point-0000041 deposition
G1 A-77.964429 C-0.390624 X269.868805 Y315.259189 Z-193.759826 E8.89847867059255616 F900.000000
; C02 POINT 42 point-0000042 deposition
G1 A-77.493261 C-2.108021 X276.788214 Y315.812322 Z-183.158547 E9.09594222948172006 F900.000000
; C02 POINT 43 point-0000043 deposition
G1 A-77.034138 C-3.895442 X283.774441 Y316.067116 Z-172.097274 E9.29340578503685171 F900.000000
; C02 POINT 44 point-0000044 deposition
G1 A-76.590582 C-5.755628 X290.801014 Y316.000204 Z-160.568577 E9.49086933037144738 F900.000000
; C02 POINT 45 point-0000045 deposition
G1 A-76.159961 C-7.680603 X297.795509 Y315.620316 Z-148.584895 E9.68833290315650302 F900.000000
; C02 POINT 46 point-0000046 deposition
G1 A-75.731578 C-9.649035 X304.639059 Y314.973626 Z-136.188115 E9.88579655377431614 F900.000000
; C02 POINT 47 point-0000047 deposition
G1 A-75.307640 C-11.661750 X311.304112 Y314.044448 Z-123.385432 E10.08326027022969641 F900.000000
; C02 POINT 48 point-0000048 deposition
G1 A-74.890948 C-13.720661 X317.764912 Y312.816569 Z-110.182454 E10.28072404153434514 F900.000000
; C02 POINT 49 point-0000049 deposition
G1 A-74.484449 C-15.827947 X323.993830 Y311.275837 Z-96.584654 E10.47818787357032056 F900.000000
; C02 POINT 50 point-0000050 deposition
G1 A-74.091274 C-17.986048 X329.960872 Y309.410456 Z-82.597701 E10.67565184112590341 F900.000000
; C02 POINT 51 point-0000051 deposition
G1 A-73.714784 C-20.197652 X335.633308 Y307.211490 Z-68.227729 E10.87311593081929101 F900.000000
; C02 POINT 52 point-0000052 deposition
G1 A-73.358620 C-22.465666 X340.975230 Y304.673463 Z-53.481523 E11.07058012602499703 F900.000000
; C02 POINT 53 point-0000053 deposition
G1 A-73.025148 C-24.791385 X345.943072 Y301.799387 Z-38.368910 E11.26804441229449953 F900.000000
; C02 POINT 54 point-0000054 deposition
G1 A-72.698711 C-27.156252 X350.451556 Y298.640345 Z-22.923106 E11.46550886161881076 F900.000000
; C02 POINT 55 point-0000055 deposition
G1 A-72.377403 C-29.558341 X354.461418 Y295.202854 Z-7.160738 E11.66297347450626671 F900.000000
; C02 POINT 56 point-0000056 deposition
G1 A-72.062721 C-31.999830 X357.941172 Y291.485550 Z8.905677 E11.86043822716714855 F900.000000
; C02 POINT 57 point-0000057 deposition
G1 A-71.756594 C-34.483650 X360.857939 Y287.488381 Z25.264549 E12.05790309574373035 F900.000000
; C02 POINT 58 point-0000058 deposition
G1 A-71.461512 C-37.013279 X363.176200 Y283.213761 Z41.903459 E12.25536811167105842 F900.000000
; C02 POINT 59 point-0000059 deposition
G1 A-71.180611 C-39.592732 X364.856872 Y278.667651 Z58.808403 E12.45283330270237782 F900.000000
; C02 POINT 60 point-0000060 deposition
G1 A-70.917794 C-42.226425 X365.856657 Y273.861272 Z75.962546 E12.65029863738114977 F900.000000
; C02 POINT 61 point-0000061 deposition
G1 A-70.677832 C-44.919019 X366.127465 Y268.813131 Z93.344726 E12.84776408439605725 F900.000000
; C02 POINT 62 point-0000062 deposition
G1 A-70.451783 C-47.666804 X365.618223 Y263.541466 Z110.944593 E13.04522963160445885 F900.000000
; C02 POINT 63 point-0000063 deposition
G1 A-70.232654 C-50.468228 X364.281692 Y258.056010 Z128.749089 E13.24269532354473881 F900.000000
; C02 POINT 64 point-0000064 deposition
G1 A-70.027495 C-53.330323 X362.066188 Y252.377188 Z146.727822 E13.44016112555036583 F900.000000
; C02 POINT 65 point-0000065 deposition
G1 A-69.839202 C-56.257399 X358.916050 Y246.530722 Z164.849558 E13.63762699970250773 F900.000000
; C02 POINT 66 point-0000066 deposition
G1 A-69.671915 C-59.253854 X354.771914 Y240.552646 Z183.073751 E13.83509291068370233 F900.000000
; C02 POINT 67 point-0000067 deposition
G1 A-69.531132 C-62.323780 X349.571522 Y234.492896 Z201.347649 E14.03255889533597569 F900.000000
; C02 POINT 68 point-0000068 deposition
G1 A-69.423765 C-65.470474 X343.251655 Y228.419038 Z219.603311 E14.23002493381232941 F900.000000
; C02 POINT 69 point-0000069 deposition
G1 A-69.358135 C-68.695884 X335.751698 Y222.419754 Z237.754961 E14.42749098419252385 F900.000000
; C02 POINT 70 point-0000070 deposition
G1 A-69.343889 C-71.999992 X327.018400 Y216.607482 Z255.696774 E14.62495700489790473 F900.000000
M400 ; finish queued motion
M2
