; 5AxisSclicer P02 Planar Zigzag
; reference XYZAC profile; offline simulation only
G21 ; millimetres
G90 ; absolute axes
M82 ; absolute extrusion
G92 E0 ; known initial extrusion position
; P02 POINT 1 point-0000001 approach
G1 A0.000000 C0.000000 X250.300000 Y250.300000 Z252.500000 F100.000000
; P02 EVENT event-0000001 prime
G1 E1.0 F100.000000
; P02 POINT 2 point-0000002 deposition
G1 A0.000000 C0.000000 X257.700000 Y250.300000 Z252.500000 E1.9229687475304691 F100.000000
; P02 POINT 3 point-0000003 deposition
G1 A0.000000 C0.000000 X257.700000 Y255.700000 Z252.500000 E2.5964864822148655 F100.000000
; P02 POINT 4 point-0000004 deposition
G1 A0.000000 C0.000000 X250.300000 Y255.700000 Z252.500000 E3.5194552297453346 F100.000000
; P02 POINT 5 point-0000005 deposition
G1 A0.000000 C0.000000 X250.300000 Y250.300000 Z252.500000 E4.1929729644297310 F100.000000
; P02 EVENT event-0000002 retract
G1 E3.1929729644297310 F100.000000
; P02 POINT 6 point-0000006 travel
G1 A0.000000 C0.000000 X250.600000 Y250.900000 Z252.500000 F100.000000
; P02 EVENT event-0000003 prime
G1 E4.1929729644297310 F100.000000
; P02 POINT 7 point-0000007 deposition
G1 A0.000000 C0.000000 X257.400000 Y250.900000 Z252.500000 E5.0411064081063781 F100.000000
; P02 EVENT event-0000004 retract
G1 E4.0411064081063781 F100.000000
; P02 POINT 8 point-0000008 travel
G1 A0.000000 C0.000000 X257.400000 Y251.500000 Z252.500000 F100.000000
; P02 EVENT event-0000005 prime
G1 E5.0411064081063781 F100.000000
; P02 POINT 9 point-0000009 deposition
G1 A0.000000 C0.000000 X250.600000 Y251.500000 Z252.500000 E5.8892398517830252 F100.000000
; P02 EVENT event-0000006 retract
G1 E4.8892398517830252 F100.000000
; P02 POINT 10 point-0000010 travel
G1 A0.000000 C0.000000 X250.600000 Y252.100000 Z252.500000 F100.000000
; P02 EVENT event-0000007 prime
G1 E5.8892398517830252 F100.000000
; P02 POINT 11 point-0000011 deposition
G1 A0.000000 C0.000000 X257.400000 Y252.100000 Z252.500000 E6.7373732954596723 F100.000000
; P02 EVENT event-0000008 retract
G1 E5.7373732954596723 F100.000000
; P02 POINT 12 point-0000012 travel
G1 A0.000000 C0.000000 X257.400000 Y252.700000 Z252.500000 F100.000000
; P02 EVENT event-0000009 prime
G1 E6.7373732954596723 F100.000000
; P02 POINT 13 point-0000013 deposition
G1 A0.000000 C0.000000 X250.600000 Y252.700000 Z252.500000 E7.5855067391363194 F100.000000
; P02 EVENT event-0000010 retract
G1 E6.5855067391363194 F100.000000
; P02 POINT 14 point-0000014 travel
G1 A0.000000 C0.000000 X250.600000 Y253.300000 Z252.500000 F100.000000
; P02 EVENT event-0000011 prime
G1 E7.5855067391363194 F100.000000
; P02 POINT 15 point-0000015 deposition
G1 A0.000000 C0.000000 X257.400000 Y253.300000 Z252.500000 E8.4336401828129665 F100.000000
; P02 EVENT event-0000012 retract
G1 E7.4336401828129665 F100.000000
; P02 POINT 16 point-0000016 travel
G1 A0.000000 C0.000000 X257.400000 Y253.900000 Z252.500000 F100.000000
; P02 EVENT event-0000013 prime
G1 E8.4336401828129665 F100.000000
; P02 POINT 17 point-0000017 deposition
G1 A0.000000 C0.000000 X250.600000 Y253.900000 Z252.500000 E9.2817736264896136 F100.000000
; P02 EVENT event-0000014 retract
G1 E8.2817736264896136 F100.000000
; P02 POINT 18 point-0000018 travel
G1 A0.000000 C0.000000 X250.600000 Y254.500000 Z252.500000 F100.000000
; P02 EVENT event-0000015 prime
G1 E9.2817736264896136 F100.000000
; P02 POINT 19 point-0000019 deposition
G1 A0.000000 C0.000000 X257.400000 Y254.500000 Z252.500000 E10.1299070701662608 F100.000000
; P02 EVENT event-0000016 retract
G1 E9.1299070701662608 F100.000000
; P02 POINT 20 point-0000020 travel
G1 A0.000000 C0.000000 X257.400000 Y255.100000 Z252.500000 F100.000000
; P02 EVENT event-0000017 prime
G1 E10.1299070701662608 F100.000000
; P02 POINT 21 point-0000021 deposition
G1 A0.000000 C0.000000 X250.600000 Y255.100000 Z252.500000 E10.9780405138429080 F100.000000
M400 ; finish queued motion
M2
