; 5AxisSclicer C03 Curve Multi-pass Buildup
; reference XYZAC profile; offline simulation only
G21 ; millimetres
G90 ; absolute axes
M82 ; absolute extrusion
G92 E0 ; known initial extrusion position
; C03 POINT 1 point-0000001 approach
G1 A-90.000000 C0.000000 X302.000000 Y252.000000 Z-247.500000 F1800.000000
; C03 EVENT event-0000001 prime
G1 E1.0 F900.000000
; C03 POINT 2 point-0000002 deposition
G1 A-90.002143 C2.213548 X291.148768 Y252.002036 Z-258.968771 E1.19745035297461133 F900.000000
; C03 POINT 3 point-0000003 deposition
G1 A-90.004322 C4.288439 X280.521004 Y252.026629 Z-269.330672 E1.39490226317007393 F900.000000
; C03 POINT 4 point-0000004 deposition
G1 A-90.000842 C6.222805 X270.215561 Y252.101617 Z-278.612950 E1.59235560879232885 F900.000000
; C03 POINT 5 point-0000005 deposition
G1 A-89.986937 C8.016409 X260.314399 Y252.253438 Z-286.856377 E1.78981024714836917 F900.000000
; C03 POINT 6 point-0000006 deposition
G1 A-89.958751 C9.670156 X250.884333 Y252.505688 Z-294.110366 E1.98726615595860181 F900.000000
; C03 POINT 7 point-0000007 deposition
G1 A-89.913264 C11.185628 X241.979438 Y252.878012 Z-300.428566 E2.18472336982730911 F900.000000
; C03 POINT 8 point-0000008 deposition
G1 A-89.848205 C12.564659 X233.643772 Y253.385954 Z-305.865596 E2.38218175091224155 F900.000000
; C03 POINT 9 point-0000009 deposition
G1 A-89.761944 C13.808975 X225.914090 Y254.041031 Z-310.474376 E2.57964118235938715 F900.000000
; C03 POINT 10 point-0000010 deposition
G1 A-89.654373 C14.908962 X218.883028 Y254.845267 Z-314.266770 E2.77710154091914465 F900.000000
; C03 POINT 11 point-0000011 deposition
G1 A-89.524931 C15.859676 X212.613605 Y255.801763 Z-317.270350 E2.97456265850492470 F900.000000
; C03 POINT 12 point-0000012 deposition
G1 A-89.369726 C16.704195 X206.892039 Y256.932849 Z-319.668212 E3.17202443464770613 F900.000000
; C03 POINT 13 point-0000013 deposition
G1 A-89.189774 C17.439239 X201.755835 Y258.231831 Z-321.480997 E3.36948679930322125 F900.000000
; C03 POINT 14 point-0000014 deposition
G1 A-88.986296 C18.061871 X197.238076 Y259.689542 Z-322.729434 E3.56694967853752555 F900.000000
; C03 POINT 15 point-0000015 deposition
G1 A-88.760671 C18.569371 X193.368091 Y261.294741 Z-323.433181 E3.76441297367307050 F900.000000
; C03 POINT 16 point-0000016 deposition
G1 A-88.514391 C18.959115 X190.172157 Y263.034502 Z-323.610041 E3.96187656849785465 F900.000000
; C03 POINT 17 point-0000017 deposition
G1 A-88.249028 C19.228454 X187.674186 Y264.894501 Z-323.274819 E4.15934042267889975 F900.000000
; C03 POINT 18 point-0000018 deposition
G1 A-87.966213 C19.374599 X185.896386 Y266.859196 Z-322.438378 E4.35680449491481159 F900.000000
; C03 POINT 19 point-0000019 deposition
G1 A-87.664973 C19.408382 X184.779063 Y268.928673 Z-321.139193 E4.55426874363417284 F900.000000
; C03 POINT 20 point-0000020 deposition
G1 A-87.340670 C19.362207 X184.134484 Y271.126621 Z-319.462673 E4.75173309685505630 F900.000000
; C03 POINT 21 point-0000021 deposition
G1 A-86.995555 C19.233711 X183.976108 Y273.433467 Z-317.410846 E4.94919752417750690 F900.000000
; C03 POINT 22 point-0000022 deposition
G1 A-86.631821 C19.020569 X184.315993 Y275.829299 Z-314.983840 E5.14666200248455200 F900.000000
; C03 POINT 23 point-0000023 deposition
G1 A-86.251640 C18.720391 X185.165281 Y278.293649 Z-312.179602 E5.34412650956495170 F900.000000
; C03 POINT 24 point-0000024 deposition
G1 A-85.857170 C18.330718 X186.534101 Y280.805514 Z-308.993851 E5.54159101529463378 F900.000000
; C03 POINT 25 point-0000025 deposition
G1 A-85.450548 C17.849066 X188.431161 Y283.343445 Z-305.420190 E5.73905549119447812 F900.000000
; C03 POINT 26 point-0000026 deposition
G1 A-85.033900 C17.272908 X190.863632 Y285.885430 Z-301.449751 E5.93651992427609999 F900.000000
; C03 POINT 27 point-0000027 deposition
G1 A-84.609356 C16.599682 X193.836871 Y288.408810 Z-297.071100 E6.13398430149097166 F900.000000
; C03 POINT 28 point-0000028 deposition
G1 A-84.173641 C15.845148 X197.250881 Y290.924420 Z-292.305616 E6.33144862417851768 F900.000000
; C03 POINT 29 point-0000029 deposition
G1 A-83.723677 C15.025324 X201.005361 Y293.442143 Z-287.177937 E6.52891287770609825 F900.000000
; C03 POINT 30 point-0000030 deposition
G1 A-83.261971 C14.137676 X205.104386 Y295.936512 Z-281.678041 E6.72637705529005807 F900.000000
; C03 POINT 31 point-0000031 deposition
G1 A-82.791019 C13.179657 X209.550344 Y298.381696 Z-275.794701 E6.92384115034726995 F900.000000
; C03 POINT 32 point-0000032 deposition
G1 A-82.313343 C12.148633 X214.344090 Y300.751331 Z-269.515362 E7.12130516964013220 F900.000000
; C03 POINT 33 point-0000033 deposition
G1 A-81.831497 C11.041933 X219.484436 Y303.018559 Z-262.826460 E7.31876912613947446 F900.000000
; C03 POINT 34 point-0000034 deposition
G1 A-81.348077 C9.856935 X224.967421 Y305.156184 Z-255.713679 E7.51623301384297927 F900.000000
; C03 POINT 35 point-0000035 deposition
G1 A-80.865736 C8.591053 X230.786059 Y307.136656 Z-248.161872 E7.71369682912976424 F900.000000
; C03 POINT 36 point-0000036 deposition
G1 A-80.386502 C7.243453 X236.921337 Y308.936313 Z-240.158360 E7.91116057320432032 F900.000000
; C03 POINT 37 point-0000037 deposition
G1 A-79.903609 C5.834664 X243.245366 Y310.583441 Z-231.731571 E8.10862427872205219 F900.000000
; C03 POINT 38 point-0000038 deposition
G1 A-79.416947 C4.369457 X249.713168 Y312.067332 Z-222.886471 E8.30608794048086025 F900.000000
; C03 POINT 39 point-0000039 deposition
G1 A-78.929482 C2.845298 X256.314889 Y313.359747 Z-213.615126 E8.50355155404668987 F900.000000
; C03 POINT 40 point-0000040 deposition
G1 A-78.444258 C1.259539 X263.038331 Y314.432834 Z-203.909174 E8.70101511524974362 F900.000000
; C03 POINT 41 point-0000041 deposition
G1 A-77.964429 C-0.390624 X269.868805 Y315.259189 Z-193.759826 E8.89847867059255616 F900.000000
; C03 POINT 42 point-0000042 deposition
G1 A-77.493261 C-2.108021 X276.788214 Y315.812322 Z-183.158547 E9.09594222948172006 F900.000000
; C03 POINT 43 point-0000043 deposition
G1 A-77.034138 C-3.895442 X283.774441 Y316.067116 Z-172.097274 E9.29340578503685171 F900.000000
; C03 POINT 44 point-0000044 deposition
G1 A-76.590582 C-5.755628 X290.801014 Y316.000204 Z-160.568577 E9.49086933037144738 F900.000000
; C03 POINT 45 point-0000045 deposition
G1 A-76.159961 C-7.680603 X297.795509 Y315.620316 Z-148.584895 E9.68833290315650302 F900.000000
; C03 POINT 46 point-0000046 deposition
G1 A-75.731578 C-9.649035 X304.639059 Y314.973626 Z-136.188115 E9.88579655377431614 F900.000000
; C03 POINT 47 point-0000047 deposition
G1 A-75.307640 C-11.661750 X311.304112 Y314.044448 Z-123.385432 E10.08326027022969641 F900.000000
; C03 POINT 48 point-0000048 deposition
G1 A-74.890948 C-13.720661 X317.764912 Y312.816569 Z-110.182454 E10.28072404153434514 F900.000000
; C03 POINT 49 point-0000049 deposition
G1 A-74.484449 C-15.827947 X323.993830 Y311.275837 Z-96.584654 E10.47818787357032056 F900.000000
; C03 POINT 50 point-0000050 deposition
G1 A-74.091274 C-17.986048 X329.960872 Y309.410456 Z-82.597701 E10.67565184112590341 F900.000000
; C03 POINT 51 point-0000051 deposition
G1 A-73.714784 C-20.197652 X335.633308 Y307.211490 Z-68.227729 E10.87311593081929101 F900.000000
; C03 POINT 52 point-0000052 deposition
G1 A-73.358620 C-22.465666 X340.975230 Y304.673463 Z-53.481523 E11.07058012602499703 F900.000000
; C03 POINT 53 point-0000053 deposition
G1 A-73.025148 C-24.791385 X345.943072 Y301.799387 Z-38.368910 E11.26804441229449953 F900.000000
; C03 POINT 54 point-0000054 deposition
G1 A-72.698711 C-27.156252 X350.451556 Y298.640345 Z-22.923106 E11.46550886161881076 F900.000000
; C03 POINT 55 point-0000055 deposition
G1 A-72.377403 C-29.558341 X354.461418 Y295.202854 Z-7.160738 E11.66297347450626671 F900.000000
; C03 POINT 56 point-0000056 deposition
G1 A-72.062721 C-31.999830 X357.941172 Y291.485550 Z8.905677 E11.86043822716714855 F900.000000
; C03 POINT 57 point-0000057 deposition
G1 A-71.756594 C-34.483650 X360.857939 Y287.488381 Z25.264549 E12.05790309574373035 F900.000000
; C03 POINT 58 point-0000058 deposition
G1 A-71.461512 C-37.013279 X363.176200 Y283.213761 Z41.903459 E12.25536811167105842 F900.000000
; C03 POINT 59 point-0000059 deposition
G1 A-71.180611 C-39.592732 X364.856872 Y278.667651 Z58.808403 E12.45283330270237782 F900.000000
; C03 POINT 60 point-0000060 deposition
G1 A-70.917794 C-42.226425 X365.856657 Y273.861272 Z75.962546 E12.65029863738114977 F900.000000
; C03 POINT 61 point-0000061 deposition
G1 A-70.677832 C-44.919019 X366.127465 Y268.813131 Z93.344726 E12.84776408439605725 F900.000000
; C03 POINT 62 point-0000062 deposition
G1 A-70.451783 C-47.666804 X365.618223 Y263.541466 Z110.944593 E13.04522963160445885 F900.000000
; C03 POINT 63 point-0000063 deposition
G1 A-70.232654 C-50.468228 X364.281692 Y258.056010 Z128.749089 E13.24269532354473881 F900.000000
; C03 POINT 64 point-0000064 deposition
G1 A-70.027495 C-53.330323 X362.066188 Y252.377188 Z146.727822 E13.44016112555036583 F900.000000
; C03 POINT 65 point-0000065 deposition
G1 A-69.839202 C-56.257399 X358.916050 Y246.530722 Z164.849558 E13.63762699970250773 F900.000000
; C03 POINT 66 point-0000066 deposition
G1 A-69.671915 C-59.253854 X354.771914 Y240.552646 Z183.073751 E13.83509291068370233 F900.000000
; C03 POINT 67 point-0000067 deposition
G1 A-69.531132 C-62.323780 X349.571522 Y234.492896 Z201.347649 E14.03255889533597569 F900.000000
; C03 POINT 68 point-0000068 deposition
G1 A-69.423765 C-65.470474 X343.251655 Y228.419038 Z219.603311 E14.23002493381232941 F900.000000
; C03 POINT 69 point-0000069 deposition
G1 A-69.358135 C-68.695884 X335.751698 Y222.419754 Z237.754961 E14.42749098419252385 F900.000000
; C03 POINT 70 point-0000070 deposition
G1 A-69.343889 C-71.999992 X327.018400 Y216.607482 Z255.696774 E14.62495700489790473 F900.000000
; C03 EVENT event-0000002 retract
G1 E13.62495700489790473 F1800.000000
; C03 POINT 71 point-0000071 travel
G1 A-69.343889 C-71.999992 X327.018400 Y216.607482 Z256.496774 F1800.000000
; C03 EVENT event-0000003 prime
G1 E14.62495700489790473 F900.000000
; C03 POINT 72 point-0000072 deposition
G1 A-69.358135 C-68.695884 X335.751698 Y222.419754 Z238.554961 E14.82274790710592553 F900.000000
; C03 POINT 73 point-0000073 deposition
G1 A-69.423765 C-65.470474 X343.251655 Y228.419038 Z220.403311 E15.02040076826554133 F900.000000
; C03 POINT 74 point-0000074 deposition
G1 A-69.531132 C-62.323780 X349.571522 Y234.492896 Z202.147649 E15.21790649887819513 F900.000000
; C03 POINT 75 point-0000075 deposition
G1 A-69.671915 C-59.253854 X354.771914 Y240.552646 Z183.873751 E15.41525795399666107 F900.000000
; C03 POINT 76 point-0000076 deposition
G1 A-69.839202 C-56.257399 X358.916050 Y246.530722 Z165.649558 E15.61245005339578184 F900.000000
; C03 POINT 77 point-0000077 deposition
G1 A-70.027495 C-53.330323 X362.066188 Y252.377188 Z147.527822 E15.80948163007387668 F900.000000
; C03 POINT 78 point-0000078 deposition
G1 A-70.232654 C-50.468228 X364.281692 Y258.056010 Z129.549089 E16.00635420550201970 F900.000000
; C03 POINT 79 point-0000079 deposition
G1 A-70.451783 C-47.666804 X365.618223 Y263.541466 Z111.744593 E16.20307067189094420 F900.000000
; C03 POINT 80 point-0000080 deposition
G1 A-70.677832 C-44.919019 X366.127465 Y268.813131 Z94.144726 E16.39961916195532086 F900.000000
; C03 POINT 81 point-0000081 deposition
G1 A-70.917794 C-42.226425 X365.856657 Y273.861272 Z76.762546 E16.59602986539299170 F900.000000
; C03 POINT 82 point-0000082 deposition
G1 A-71.180611 C-39.592732 X364.856872 Y278.667651 Z59.608403 E16.79234038489991133 F900.000000
; C03 POINT 83 point-0000083 deposition
G1 A-71.461512 C-37.013279 X363.176200 Y283.213761 Z42.703459 E16.98854499173528783 F900.000000
; C03 POINT 84 point-0000084 deposition
G1 A-71.756594 C-34.483650 X360.857939 Y287.488381 Z26.064549 E17.18463883750184225 F900.000000
; C03 POINT 85 point-0000085 deposition
G1 A-72.062721 C-31.999830 X357.941172 Y291.485550 Z9.705677 E17.38061827819768972 F900.000000
; C03 POINT 86 point-0000086 deposition
G1 A-72.377403 C-29.558341 X354.461418 Y295.202854 Z-6.360738 E17.57648195131487020 F900.000000
; C03 POINT 87 point-0000087 deposition
G1 A-72.698711 C-27.156252 X350.451556 Y298.640345 Z-22.123106 E17.77222970557910014 F900.000000
; C03 POINT 88 point-0000088 deposition
G1 A-73.025148 C-24.791385 X345.943072 Y301.799387 Z-37.568910 E17.96786237902647824 F900.000000
; C03 POINT 89 point-0000089 deposition
G1 A-73.358620 C-22.465666 X340.975230 Y304.673463 Z-52.681523 E18.16339339293263559 F900.000000
; C03 POINT 90 point-0000090 deposition
G1 A-73.714784 C-20.197652 X335.633308 Y307.211490 Z-67.427729 E18.35889134938826635 F900.000000
; C03 POINT 91 point-0000091 deposition
G1 A-74.091274 C-17.986048 X329.960872 Y309.410456 Z-81.797701 E18.55435758806696871 F900.000000
; C03 POINT 92 point-0000092 deposition
G1 A-74.484449 C-15.827947 X323.993830 Y311.275837 Z-95.784654 E18.74978769527735627 F900.000000
; C03 POINT 93 point-0000093 deposition
G1 A-74.890948 C-13.720661 X317.764912 Y312.816569 Z-109.382454 E18.94517757461667483 F900.000000
; C03 POINT 94 point-0000094 deposition
G1 A-75.307640 C-11.661750 X311.304112 Y314.044448 Z-122.585432 E19.14052374103966729 F900.000000
; C03 POINT 95 point-0000095 deposition
G1 A-75.731578 C-9.649035 X304.639059 Y314.973626 Z-135.388115 E19.33582362323857166 F900.000000
; C03 POINT 96 point-0000096 deposition
G1 A-76.159961 C-7.680603 X297.795509 Y315.620316 Z-147.784895 E19.53107512588432061 F900.000000
; C03 POINT 97 point-0000097 deposition
G1 A-76.590582 C-5.755628 X290.801014 Y316.000204 Z-159.768577 E19.72627899445002757 F900.000000
; C03 POINT 98 point-0000098 deposition
G1 A-77.034138 C-3.895442 X283.774441 Y316.067116 Z-171.297274 E19.92150155965087903 F900.000000
; C03 POINT 99 point-0000099 deposition
G1 A-77.493261 C-2.108021 X276.788214 Y315.812322 Z-182.358547 E20.11677091791460211 F900.000000
; C03 POINT 100 point-0000100 deposition
G1 A-77.964429 C-0.390624 X269.868805 Y315.259189 Z-192.959826 E20.31208367718937734 F900.000000
; C03 POINT 101 point-0000101 deposition
G1 A-78.444258 C1.259539 X263.038331 Y314.432834 Z-203.109174 E20.50743626947431926 F900.000000
; C03 POINT 102 point-0000102 deposition
G1 A-78.929482 C2.845298 X256.314889 Y313.359747 Z-212.815126 E20.70282483273935419 F900.000000
; C03 POINT 103 point-0000103 deposition
G1 A-79.416947 C4.369457 X249.713168 Y312.067332 Z-222.086471 E20.89824545455897164 F900.000000
; C03 POINT 104 point-0000104 deposition
G1 A-79.903609 C5.834664 X243.245366 Y310.583441 Z-230.931571 E21.09369456259179612 F900.000000
; C03 POINT 105 point-0000105 deposition
G1 A-80.386502 C7.243453 X236.921337 Y308.936313 Z-239.358360 E21.28916873580316782 F900.000000
; C03 POINT 106 point-0000106 deposition
G1 A-80.865736 C8.591053 X230.786059 Y307.136656 Z-247.361872 E21.48468512849496989 F900.000000
; C03 POINT 107 point-0000107 deposition
G1 A-81.348077 C9.856935 X224.967421 Y305.156184 Z-254.913679 E21.68030633068150603 F900.000000
; C03 POINT 108 point-0000108 deposition
G1 A-81.831497 C11.041933 X219.484436 Y303.018559 Z-262.026460 E21.87603493404742341 F900.000000
; C03 POINT 109 point-0000109 deposition
G1 A-82.313343 C12.148633 X214.344090 Y300.751331 Z-268.715362 E22.07186845075980238 F900.000000
; C03 POINT 110 point-0000110 deposition
G1 A-82.791019 C13.179657 X209.550344 Y298.381696 Z-274.994701 E22.26780410274445018 F900.000000
; C03 POINT 111 point-0000111 deposition
G1 A-83.261971 C14.137676 X205.104386 Y295.936512 Z-280.878041 E22.46383865923305833 F900.000000
; C03 POINT 112 point-0000112 deposition
G1 A-83.723677 C15.025324 X201.005361 Y293.442143 Z-286.377937 E22.65996876254477726 F900.000000
; C03 POINT 113 point-0000113 deposition
G1 A-84.173641 C15.845148 X197.250881 Y290.924420 Z-291.505616 E22.85619111297577510 F900.000000
; C03 POINT 114 point-0000114 deposition
G1 A-84.609356 C16.599682 X193.836871 Y288.408810 Z-296.271100 E23.05250226741175350 F900.000000
; C03 POINT 115 point-0000115 deposition
G1 A-85.033900 C17.272908 X190.863632 Y285.885430 Z-300.649751 E23.24895081727211586 F900.000000
; C03 POINT 116 point-0000116 deposition
G1 A-85.450548 C17.849066 X188.431161 Y283.343445 Z-304.620190 E23.44558563838577036 F900.000000
; C03 POINT 117 point-0000117 deposition
G1 A-85.857170 C18.330718 X186.534101 Y280.805514 Z-308.193851 E23.64240422559156526 F900.000000
; C03 POINT 118 point-0000118 deposition
G1 A-86.251640 C18.720391 X185.165281 Y278.293649 Z-311.379602 E23.83940392326689396 F900.000000
; C03 POINT 119 point-0000119 deposition
G1 A-86.631821 C19.020569 X184.315993 Y275.829299 Z-314.183840 E24.03658191619141084 F900.000000
; C03 POINT 120 point-0000120 deposition
G1 A-86.995555 C19.233711 X183.976108 Y273.433467 Z-316.610846 E24.23393514844149259 F900.000000
; C03 POINT 121 point-0000121 deposition
G1 A-87.340670 C19.362207 X184.134484 Y271.126621 Z-318.662673 E24.43146062485761756 F900.000000
; C03 POINT 122 point-0000122 deposition
G1 A-87.664973 C19.408382 X184.779063 Y268.928673 Z-320.339193 E24.62915543856334292 F900.000000
; C03 POINT 123 point-0000123 deposition
G1 A-87.966213 C19.374599 X185.896386 Y266.859196 Z-321.638378 E24.82701647987241392 F900.000000
; C03 POINT 124 point-0000124 deposition
G1 A-88.249028 C19.228454 X187.674186 Y264.894501 Z-322.474819 E25.02513795224652424 F900.000000
; C03 POINT 125 point-0000125 deposition
G1 A-88.514391 C18.959115 X190.172157 Y263.034502 Z-322.810041 E25.22355501183740537 F900.000000
; C03 POINT 126 point-0000126 deposition
G1 A-88.760671 C18.569371 X193.368091 Y261.294741 Z-322.633181 E25.42226469584707452 F900.000000
; C03 POINT 127 point-0000127 deposition
G1 A-88.986296 C18.061871 X197.238076 Y259.689542 Z-321.929434 E25.62126426949034712 F900.000000
; C03 POINT 128 point-0000128 deposition
G1 A-89.189774 C17.439239 X201.755835 Y258.231831 Z-320.680997 E25.82055086832259082 F900.000000
; C03 POINT 129 point-0000129 deposition
G1 A-89.369726 C16.704195 X206.892039 Y256.932849 Z-318.868212 E26.02012131511428488 F900.000000
; C03 POINT 130 point-0000130 deposition
G1 A-89.524931 C15.859676 X212.613605 Y255.801763 Z-316.470350 E26.21997181011967620 F900.000000
; C03 POINT 131 point-0000131 deposition
G1 A-89.654373 C14.908962 X218.883028 Y254.845267 Z-313.466770 E26.42009755940888893 F900.000000
; C03 POINT 132 point-0000132 deposition
G1 A-89.761944 C13.808975 X225.914090 Y254.041031 Z-309.674376 E26.62062287739458533 F900.000000
; C03 POINT 133 point-0000133 deposition
G1 A-89.848205 C12.564659 X233.643772 Y253.385954 Z-305.065596 E26.82153902725135969 F900.000000
; C03 POINT 134 point-0000134 deposition
G1 A-89.913264 C11.185628 X241.979438 Y252.878012 Z-299.628566 E27.02282349453562904 F900.000000
; C03 POINT 135 point-0000135 deposition
G1 A-89.958751 C9.670156 X250.884333 Y252.505688 Z-293.310366 E27.22448486557765104 F900.000000
; C03 POINT 136 point-0000136 deposition
G1 A-89.986937 C8.016409 X260.314399 Y252.253438 Z-286.056377 E27.42653139422437172 F900.000000
; C03 POINT 137 point-0000137 deposition
G1 A-90.000842 C6.222805 X270.215561 Y252.101617 Z-277.812950 E27.62896994369239406 F900.000000
; C03 POINT 138 point-0000138 deposition
G1 A-90.004322 C4.288439 X280.521004 Y252.026629 Z-268.530672 E27.83180427749314969 F900.000000
; C03 POINT 139 point-0000139 deposition
G1 A-90.002143 C2.213548 X291.148768 Y252.002036 Z-258.168771 E28.03503355138414007 F900.000000
; C03 POINT 140 point-0000140 deposition
G1 A-90.000000 C0.000000 X302.000000 Y252.000000 Z-246.700000 E28.23865084434668776 F900.000000
; C03 EVENT event-0000004 retract
G1 E27.23865084434668776 F1800.000000
; C03 POINT 141 point-0000141 travel
G1 A-90.000000 C0.000000 X302.000000 Y252.000000 Z-245.900000 F1800.000000
; C03 EVENT event-0000005 prime
G1 E28.23865084434668776 F900.000000
; C03 POINT 142 point-0000142 deposition
G1 A-90.002143 C2.213548 X291.148768 Y252.002036 Z-257.368771 E28.44843510652487806 F900.000000
; C03 POINT 143 point-0000143 deposition
G1 A-90.004322 C4.288439 X280.521004 Y252.026629 Z-267.730672 E28.65744195365775246 F900.000000
; C03 POINT 144 point-0000144 deposition
G1 A-90.000842 C6.222805 X270.215561 Y252.101617 Z-277.012950 E28.86565772423171000 F900.000000
; C03 POINT 145 point-0000145 deposition
G1 A-89.986937 C8.016409 X260.314399 Y252.253438 Z-285.256377 E29.07308084510763363 F900.000000
; C03 POINT 146 point-0000146 deposition
G1 A-89.958751 C9.670156 X250.884333 Y252.505688 Z-292.510366 E29.27971878963850413 F900.000000
; C03 POINT 147 point-0000147 deposition
G1 A-89.913264 C11.185628 X241.979438 Y252.878012 Z-298.828566 E29.48558514985950163 F900.000000
; C03 POINT 148 point-0000148 deposition
G1 A-89.848205 C12.564659 X233.643772 Y253.385954 Z-304.265596 E29.69069647432099251 F900.000000
; C03 POINT 149 point-0000149 deposition
G1 A-89.761944 C13.808975 X225.914090 Y254.041031 Z-308.874376 E29.89506997583595626 F900.000000
; C03 POINT 150 point-0000150 deposition
G1 A-89.654373 C14.908962 X218.883028 Y254.845267 Z-312.666770 E30.09866069300415872 F900.000000
; C03 POINT 151 point-0000151 deposition
G1 A-89.524931 C15.859676 X212.613605 Y255.801763 Z-315.670350 E30.30145130500236616 F900.000000
; C03 POINT 152 point-0000152 deposition
G1 A-89.369726 C16.704195 X206.892039 Y256.932849 Z-318.068212 E30.50369060686039096 F900.000000
; C03 POINT 153 point-0000153 deposition
G1 A-89.189774 C17.439239 X201.755835 Y258.231831 Z-319.880997 E30.70536914313464256 F900.000000
; C03 POINT 154 point-0000154 deposition
G1 A-88.986296 C18.061871 X197.238076 Y259.689542 Z-321.129434 E30.90647948429680504 F900.000000
; C03 POINT 155 point-0000155 deposition
G1 A-88.760671 C18.569371 X193.368091 Y261.294741 Z-321.833181 E31.10701550581595677 F900.000000
; C03 POINT 156 point-0000156 deposition
G1 A-88.514391 C18.959115 X190.172157 Y263.034502 Z-322.010041 E31.30697176338790681 F900.000000
; C03 POINT 157 point-0000157 deposition
G1 A-88.249028 C19.228454 X187.674186 Y264.894501 Z-321.674819 E31.50634303601178736 F900.000000
; C03 POINT 158 point-0000158 deposition
G1 A-87.966213 C19.374599 X185.896386 Y266.859196 Z-320.838378 E31.70512369173880406 F900.000000
; C03 POINT 159 point-0000159 deposition
G1 A-87.664973 C19.408382 X184.779063 Y268.928673 Z-319.539193 E31.90338432981171895 F900.000000
; C03 POINT 160 point-0000160 deposition
G1 A-87.340670 C19.362207 X184.134484 Y271.126621 Z-317.862673 E32.10131354467204235 F900.000000
; C03 POINT 161 point-0000161 deposition
G1 A-86.995555 C19.233711 X183.976108 Y273.433467 Z-315.810846 E32.29890537853084185 F900.000000
; C03 POINT 162 point-0000162 deposition
G1 A-86.631821 C19.020569 X184.315993 Y275.829299 Z-313.383840 E32.49615429233557921 F900.000000
; C03 POINT 163 point-0000163 deposition
G1 A-86.251640 C18.720391 X185.165281 Y278.293649 Z-310.579602 E32.69305459288878394 F900.000000
; C03 POINT 164 point-0000164 deposition
G1 A-85.857170 C18.330718 X186.534101 Y280.805514 Z-307.393851 E32.88960050011205012 F900.000000
; C03 POINT 165 point-0000165 deposition
G1 A-85.450548 C17.849066 X188.431161 Y283.343445 Z-303.820190 E33.08578674397270590 F900.000000
; C03 POINT 166 point-0000166 deposition
G1 A-85.033900 C17.272908 X190.863632 Y285.885430 Z-299.849751 E33.28160839254204524 F900.000000
; C03 POINT 167 point-0000167 deposition
G1 A-84.609356 C16.599682 X193.836871 Y288.408810 Z-295.471100 E33.47706085280697837 F900.000000
; C03 POINT 168 point-0000168 deposition
G1 A-84.173641 C15.845148 X197.250881 Y290.924420 Z-290.705616 E33.67224200878750787 F900.000000
; C03 POINT 169 point-0000169 deposition
G1 A-83.723677 C15.025324 X201.005361 Y293.442143 Z-285.577937 E33.86724907102115071 F900.000000
; C03 POINT 170 point-0000170 deposition
G1 A-83.261971 C14.137676 X205.104386 Y295.936512 Z-280.078041 E34.06207545721865321 F900.000000
; C03 POINT 171 point-0000171 deposition
G1 A-82.791019 C13.179657 X209.550344 Y298.381696 Z-274.194701 E34.25671489516894275 F900.000000
; C03 POINT 172 point-0000172 deposition
G1 A-82.313343 C12.148633 X214.344090 Y300.751331 Z-267.915362 E34.45116101091439182 F900.000000
; C03 POINT 173 point-0000173 deposition
G1 A-81.831497 C11.041933 X219.484436 Y303.018559 Z-261.226460 E34.64540770810873736 F900.000000
; C03 POINT 174 point-0000174 deposition
G1 A-81.348077 C9.856935 X224.967421 Y305.156184 Z-254.113679 E34.83944984617990866 F900.000000
; C03 POINT 175 point-0000175 deposition
G1 A-80.865736 C8.591053 X230.786059 Y307.136656 Z-246.561872 E35.03328289443034834 F900.000000
; C03 POINT 176 point-0000176 deposition
G1 A-80.386502 C7.243453 X236.921337 Y308.936313 Z-238.558360 E35.22691245050327640 F900.000000
; C03 POINT 177 point-0000177 deposition
G1 A-79.903609 C5.834664 X243.245366 Y310.583441 Z-230.131571 E35.42046328112640954 F900.000000
; C03 POINT 178 point-0000178 deposition
G1 A-79.416947 C4.369457 X249.713168 Y312.067332 Z-221.286471 E35.61396973392789354 F900.000000
; C03 POINT 179 point-0000179 deposition
G1 A-78.929482 C2.845298 X256.314889 Y313.359747 Z-212.015126 E35.80742527648728454 F900.000000
; C03 POINT 180 point-0000180 deposition
G1 A-78.444258 C1.259539 X263.038331 Y314.432834 Z-202.309174 E36.00082310651170639 F900.000000
; C03 POINT 181 point-0000181 deposition
G1 A-77.964429 C-0.390624 X269.868805 Y315.259189 Z-192.159826 E36.19415572867183364 F900.000000
; C03 POINT 182 point-0000182 deposition
G1 A-77.493261 C-2.108021 X276.788214 Y315.812322 Z-181.558547 E36.38741582319657427 F900.000000
; C03 POINT 183 point-0000183 deposition
G1 A-77.034138 C-3.895442 X283.774441 Y316.067116 Z-170.497274 E36.58059671269095555 F900.000000
; C03 POINT 184 point-0000184 deposition
G1 A-76.590582 C-5.755628 X290.801014 Y316.000204 Z-158.968577 E36.77369211046103858 F900.000000
; C03 POINT 185 point-0000185 deposition
G1 A-76.159961 C-7.680603 X297.795509 Y315.620316 Z-146.984895 E36.96675805284581228 F900.000000
; C03 POINT 186 point-0000186 deposition
G1 A-75.731578 C-9.649035 X304.639059 Y314.973626 Z-134.588115 E37.15992602887810438 F900.000000
; C03 POINT 187 point-0000187 deposition
G1 A-75.307640 C-11.661750 X311.304112 Y314.044448 Z-121.785432 E37.35319766070842444 F900.000000
; C03 POINT 188 point-0000188 deposition
G1 A-74.890948 C-13.720661 X317.764912 Y312.816569 Z-108.582454 E37.54656898607598254 F900.000000
; C03 POINT 189 point-0000189 deposition
G1 A-74.484449 C-15.827947 X323.993830 Y311.275837 Z-94.984654 E37.74003512871245359 F900.000000
; C03 POINT 190 point-0000190 deposition
G1 A-74.091274 C-17.986048 X329.960872 Y309.410456 Z-80.997701 E37.93358936726119571 F900.000000
; C03 POINT 191 point-0000191 deposition
G1 A-73.714784 C-20.197652 X335.633308 Y307.211490 Z-66.627729 E38.12722391306372516 F900.000000
; C03 POINT 192 point-0000192 deposition
G1 A-73.358620 C-22.465666 X340.975230 Y304.673463 Z-51.881523 E38.32093042306756692 F900.000000
; C03 POINT 193 point-0000193 deposition
G1 A-73.025148 C-24.791385 X345.943072 Y301.799387 Z-36.768910 E38.51471198370873062 F900.000000
; C03 POINT 194 point-0000194 deposition
G1 A-72.698711 C-27.156252 X350.451556 Y298.640345 Z-21.323106 E38.70870430523005372 F900.000000
; C03 POINT 195 point-0000195 deposition
G1 A-72.377403 C-29.558341 X354.461418 Y295.202854 Z-5.560738 E38.90293409973875970 F900.000000
; C03 POINT 196 point-0000196 deposition
G1 A-72.062721 C-31.999830 X357.941172 Y291.485550 Z10.505677 E39.09740333144117865 F900.000000
; C03 POINT 197 point-0000197 deposition
G1 A-71.756594 C-34.483650 X360.857939 Y287.488381 Z26.864549 E39.29211211360927699 F900.000000
; C03 POINT 198 point-0000198 deposition
G1 A-71.461512 C-37.013279 X363.176200 Y283.213761 Z43.503459 E39.48705818413038145 F900.000000
; C03 POINT 199 point-0000199 deposition
G1 A-71.180611 C-39.592732 X364.856872 Y278.667651 Z60.408403 E39.68223482794248501 F900.000000
; C03 POINT 200 point-0000200 deposition
G1 A-70.917794 C-42.226425 X365.856657 Y273.861272 Z77.562546 E39.87763309969783678 F900.000000
; C03 POINT 201 point-0000201 deposition
G1 A-70.677832 C-44.919019 X366.127465 Y268.813131 Z94.944726 E40.07324240862472278 F900.000000
; C03 POINT 202 point-0000202 deposition
G1 A-70.451783 C-47.666804 X365.618223 Y263.541466 Z112.544593 E40.26913781274751036 F900.000000
; C03 POINT 203 point-0000203 deposition
G1 A-70.232654 C-50.468228 X364.281692 Y258.056010 Z130.349089 E40.46537958453158559 F900.000000
; C03 POINT 204 point-0000204 deposition
G1 A-70.027495 C-53.330323 X362.066188 Y252.377188 Z148.327822 E40.66194512905581289 F900.000000
; C03 POINT 205 point-0000205 deposition
G1 A-69.839202 C-56.257399 X358.916050 Y246.530722 Z166.449558 E40.85884107995519894 F900.000000
; C03 POINT 206 point-0000206 deposition
G1 A-69.671915 C-59.253854 X354.771914 Y240.552646 Z184.673751 E41.05607139383539818 F900.000000
; C03 POINT 207 point-0000207 deposition
G1 A-69.531132 C-62.323780 X349.571522 Y234.492896 Z202.947649 E41.25363459795202458 F900.000000
; C03 POINT 208 point-0000208 deposition
G1 A-69.423765 C-65.470474 X343.251655 Y228.419038 Z221.203311 E41.45152141472279008 F900.000000
; C03 POINT 209 point-0000209 deposition
G1 A-69.358135 C-68.695884 X335.751698 Y222.419754 Z239.354961 E41.64971834409751435 F900.000000
; C03 POINT 210 point-0000210 deposition
G1 A-69.343889 C-71.999992 X327.018400 Y216.607482 Z257.296774 E41.84820777647238836 F900.000000
M400 ; finish queued motion
M2
