; 5AxisSclicer P04 P06 real STEP planar_thin_wall
; reference XYZAC profile; offline simulation only
G21 ; millimetres
G90 ; absolute axes
M82 ; absolute extrusion
G92 E0 ; known initial extrusion position
; P04 POINT 1 point-0000001 approach
G1 A0.000000 C0.000000 X254.784315 Y240.721539 Z312.000000 F100.000000
; P04 EVENT event-0000001 prime
G1 E1.0 F100.000000
; P04 POINT 2 point-0000002 deposition
G1 A0.000000 C0.000000 X255.071578 Y240.335432 Z312.000000 E1.07202854709770912 F100.000000
; P04 POINT 3 point-0000003 deposition
G1 A0.000000 C0.000000 X284.271914 Y201.087850 Z312.000000 E8.39370957502815112 F100.000000
; P04 POINT 4 point-0000004 deposition
G1 A0.000000 C0.000000 X286.999738 Y203.117360 Z312.000000 E8.90258818046242992 F100.000000
; P04 POINT 5 point-0000005 deposition
G1 A0.000000 C0.000000 X257.512138 Y242.751050 Z312.000000 E16.29629791270394192 F100.000000
; P04 POINT 6 point-0000006 deposition
G1 A0.000000 C0.000000 X254.784315 Y240.721539 Z312.000000 E16.80517653228855152 F100.000000
M400 ; finish queued motion
M2
