; Synthetic UI layer-range fixture. Not a manufacturing program.
G21
G90
M83
;Layer 0
G0 X0 Y0 Z0.200 F1800
G1 X10 Y0 E1 F900
G1 X10 Y10 E1
G1 X0 Y10 E1
G1 X0 Y0 E1
;Layer 1
G0 X0 Y0 Z0.400 F1800
G1 X10 Y0 E1 F900
G1 X10 Y10 E1
G1 X0 Y10 E1
G1 X0 Y0 E1
;Layer 2
G0 X0 Y0 Z0.600 F1800
G1 X10 Y0 E1 F900
G1 X10 Y10 E1
G1 X0 Y10 E1
G1 X0 Y0 E1
;Layer 3
G0 X0 Y0 Z0.800 F1800
G1 X10 Y0 E1 F900
G1 X10 Y10 E1
G1 X0 Y10 E1
G1 X0 Y0 E1
;Layer 4
G0 X0 Y0 Z1.000 F1800
G1 X10 Y0 E1 F900
G1 X10 Y10 E1
G1 X0 Y10 E1
G1 X0 Y0 E1
;Layer 5
G0 X0 Y0 Z1.200 F1800
G1 X10 Y0 E1 F900
G1 X10 Y10 E1
G1 X0 Y10 E1
G1 X0 Y0 E1
;Layer 6
G0 X0 Y0 Z1.400 F1800
G1 X10 Y0 E1 F900
G1 X10 Y10 E1
G1 X0 Y10 E1
G1 X0 Y0 E1
;Layer 7
G0 X0 Y0 Z1.600 F1800
G1 X10 Y0 E1 F900
G1 X10 Y10 E1
G1 X0 Y10 E1
G1 X0 Y0 E1
;Layer 8
G0 X0 Y0 Z1.800 F1800
G1 X10 Y0 E1 F900
G1 X10 Y10 E1
G1 X0 Y10 E1
G1 X0 Y0 E1
;Layer 9
G0 X0 Y0 Z2.000 F1800
G1 X10 Y0 E1 F900
G1 X10 Y10 E1
G1 X0 Y10 E1
G1 X0 Y0 E1
;Layer 10
G0 X0 Y0 Z2.200 F1800
G1 X10 Y0 E1 F900
G1 X10 Y10 E1
G1 X0 Y10 E1
G1 X0 Y0 E1
;Layer 11
G0 X0 Y0 Z2.400 F1800
G1 X10 Y0 E1 F900
G1 X10 Y10 E1
G1 X0 Y10 E1
G1 X0 Y0 E1
;Layer 12
G0 X0 Y0 Z2.600 F1800
G1 X10 Y0 E1 F900
G1 X10 Y10 E1
G1 X0 Y10 E1
G1 X0 Y0 E1
;Layer 13
G0 X0 Y0 Z2.800 F1800
G1 X10 Y0 E1 F900
G1 X10 Y10 E1
G1 X0 Y10 E1
G1 X0 Y0 E1
;Layer 14
G0 X0 Y0 Z3.000 F1800
G1 X10 Y0 E1 F900
G1 X10 Y10 E1
G1 X0 Y10 E1
G1 X0 Y0 E1
;Layer 15
G0 X0 Y0 Z3.200 F1800
G1 X10 Y0 E1 F900
G1 X10 Y10 E1
G1 X0 Y10 E1
G1 X0 Y0 E1
;Layer 16
G0 X0 Y0 Z3.400 F1800
G1 X10 Y0 E1 F900
G1 X10 Y10 E1
G1 X0 Y10 E1
G1 X0 Y0 E1
;Layer 17
G0 X0 Y0 Z3.600 F1800
G1 X10 Y0 E1 F900
G1 X10 Y10 E1
G1 X0 Y10 E1
G1 X0 Y0 E1
;Layer 18
G0 X0 Y0 Z3.800 F1800
G1 X10 Y0 E1 F900
G1 X10 Y10 E1
G1 X0 Y10 E1
G1 X0 Y0 E1
;Layer 19
G0 X0 Y0 Z4.000 F1800
G1 X10 Y0 E1 F900
G1 X10 Y10 E1
G1 X0 Y10 E1
G1 X0 Y0 E1
;Layer 20
G0 X0 Y0 Z4.200 F1800
G1 X10 Y0 E1 F900
G1 X10 Y10 E1
G1 X0 Y10 E1
G1 X0 Y0 E1
;Layer 21
G0 X0 Y0 Z4.400 F1800
G1 X10 Y0 E1 F900
G1 X10 Y10 E1
G1 X0 Y10 E1
G1 X0 Y0 E1
;Layer 22
G0 X0 Y0 Z4.600 F1800
G1 X10 Y0 E1 F900
G1 X10 Y10 E1
G1 X0 Y10 E1
G1 X0 Y0 E1
;Layer 23
G0 X0 Y0 Z4.800 F1800
G1 X10 Y0 E1 F900
G1 X10 Y10 E1
G1 X0 Y10 E1
G1 X0 Y0 E1
;Layer 24
G0 X0 Y0 Z5.000 F1800
G1 X10 Y0 E1 F900
G1 X10 Y10 E1
G1 X0 Y10 E1
G1 X0 Y0 E1
;Layer 25
G0 X0 Y0 Z5.200 F1800
G1 X10 Y0 E1 F900
G1 X10 Y10 E1
G1 X0 Y10 E1
G1 X0 Y0 E1
;Layer 26
G0 X0 Y0 Z5.400 F1800
G1 X10 Y0 E1 F900
G1 X10 Y10 E1
G1 X0 Y10 E1
G1 X0 Y0 E1
;Layer 27
G0 X0 Y0 Z5.600 F1800
G1 X10 Y0 E1 F900
G1 X10 Y10 E1
G1 X0 Y10 E1
G1 X0 Y0 E1
;Layer 28
G0 X0 Y0 Z5.800 F1800
G1 X10 Y0 E1 F900
G1 X10 Y10 E1
G1 X0 Y10 E1
G1 X0 Y0 E1
;Layer 29
G0 X0 Y0 Z6.000 F1800
G1 X10 Y0 E1 F900
G1 X10 Y10 E1
G1 X0 Y10 E1
G1 X0 Y0 E1
;Layer 30
G0 X0 Y0 Z6.200 F1800
G1 X10 Y0 E1 F900
G1 X10 Y10 E1
G1 X0 Y10 E1
G1 X0 Y0 E1
;Layer 31
G0 X0 Y0 Z6.400 F1800
G1 X10 Y0 E1 F900
G1 X10 Y10 E1
G1 X0 Y10 E1
G1 X0 Y0 E1
;Layer 32
G0 X0 Y0 Z6.600 F1800
G1 X10 Y0 E1 F900
G1 X10 Y10 E1
G1 X0 Y10 E1
G1 X0 Y0 E1
;Layer 33
G0 X0 Y0 Z6.800 F1800
G1 X10 Y0 E1 F900
G1 X10 Y10 E1
G1 X0 Y10 E1
G1 X0 Y0 E1
;Layer 34
G0 X0 Y0 Z7.000 F1800
G1 X10 Y0 E1 F900
G1 X10 Y10 E1
G1 X0 Y10 E1
G1 X0 Y0 E1
;Layer 35
G0 X0 Y0 Z7.200 F1800
G1 X10 Y0 E1 F900
G1 X10 Y10 E1
G1 X0 Y10 E1
G1 X0 Y0 E1
;Layer 36
G0 X0 Y0 Z7.400 F1800
G1 X10 Y0 E1 F900
G1 X10 Y10 E1
G1 X0 Y10 E1
G1 X0 Y0 E1
;Layer 37
G0 X0 Y0 Z7.600 F1800
G1 X10 Y0 E1 F900
G1 X10 Y10 E1
G1 X0 Y10 E1
G1 X0 Y0 E1
;Layer 38
G0 X0 Y0 Z7.800 F1800
G1 X10 Y0 E1 F900
G1 X10 Y10 E1
G1 X0 Y10 E1
G1 X0 Y0 E1
;Layer 39
G0 X0 Y0 Z8.000 F1800
G1 X10 Y0 E1 F900
G1 X10 Y10 E1
G1 X0 Y10 E1
G1 X0 Y0 E1
;Layer 40
G0 X0 Y0 Z8.200 F1800
G1 X10 Y0 E1 F900
G1 X10 Y10 E1
G1 X0 Y10 E1
G1 X0 Y0 E1
;Layer 41
G0 X0 Y0 Z8.400 F1800
G1 X10 Y0 E1 F900
G1 X10 Y10 E1
G1 X0 Y10 E1
G1 X0 Y0 E1
;Layer 42
G0 X0 Y0 Z8.600 F1800
G1 X10 Y0 E1 F900
G1 X10 Y10 E1
G1 X0 Y10 E1
G1 X0 Y0 E1
;Layer 43
G0 X0 Y0 Z8.800 F1800
G1 X10 Y0 E1 F900
G1 X10 Y10 E1
G1 X0 Y10 E1
G1 X0 Y0 E1
;Layer 44
G0 X0 Y0 Z9.000 F1800
G1 X10 Y0 E1 F900
G1 X10 Y10 E1
G1 X0 Y10 E1
G1 X0 Y0 E1
;Layer 45
G0 X0 Y0 Z9.200 F1800
G1 X10 Y0 E1 F900
G1 X10 Y10 E1
G1 X0 Y10 E1
G1 X0 Y0 E1
;Layer 46
G0 X0 Y0 Z9.400 F1800
G1 X10 Y0 E1 F900
G1 X10 Y10 E1
G1 X0 Y10 E1
G1 X0 Y0 E1
;Layer 47
G0 X0 Y0 Z9.600 F1800
G1 X10 Y0 E1 F900
G1 X10 Y10 E1
G1 X0 Y10 E1
G1 X0 Y0 E1
;Layer 48
G0 X0 Y0 Z9.800 F1800
G1 X10 Y0 E1 F900
G1 X10 Y10 E1
G1 X0 Y10 E1
G1 X0 Y0 E1
;Layer 49
G0 X0 Y0 Z10.000 F1800
G1 X10 Y0 E1 F900
G1 X10 Y10 E1
G1 X0 Y10 E1
G1 X0 Y0 E1
;Layer 50
G0 X0 Y0 Z10.200 F1800
G1 X10 Y0 E1 F900
G1 X10 Y10 E1
G1 X0 Y10 E1
G1 X0 Y0 E1
;Layer 51
G0 X0 Y0 Z10.400 F1800
G1 X10 Y0 E1 F900
G1 X10 Y10 E1
G1 X0 Y10 E1
G1 X0 Y0 E1
