; SYNTHETIC DISPLAY WITNESS ONLY - NOT FOR MACHINE USE
; Layered walls and alternating infill; no slicing or manufacturing qualification
G21
G90
M83
;WIDTH:0.7
;HEIGHT:0.35
;LAYER:0
;Z:0.175
;TYPE:External perimeter
G0 X0.000 Y0.000 Z0.175 F1800
G1 X30.000 Y0.000 E1 F900
G1 X30.000 Y24.000 E1 F900
G1 X0.000 Y24.000 E1 F900
G1 X0.000 Y0.000 E1 F900
G0 X0.680 Y0.680 Z0.175 F1800
G1 X29.320 Y0.680 E1 F900
G1 X29.320 Y23.320 E1 F900
G1 X0.680 Y23.320 E1 F900
G1 X0.680 Y0.680 E1 F900
G0 X1.360 Y1.360 Z0.175 F1800
G1 X28.640 Y1.360 E1 F900
G1 X28.640 Y22.640 E1 F900
G1 X1.360 Y22.640 E1 F900
G1 X1.360 Y1.360 E1 F900
;TYPE:Sparse infill
G0 X2.050 Y2.100 Z0.175 F1800
G1 X27.950 Y2.100 E1 F900
G0 X2.050 Y4.200 Z0.175 F1800
G1 X27.950 Y4.200 E1 F900
G0 X2.050 Y6.300 Z0.175 F1800
G1 X27.950 Y6.300 E1 F900
G0 X2.050 Y8.400 Z0.175 F1800
G1 X27.950 Y8.400 E1 F900
G0 X2.050 Y10.500 Z0.175 F1800
G1 X27.950 Y10.500 E1 F900
G0 X2.050 Y12.600 Z0.175 F1800
G1 X27.950 Y12.600 E1 F900
G0 X2.050 Y14.700 Z0.175 F1800
G1 X27.950 Y14.700 E1 F900
G0 X2.050 Y16.800 Z0.175 F1800
G1 X27.950 Y16.800 E1 F900
G0 X2.050 Y18.900 Z0.175 F1800
G1 X27.950 Y18.900 E1 F900
G0 X2.050 Y21.000 Z0.175 F1800
G1 X27.950 Y21.000 E1 F900
;LAYER:1
;Z:0.525
;TYPE:External perimeter
G0 X0.000 Y0.000 Z0.525 F1800
G1 X30.000 Y0.000 E1 F900
G1 X30.000 Y24.000 E1 F900
G1 X0.000 Y24.000 E1 F900
G1 X0.000 Y0.000 E1 F900
G0 X0.680 Y0.680 Z0.525 F1800
G1 X29.320 Y0.680 E1 F900
G1 X29.320 Y23.320 E1 F900
G1 X0.680 Y23.320 E1 F900
G1 X0.680 Y0.680 E1 F900
G0 X1.360 Y1.360 Z0.525 F1800
G1 X28.640 Y1.360 E1 F900
G1 X28.640 Y22.640 E1 F900
G1 X1.360 Y22.640 E1 F900
G1 X1.360 Y1.360 E1 F900
;TYPE:Sparse infill
G0 X2.100 Y2.050 Z0.525 F1800
G1 X2.100 Y21.950 E1 F900
G0 X4.200 Y2.050 Z0.525 F1800
G1 X4.200 Y21.950 E1 F900
G0 X6.300 Y2.050 Z0.525 F1800
G1 X6.300 Y21.950 E1 F900
G0 X8.400 Y2.050 Z0.525 F1800
G1 X8.400 Y21.950 E1 F900
G0 X10.500 Y2.050 Z0.525 F1800
G1 X10.500 Y21.950 E1 F900
G0 X12.600 Y2.050 Z0.525 F1800
G1 X12.600 Y21.950 E1 F900
G0 X14.700 Y2.050 Z0.525 F1800
G1 X14.700 Y21.950 E1 F900
G0 X16.800 Y2.050 Z0.525 F1800
G1 X16.800 Y21.950 E1 F900
G0 X18.900 Y2.050 Z0.525 F1800
G1 X18.900 Y21.950 E1 F900
G0 X21.000 Y2.050 Z0.525 F1800
G1 X21.000 Y21.950 E1 F900
;LAYER:2
;Z:0.875
;TYPE:External perimeter
G0 X0.000 Y0.000 Z0.875 F1800
G1 X30.000 Y0.000 E1 F900
G1 X30.000 Y24.000 E1 F900
G1 X0.000 Y24.000 E1 F900
G1 X0.000 Y0.000 E1 F900
G0 X0.680 Y0.680 Z0.875 F1800
G1 X29.320 Y0.680 E1 F900
G1 X29.320 Y23.320 E1 F900
G1 X0.680 Y23.320 E1 F900
G1 X0.680 Y0.680 E1 F900
G0 X1.360 Y1.360 Z0.875 F1800
G1 X28.640 Y1.360 E1 F900
G1 X28.640 Y22.640 E1 F900
G1 X1.360 Y22.640 E1 F900
G1 X1.360 Y1.360 E1 F900
;TYPE:Sparse infill
G0 X2.050 Y2.100 Z0.875 F1800
G1 X27.950 Y2.100 E1 F900
G0 X2.050 Y4.200 Z0.875 F1800
G1 X27.950 Y4.200 E1 F900
G0 X2.050 Y6.300 Z0.875 F1800
G1 X27.950 Y6.300 E1 F900
G0 X2.050 Y8.400 Z0.875 F1800
G1 X27.950 Y8.400 E1 F900
G0 X2.050 Y10.500 Z0.875 F1800
G1 X27.950 Y10.500 E1 F900
G0 X2.050 Y12.600 Z0.875 F1800
G1 X27.950 Y12.600 E1 F900
G0 X2.050 Y14.700 Z0.875 F1800
G1 X27.950 Y14.700 E1 F900
G0 X2.050 Y16.800 Z0.875 F1800
G1 X27.950 Y16.800 E1 F900
G0 X2.050 Y18.900 Z0.875 F1800
G1 X27.950 Y18.900 E1 F900
G0 X2.050 Y21.000 Z0.875 F1800
G1 X27.950 Y21.000 E1 F900
;LAYER:3
;Z:1.225
;TYPE:External perimeter
G0 X0.000 Y0.000 Z1.225 F1800
G1 X30.000 Y0.000 E1 F900
G1 X30.000 Y24.000 E1 F900
G1 X0.000 Y24.000 E1 F900
G1 X0.000 Y0.000 E1 F900
G0 X0.680 Y0.680 Z1.225 F1800
G1 X29.320 Y0.680 E1 F900
G1 X29.320 Y23.320 E1 F900
G1 X0.680 Y23.320 E1 F900
G1 X0.680 Y0.680 E1 F900
G0 X1.360 Y1.360 Z1.225 F1800
G1 X28.640 Y1.360 E1 F900
G1 X28.640 Y22.640 E1 F900
G1 X1.360 Y22.640 E1 F900
G1 X1.360 Y1.360 E1 F900
;TYPE:Sparse infill
G0 X2.100 Y2.050 Z1.225 F1800
G1 X2.100 Y21.950 E1 F900
G0 X4.200 Y2.050 Z1.225 F1800
G1 X4.200 Y21.950 E1 F900
G0 X6.300 Y2.050 Z1.225 F1800
G1 X6.300 Y21.950 E1 F900
G0 X8.400 Y2.050 Z1.225 F1800
G1 X8.400 Y21.950 E1 F900
G0 X10.500 Y2.050 Z1.225 F1800
G1 X10.500 Y21.950 E1 F900
G0 X12.600 Y2.050 Z1.225 F1800
G1 X12.600 Y21.950 E1 F900
G0 X14.700 Y2.050 Z1.225 F1800
G1 X14.700 Y21.950 E1 F900
G0 X16.800 Y2.050 Z1.225 F1800
G1 X16.800 Y21.950 E1 F900
G0 X18.900 Y2.050 Z1.225 F1800
G1 X18.900 Y21.950 E1 F900
G0 X21.000 Y2.050 Z1.225 F1800
G1 X21.000 Y21.950 E1 F900
;LAYER:4
;Z:1.575
;TYPE:External perimeter
G0 X0.000 Y0.000 Z1.575 F1800
G1 X30.000 Y0.000 E1 F900
G1 X30.000 Y24.000 E1 F900
G1 X0.000 Y24.000 E1 F900
G1 X0.000 Y0.000 E1 F900
G0 X0.680 Y0.680 Z1.575 F1800
G1 X29.320 Y0.680 E1 F900
G1 X29.320 Y23.320 E1 F900
G1 X0.680 Y23.320 E1 F900
G1 X0.680 Y0.680 E1 F900
G0 X1.360 Y1.360 Z1.575 F1800
G1 X28.640 Y1.360 E1 F900
G1 X28.640 Y22.640 E1 F900
G1 X1.360 Y22.640 E1 F900
G1 X1.360 Y1.360 E1 F900
;TYPE:Sparse infill
G0 X2.050 Y2.100 Z1.575 F1800
G1 X27.950 Y2.100 E1 F900
G0 X2.050 Y4.200 Z1.575 F1800
G1 X27.950 Y4.200 E1 F900
G0 X2.050 Y6.300 Z1.575 F1800
G1 X27.950 Y6.300 E1 F900
G0 X2.050 Y8.400 Z1.575 F1800
G1 X27.950 Y8.400 E1 F900
G0 X2.050 Y10.500 Z1.575 F1800
G1 X27.950 Y10.500 E1 F900
G0 X2.050 Y12.600 Z1.575 F1800
G1 X27.950 Y12.600 E1 F900
G0 X2.050 Y14.700 Z1.575 F1800
G1 X27.950 Y14.700 E1 F900
G0 X2.050 Y16.800 Z1.575 F1800
G1 X27.950 Y16.800 E1 F900
G0 X2.050 Y18.900 Z1.575 F1800
G1 X27.950 Y18.900 E1 F900
G0 X2.050 Y21.000 Z1.575 F1800
G1 X27.950 Y21.000 E1 F900
;LAYER:5
;Z:1.925
;TYPE:External perimeter
G0 X0.000 Y0.000 Z1.925 F1800
G1 X30.000 Y0.000 E1 F900
G1 X30.000 Y24.000 E1 F900
G1 X0.000 Y24.000 E1 F900
G1 X0.000 Y0.000 E1 F900
G0 X0.680 Y0.680 Z1.925 F1800
G1 X29.320 Y0.680 E1 F900
G1 X29.320 Y23.320 E1 F900
G1 X0.680 Y23.320 E1 F900
G1 X0.680 Y0.680 E1 F900
G0 X1.360 Y1.360 Z1.925 F1800
G1 X28.640 Y1.360 E1 F900
G1 X28.640 Y22.640 E1 F900
G1 X1.360 Y22.640 E1 F900
G1 X1.360 Y1.360 E1 F900
;TYPE:Sparse infill
G0 X2.100 Y2.050 Z1.925 F1800
G1 X2.100 Y21.950 E1 F900
G0 X4.200 Y2.050 Z1.925 F1800
G1 X4.200 Y21.950 E1 F900
G0 X6.300 Y2.050 Z1.925 F1800
G1 X6.300 Y21.950 E1 F900
G0 X8.400 Y2.050 Z1.925 F1800
G1 X8.400 Y21.950 E1 F900
G0 X10.500 Y2.050 Z1.925 F1800
G1 X10.500 Y21.950 E1 F900
G0 X12.600 Y2.050 Z1.925 F1800
G1 X12.600 Y21.950 E1 F900
G0 X14.700 Y2.050 Z1.925 F1800
G1 X14.700 Y21.950 E1 F900
G0 X16.800 Y2.050 Z1.925 F1800
G1 X16.800 Y21.950 E1 F900
G0 X18.900 Y2.050 Z1.925 F1800
G1 X18.900 Y21.950 E1 F900
G0 X21.000 Y2.050 Z1.925 F1800
G1 X21.000 Y21.950 E1 F900
;LAYER:6
;Z:2.275
;TYPE:External perimeter
G0 X0.000 Y0.000 Z2.275 F1800
G1 X30.000 Y0.000 E1 F900
G1 X30.000 Y24.000 E1 F900
G1 X0.000 Y24.000 E1 F900
G1 X0.000 Y0.000 E1 F900
G0 X0.680 Y0.680 Z2.275 F1800
G1 X29.320 Y0.680 E1 F900
G1 X29.320 Y23.320 E1 F900
G1 X0.680 Y23.320 E1 F900
G1 X0.680 Y0.680 E1 F900
G0 X1.360 Y1.360 Z2.275 F1800
G1 X28.640 Y1.360 E1 F900
G1 X28.640 Y22.640 E1 F900
G1 X1.360 Y22.640 E1 F900
G1 X1.360 Y1.360 E1 F900
;TYPE:Sparse infill
G0 X2.050 Y2.100 Z2.275 F1800
G1 X27.950 Y2.100 E1 F900
G0 X2.050 Y4.200 Z2.275 F1800
G1 X27.950 Y4.200 E1 F900
G0 X2.050 Y6.300 Z2.275 F1800
G1 X27.950 Y6.300 E1 F900
G0 X2.050 Y8.400 Z2.275 F1800
G1 X27.950 Y8.400 E1 F900
G0 X2.050 Y10.500 Z2.275 F1800
G1 X27.950 Y10.500 E1 F900
G0 X2.050 Y12.600 Z2.275 F1800
G1 X27.950 Y12.600 E1 F900
G0 X2.050 Y14.700 Z2.275 F1800
G1 X27.950 Y14.700 E1 F900
G0 X2.050 Y16.800 Z2.275 F1800
G1 X27.950 Y16.800 E1 F900
G0 X2.050 Y18.900 Z2.275 F1800
G1 X27.950 Y18.900 E1 F900
G0 X2.050 Y21.000 Z2.275 F1800
G1 X27.950 Y21.000 E1 F900
;LAYER:7
;Z:2.625
;TYPE:External perimeter
G0 X0.000 Y0.000 Z2.625 F1800
G1 X30.000 Y0.000 E1 F900
G1 X30.000 Y24.000 E1 F900
G1 X0.000 Y24.000 E1 F900
G1 X0.000 Y0.000 E1 F900
G0 X0.680 Y0.680 Z2.625 F1800
G1 X29.320 Y0.680 E1 F900
G1 X29.320 Y23.320 E1 F900
G1 X0.680 Y23.320 E1 F900
G1 X0.680 Y0.680 E1 F900
G0 X1.360 Y1.360 Z2.625 F1800
G1 X28.640 Y1.360 E1 F900
G1 X28.640 Y22.640 E1 F900
G1 X1.360 Y22.640 E1 F900
G1 X1.360 Y1.360 E1 F900
;TYPE:Sparse infill
G0 X2.100 Y2.050 Z2.625 F1800
G1 X2.100 Y21.950 E1 F900
G0 X4.200 Y2.050 Z2.625 F1800
G1 X4.200 Y21.950 E1 F900
G0 X6.300 Y2.050 Z2.625 F1800
G1 X6.300 Y21.950 E1 F900
G0 X8.400 Y2.050 Z2.625 F1800
G1 X8.400 Y21.950 E1 F900
G0 X10.500 Y2.050 Z2.625 F1800
G1 X10.500 Y21.950 E1 F900
G0 X12.600 Y2.050 Z2.625 F1800
G1 X12.600 Y21.950 E1 F900
G0 X14.700 Y2.050 Z2.625 F1800
G1 X14.700 Y21.950 E1 F900
G0 X16.800 Y2.050 Z2.625 F1800
G1 X16.800 Y21.950 E1 F900
G0 X18.900 Y2.050 Z2.625 F1800
G1 X18.900 Y21.950 E1 F900
G0 X21.000 Y2.050 Z2.625 F1800
G1 X21.000 Y21.950 E1 F900
