; 5AxisSclicer T08 Tube Thin-Wall Indexed
; reference XYZAC profile; offline simulation only
G21 ; millimetres
G90 ; absolute axes
M82 ; absolute extrusion
G92 E0 ; known initial extrusion position
; T08 POINT 1 point-0000001 approach
G1 A90.000000 C90.000000 X-300.000000 Y279.750000 Z407.500000 F1.000000
; T08 EVENT event-0000001 prime
G1 E1.0 F1.000000
; T08 POINT 2 point-0000002 deposition
G1 A90.000000 C89.428571 X-296.045255 Y279.750000 Z410.471824 E1.02167826486361609 F1.000000
; T08 POINT 3 point-0000003 deposition
G1 A90.000000 C88.285714 X-287.938569 Y279.750000 Z416.295425 E1.04231990342607568 F1.000000
; T08 POINT 4 point-0000004 deposition
G1 A90.000000 C87.142857 X-279.717341 Y279.750000 Z421.956376 E1.06296134842401096 F1.000000
; T08 POINT 5 point-0000005 deposition
G1 A90.000000 C86.000000 X-271.384838 Y279.750000 Z427.452424 E1.083602651471203113 F1.000000
; T08 POINT 6 point-0000006 deposition
G1 A90.000000 C84.857143 X-262.944370 Y279.750000 Z432.781383 E1.104243864184581527 F1.000000
; T08 POINT 7 point-0000007 deposition
G1 A90.000000 C83.714286 X-254.399291 Y279.750000 Z437.941134 E1.124885038183127941 F1.000000
; T08 POINT 8 point-0000008 deposition
G1 A90.000000 C82.571429 X-245.752998 Y279.750000 Z442.929622 E1.145526225086632308 F1.000000
; T08 POINT 9 point-0000009 deposition
G1 A90.000000 C81.428571 X-237.008926 Y279.750000 Z447.744863 E1.166167476514654272 F1.000000
; T08 POINT 10 point-0000010 deposition
G1 A90.000000 C80.285714 X-228.170549 Y279.750000 Z452.384942 E1.186808844085255932 F1.000000
; T08 POINT 11 point-0000011 deposition
G1 A90.000000 C79.142857 X-219.241381 Y279.750000 Z456.848013 E1.207450379413984774 F1.000000
; T08 POINT 12 point-0000012 deposition
G1 A90.000000 C78.273294 X-212.414959 Y279.750000 Z460.124320 E1.228587817444477880 F1.000000
; T08 POINT 13 point-0000013 deposition
G1 A90.000000 C77.726706 X-208.139464 Y279.750000 Z462.130330 E1.250311126332047696 F1.000000
; T08 POINT 14 point-0000014 deposition
G1 A90.000000 C76.857143 X-201.234167 Y279.750000 Z465.236191 E1.271448564362518916 F1.000000
; T08 POINT 15 point-0000015 deposition
G1 A90.000000 C75.714286 X-192.054049 Y279.750000 Z469.157962 E1.292090099691240274 F1.000000
; T08 POINT 16 point-0000016 deposition
G1 A90.000000 C74.571429 X-182.797536 Y279.750000 Z472.896051 E1.312731467261856319 F1.000000
; T08 POINT 17 point-0000017 deposition
G1 A90.000000 C73.428571 X-173.468304 Y279.750000 Z476.448971 E1.333372718689865959 F1.000000
; T08 POINT 18 point-0000018 deposition
G1 A90.000000 C72.285714 X-164.070063 Y279.750000 Z479.815308 E1.354013905593388999 F1.000000
; T08 POINT 19 point-0000019 deposition
G1 A90.000000 C71.142857 X-154.606547 Y279.750000 Z482.993724 E1.374655079591917639 F1.000000
; T08 POINT 20 point-0000020 deposition
G1 A90.000000 C70.000000 X-145.081517 Y279.750000 Z485.982953 E1.395296292305303999 F1.000000
; T08 POINT 21 point-0000021 deposition
G1 A90.000000 C68.857143 X-135.498758 Y279.750000 Z488.781807 E1.415937595352496039 F1.000000
; T08 POINT 22 point-0000022 deposition
G1 A90.000000 C67.714286 X-125.862079 Y279.750000 Z491.389171 E1.436579040350426519 F1.000000
; T08 POINT 23 point-0000023 deposition
G1 A90.000000 C66.571429 X-116.175310 Y279.750000 Z493.804009 E1.457220678912894505 F1.000000
; T08 POINT 24 point-0000024 deposition
G1 A90.000000 C66.000000 X-111.368980 Y279.750000 Z494.939176 E1.478898943776505107 F1.000000
; T08 POINT 25 point-0000025 deposition
G1 A90.000000 C65.428571 X-106.551572 Y279.750000 Z496.025407 E1.500577208640093257 F1.000000
; T08 POINT 26 point-0000026 deposition
G1 A90.000000 C64.285714 X-96.776190 Y279.750000 Z498.052481 E1.521218847202564237 F1.000000
; T08 POINT 27 point-0000027 deposition
G1 A90.000000 C63.142857 X-86.962321 Y279.750000 Z499.884378 E1.541860292200496503 F1.000000
; T08 POINT 28 point-0000028 deposition
G1 A90.000000 C62.000000 X-77.113865 Y279.750000 Z501.520368 E1.562501595247680027 F1.000000
; T08 POINT 29 point-0000029 deposition
G1 A90.000000 C60.857143 X-67.234736 Y279.750000 Z502.959801 E1.583142807961069847 F1.000000
; T08 POINT 30 point-0000030 deposition
G1 A90.000000 C59.714286 X-57.328860 Y279.750000 Z504.202104 E1.603783981959609347 F1.000000
; T08 POINT 31 point-0000031 deposition
G1 A90.000000 C58.571429 X-47.400174 Y279.750000 Z505.246782 E1.624425168863120223 F1.000000
; T08 POINT 32 point-0000032 deposition
G1 A90.000000 C57.428571 X-37.452626 Y279.750000 Z506.093421 E1.645066420291136286 F1.000000
; T08 POINT 33 point-0000033 deposition
G1 A90.000000 C56.285714 X-27.490167 Y279.750000 Z506.741683 E1.665707787861739844 F1.000000
; T08 POINT 34 point-0000034 deposition
G1 A90.000000 C55.142857 X-17.516758 Y279.750000 Z507.191311 E1.686349323190468866 F1.000000
; T08 POINT 35 point-0000035 deposition
G1 A90.000000 C54.273294 X-9.949550 Y279.750000 Z507.400416 E1.707486761220963686 F1.000000
; T08 POINT 36 point-0000036 deposition
G1 A90.000000 C53.726706 X-5.232272 Y279.750000 Z507.472832 E1.729210070108531861 F1.000000
; T08 POINT 37 point-0000037 deposition
G1 A90.000000 C52.857143 X2.337783 Y279.750000 Z507.494120 E1.750347508139007887 F1.000000
; T08 POINT 38 point-0000038 deposition
G1 A90.000000 C51.714286 X12.320251 Y279.750000 Z507.347182 E1.770989043467730199 F1.000000
; T08 POINT 39 point-0000039 deposition
G1 A90.000000 C50.571429 X22.297805 Y279.750000 Z507.001367 E1.791630411038336706 F1.000000
; T08 POINT 40 point-0000040 deposition
G1 A90.000000 C49.428571 X32.266477 Y279.750000 Z506.456815 E1.812271662466352054 F1.000000
; T08 POINT 41 point-0000041 deposition
G1 A90.000000 C48.285714 X42.222308 Y279.750000 Z505.713742 E1.832912849369864764 F1.000000
; T08 POINT 42 point-0000042 deposition
G1 A90.000000 C47.142857 X52.161339 Y279.750000 Z504.772443 E1.853554023368399624 F1.000000
; T08 POINT 43 point-0000043 deposition
G1 A90.000000 C46.000000 X62.079620 Y279.750000 Z503.633293 E1.874195236081787034 F1.000000
; T08 POINT 44 point-0000044 deposition
G1 A90.000000 C44.857143 X71.973210 Y279.750000 Z502.296745 E1.894836539128975444 F1.000000
; T08 POINT 45 point-0000045 deposition
G1 A90.000000 C43.714286 X81.838177 Y279.750000 Z500.763331 E1.915477984126907589 F1.000000
; T08 POINT 46 point-0000046 deposition
G1 A90.000000 C42.571429 X91.670599 Y279.750000 Z499.033661 E1.936119622689380883 F1.000000
; T08 POINT 47 point-0000047 deposition
G1 A90.000000 C42.000000 X96.518748 Y279.750000 Z498.095690 E1.957797887552991475 F1.000000
; T08 POINT 48 point-0000048 deposition
G1 A90.000000 C41.428571 X101.357298 Y279.750000 Z497.108470 E1.979476152416577160 F1.000000
; T08 POINT 49 point-0000049 deposition
G1 A90.000000 C40.285714 X111.112923 Y279.750000 Z494.988524 E2.000117790979043942 F1.000000
; T08 POINT 50 point-0000050 deposition
G1 A90.000000 C39.142857 X120.824326 Y279.750000 Z492.674620 E2.020759235976982127 F1.000000
; T08 POINT 51 point-0000051 deposition
G1 A90.000000 C38.000000 X130.487647 Y279.750000 Z490.167678 E2.041400539024163887 F1.000000
; T08 POINT 52 point-0000052 deposition
G1 A90.000000 C36.857143 X140.099046 Y279.750000 Z487.468695 E2.062041751737552247 F1.000000
; T08 POINT 53 point-0000053 deposition
G1 A90.000000 C35.714286 X149.654702 Y279.750000 Z484.578746 E2.082682925736089964 F1.000000
; T08 POINT 54 point-0000054 deposition
G1 A90.000000 C34.571429 X159.150819 Y279.750000 Z481.498980 E2.103324112639603751 F1.000000
; T08 POINT 55 point-0000055 deposition
G1 A90.000000 C33.428571 X168.583623 Y279.750000 Z478.230622 E2.123965364067609017 F1.000000
; T08 POINT 56 point-0000056 deposition
G1 A90.000000 C32.285714 X177.949363 Y279.750000 Z474.774972 E2.144606731638235890 F1.000000
; T08 POINT 57 point-0000057 deposition
G1 A90.000000 C31.142857 X187.244320 Y279.750000 Z471.133406 E2.165248266966943030 F1.000000
; T08 POINT 58 point-0000058 deposition
G1 A90.000000 C30.273294 X194.240725 Y279.750000 Z468.239178 E2.186385704997449220 F1.000000
; T08 POINT 59 point-0000059 deposition
G1 A90.000000 C29.726706 X198.575129 Y279.750000 Z466.365479 E2.208109013885018894 F1.000000
; T08 POINT 60 point-0000060 deposition
G1 A90.000000 C28.857143 X205.497861 Y279.750000 Z463.298488 E2.229246451915485474 F1.000000
; T08 POINT 61 point-0000061 deposition
G1 A90.000000 C27.714286 X214.558420 Y279.750000 Z459.108253 E2.249887987244211807 F1.000000
; T08 POINT 62 point-0000062 deposition
G1 A90.000000 C26.571429 X223.533603 Y279.750000 Z454.738334 E2.270529354814825184 F1.000000
; T08 POINT 63 point-0000063 deposition
G1 A90.000000 C25.428571 X232.419843 Y279.750000 Z450.190471 E2.291170606242831474 F1.000000
; T08 POINT 64 point-0000064 deposition
G1 A90.000000 C24.285714 X241.213608 Y279.750000 Z445.466472 E2.311811793146348574 F1.000000
; T08 POINT 65 point-0000065 deposition
G1 A90.000000 C23.142857 X249.911405 Y279.750000 Z440.568218 E2.332452967144886644 F1.000000
; T08 POINT 66 point-0000066 deposition
G1 A90.000000 C22.000000 X258.509776 Y279.750000 Z435.497656 E2.353094179858274860 F1.000000
; T08 POINT 67 point-0000067 deposition
G1 A90.000000 C20.857143 X267.005305 Y279.750000 Z430.256804 E2.373735482905459040 F1.000000
; T08 POINT 68 point-0000068 deposition
G1 A90.000000 C19.714286 X275.394616 Y279.750000 Z424.847747 E2.394376927903394908 F1.000000
; T08 POINT 69 point-0000069 deposition
G1 A90.000000 C18.571429 X283.674376 Y279.750000 Z419.272638 E2.415018566465858028 F1.000000
; T08 POINT 70 point-0000070 deposition
G1 A90.000000 C18.000000 X287.717508 Y279.750000 Z416.423753 E2.436696831329476858 F1.000000
; T08 POINT 71 point-0000071 deposition
G1 A90.000000 C17.428571 X291.732023 Y279.750000 Z413.533741 E2.458375096193064194 F1.000000
; T08 POINT 72 point-0000072 deposition
G1 A90.000000 C16.285714 X299.782854 Y279.750000 Z407.633340 E2.479016734755526597 F1.000000
; T08 POINT 73 point-0000073 deposition
G1 A90.000000 C15.142857 X307.714400 Y279.750000 Z401.573736 E2.499658179753464967 F1.000000
; T08 POINT 74 point-0000074 deposition
G1 A90.000000 C14.000000 X315.523510 Y279.750000 Z395.357338 E2.520299482800651337 F1.000000
; T08 POINT 75 point-0000075 deposition
G1 A90.000000 C12.857143 X323.207079 Y279.750000 Z388.986620 E2.540940695514030553 F1.000000
; T08 POINT 76 point-0000076 deposition
G1 A90.000000 C11.714286 X330.762057 Y279.750000 Z382.464118 E2.561581869512575323 F1.000000
; T08 POINT 77 point-0000077 deposition
G1 A90.000000 C10.571429 X338.185440 Y279.750000 Z375.792424 E2.582223056416082761 F1.000000
; T08 POINT 78 point-0000078 deposition
G1 A90.000000 C9.428571 X345.474280 Y279.750000 Z368.974196 E2.602864307844097641 F1.000000
; T08 POINT 79 point-0000079 deposition
G1 A90.000000 C8.285714 X352.625680 Y279.750000 Z362.012143 E2.623505675414710799 F1.000000
; T08 POINT 80 point-0000080 deposition
G1 A90.000000 C7.142857 X359.636800 Y279.750000 Z354.909038 E2.644147210743432005 F1.000000
; T08 POINT 81 point-0000081 deposition
G1 A90.000000 C6.273294 X364.849513 Y279.750000 Z349.411939 E2.665284648773934902 F1.000000
; T08 POINT 82 point-0000082 deposition
G1 A90.000000 C5.726706 X368.042588 Y279.750000 Z345.916105 E2.687007957661503912 F1.000000
; T08 POINT 83 point-0000083 deposition
G1 A90.000000 C4.857143 X373.117844 Y279.750000 Z340.291121 E2.708145395691974165 F1.000000
; T08 POINT 84 point-0000084 deposition
G1 A90.000000 C3.714286 X379.691641 Y279.750000 Z332.782125 E2.728786931020693102 F1.000000
; T08 POINT 85 point-0000085 deposition
G1 A90.000000 C2.571429 X386.114362 Y279.750000 Z325.143705 E2.749428298591302022 F1.000000
; T08 POINT 86 point-0000086 deposition
G1 A90.000000 C1.428571 X392.383457 Y279.750000 Z317.378900 E2.770069550019321272 F1.000000
; T08 POINT 87 point-0000087 deposition
G1 A90.000000 C0.285714 X398.496435 Y279.750000 Z309.490799 E2.790710736922831382 F1.000000
; T08 POINT 88 point-0000088 deposition
G1 A90.000000 C-0.857143 X404.450868 Y279.750000 Z301.482541 E2.811351910921372485 F1.000000
; T08 POINT 89 point-0000089 deposition
G1 A90.000000 C-2.000000 X410.244392 Y279.750000 Z293.357311 E2.831993123634754542 F1.000000
; T08 POINT 90 point-0000090 deposition
G1 A90.000000 C-3.142857 X415.874705 Y279.750000 Z285.118343 E2.852634426681940132 F1.000000
; T08 POINT 91 point-0000091 deposition
G1 A90.000000 C-4.285714 X421.339573 Y279.750000 Z276.768914 E2.873275871679874674 F1.000000
; T08 POINT 92 point-0000092 deposition
G1 A90.000000 C-5.428571 X426.636823 Y279.750000 Z268.312346 E2.893917510242345137 F1.000000
; T08 POINT 93 point-0000093 deposition
G1 A90.000000 C-6.000000 X429.167297 Y279.750000 Z264.045183 E2.915595775105961100 F1.000000
; T08 POINT 94 point-0000094 deposition
G1 A90.000000 C-6.571429 X431.655083 Y279.750000 Z259.752051 E2.937274039969540210 F1.000000
; T08 POINT 95 point-0000095 deposition
G1 A90.000000 C-7.714286 X436.610859 Y279.750000 Z251.091434 E2.957915678532018417 F1.000000
; T08 POINT 96 point-0000096 deposition
G1 A90.000000 C-8.857143 X441.392911 Y279.750000 Z242.333895 E2.978557123529944362 F1.000000
; T08 POINT 97 point-0000097 deposition
G1 A90.000000 C-10.000000 X445.999342 Y279.750000 Z233.482917 E2.999198426577132812 F1.000000
; T08 POINT 98 point-0000098 deposition
G1 A90.000000 C-11.142857 X450.428323 Y279.750000 Z224.542021 E3.019839639290517632 F1.000000
; T08 POINT 99 point-0000099 deposition
G1 A90.000000 C-12.285714 X454.678097 Y279.750000 Z215.514765 E3.040480813289061927 F1.000000
; T08 POINT 100 point-0000100 deposition
G1 A90.000000 C-13.428571 X458.746975 Y279.750000 Z206.404741 E3.061122000192564307 F1.000000
; T08 POINT 101 point-0000101 deposition
G1 A90.000000 C-14.571429 X462.633344 Y279.750000 Z197.215572 E3.081763251620582867 F1.000000
; T08 POINT 102 point-0000102 deposition
G1 A90.000000 C-15.714286 X466.335662 Y279.750000 Z187.950915 E3.102404619191198561 F1.000000
; T08 POINT 103 point-0000103 deposition
G1 A90.000000 C-16.857143 X469.852459 Y279.750000 Z178.614456 E3.123046154519914885 F1.000000
; T08 POINT 104 point-0000104 deposition
G1 A90.000000 C-17.726706 X472.377005 Y279.750000 Z171.465009 E3.144183592550419850 F1.000000
; T08 POINT 105 point-0000105 deposition
G1 A90.000000 C-18.273294 X473.867641 Y279.750000 Z166.951502 E3.165906901437987910 F1.000000
; T08 POINT 106 point-0000106 deposition
G1 A90.000000 C-19.142857 X476.214715 Y279.750000 Z159.741110 E3.187044339468450853 F1.000000
; T08 POINT 107 point-0000107 deposition
G1 A90.000000 C-20.285714 X479.166879 Y279.750000 Z150.211733 E3.207685874797179771 F1.000000
; T08 POINT 108 point-0000108 deposition
G1 A90.000000 C-21.428571 X481.928391 Y279.750000 Z140.625568 E3.228327242367786695 F1.000000
; T08 POINT 109 point-0000109 deposition
G1 A90.000000 C-22.571429 X484.498157 Y279.750000 Z130.986429 E3.248968493795799209 F1.000000
; T08 POINT 110 point-0000110 deposition
G1 A90.000000 C-23.714286 X486.875157 Y279.750000 Z121.298152 E3.269609680699318242 F1.000000
; T08 POINT 111 point-0000111 deposition
G1 A90.000000 C-24.857143 X489.058452 Y279.750000 Z111.564590 E3.290250854697851162 F1.000000
; T08 POINT 112 point-0000112 deposition
G1 A90.000000 C-26.000000 X491.047175 Y279.750000 Z101.789617 E3.310892067411241022 F1.000000
; T08 POINT 113 point-0000113 deposition
G1 A90.000000 C-27.142857 X492.840540 Y279.750000 Z91.977121 E3.331533370458424392 F1.000000
; T08 POINT 114 point-0000114 deposition
G1 A90.000000 C-28.285714 X494.437837 Y279.750000 Z82.131007 E3.352174815456358122 F1.000000
; T08 POINT 115 point-0000115 deposition
G1 A90.000000 C-29.428571 X495.838436 Y279.750000 Z72.255191 E3.372816454018825480 F1.000000
; T08 POINT 116 point-0000116 deposition
G1 A90.000000 C-30.000000 X496.410162 Y279.750000 Z67.307621 E3.394494718882446780 F1.000000
; T08 POINT 117 point-0000117 deposition
G1 A90.000000 C-30.571429 X496.932511 Y279.750000 Z62.353650 E3.416172983746030452 F1.000000
; T08 POINT 118 point-0000118 deposition
G1 A90.000000 C-31.714286 X497.938131 Y279.750000 Z52.430324 E3.436814622308496779 F1.000000
; T08 POINT 119 point-0000119 deposition
G1 A90.000000 C-32.857143 X498.745629 Y279.750000 Z42.489113 E3.457456067306429972 F1.000000
; T08 POINT 120 point-0000120 deposition
G1 A90.000000 C-34.000000 X499.354688 Y279.750000 Z32.533972 E3.478097370353611186 F1.000000
; T08 POINT 121 point-0000121 deposition
G1 A90.000000 C-35.142857 X499.765069 Y279.750000 Z22.568863 E3.498738583067001723 F1.000000
; T08 POINT 122 point-0000122 deposition
G1 A90.000000 C-36.285714 X499.976613 Y279.750000 Z12.597749 E3.519379757065538347 F1.000000
; T08 POINT 123 point-0000123 deposition
G1 A90.000000 C-37.428571 X499.989240 Y279.750000 Z2.624597 E3.540020943969050025 F1.000000
; T08 POINT 124 point-0000124 deposition
G1 A90.000000 C-38.571429 X499.802949 Y279.750000 Z-7.346623 E3.560662195397069715 F1.000000
; T08 POINT 125 point-0000125 deposition
G1 A90.000000 C-39.714286 X499.417819 Y279.750000 Z-17.311946 E3.581303562967681548 F1.000000
; T08 POINT 126 point-0000126 deposition
G1 A90.000000 C-40.857143 X498.834006 Y279.750000 Z-27.267406 E3.601945098296398878 F1.000000
; T08 POINT 127 point-0000127 deposition
G1 A90.000000 C-41.726706 X498.230719 Y279.750000 Z-34.832971 E3.623082536326906018 F1.000000
; T08 POINT 128 point-0000128 deposition
G1 A90.000000 C-42.273294 X497.752175 Y279.750000 Z-39.583726 E3.644805845214474030 F1.000000
; T08 POINT 129 point-0000129 deposition
G1 A90.000000 C-43.142857 X496.962088 Y279.750000 Z-47.132807 E3.665943283244940227 F1.000000
; T08 POINT 130 point-0000130 deposition
G1 A90.000000 C-44.285714 X495.783963 Y279.750000 Z-57.034844 E3.686584818573662754 F1.000000
; T08 POINT 131 point-0000131 deposition
G1 A90.000000 C-45.428571 X494.408575 Y279.750000 Z-66.911215 E3.707226186144270208 F1.000000
; T08 POINT 132 point-0000132 deposition
G1 A90.000000 C-46.571429 X492.836475 Y279.750000 Z-76.757990 E3.727867437572290302 F1.000000
; T08 POINT 133 point-0000133 deposition
G1 A90.000000 C-47.714286 X491.068292 Y279.750000 Z-86.571252 E3.748508624475798722 F1.000000
; T08 POINT 134 point-0000134 deposition
G1 A90.000000 C-48.857143 X489.104735 Y279.750000 Z-96.347095 E3.769149798474342142 F1.000000
; T08 POINT 135 point-0000135 deposition
G1 A90.000000 C-50.000000 X486.946589 Y279.750000 Z-106.081632 E3.789791011187730198 F1.000000
; T08 POINT 136 point-0000136 deposition
G1 A90.000000 C-51.142857 X484.594716 Y279.750000 Z-115.770990 E3.810432314234909068 F1.000000
; T08 POINT 137 point-0000137 deposition
G1 A90.000000 C-52.285714 X482.050056 Y279.750000 Z-125.411312 E3.831073759232846726 F1.000000
; T08 POINT 138 point-0000138 deposition
G1 A90.000000 C-53.428571 X479.313625 Y279.750000 Z-134.998764 E3.851715397795316113 F1.000000
; T08 POINT 139 point-0000139 deposition
G1 A90.000000 C-54.000000 X477.819199 Y279.750000 Z-139.771222 E3.873393662658936020 F1.000000
; T08 POINT 140 point-0000140 deposition
G1 A90.000000 C-54.571429 X476.277246 Y279.750000 Z-144.529484 E3.895071927522519450 F1.000000
; T08 POINT 141 point-0000141 deposition
G1 A90.000000 C-55.714286 X473.160630 Y279.750000 Z-153.999680 E3.915713566084989386 F1.000000
; T08 POINT 142 point-0000142 deposition
G1 A90.000000 C-56.857143 X469.855749 Y279.750000 Z-163.405632 E3.936355011082919994 F1.000000
; T08 POINT 143 point-0000143 deposition
G1 A90.000000 C-58.000000 X466.363922 Y279.750000 Z-172.743597 E3.956996314130107974 F1.000000
; T08 POINT 144 point-0000144 deposition
G1 A90.000000 C-59.142857 X462.686544 Y279.750000 Z-182.009861 E3.977637526843495354 F1.000000
; T08 POINT 145 point-0000145 deposition
G1 A90.000000 C-60.285714 X458.825080 Y279.750000 Z-191.200737 E3.998278700842036200 F1.000000
; T08 POINT 146 point-0000146 deposition
G1 A90.000000 C-61.428571 X454.781072 Y279.750000 Z-200.312567 E4.018919887745545600 F1.000000
; T08 POINT 147 point-0000147 deposition
G1 A90.000000 C-62.571429 X450.556132 Y279.750000 Z-209.341728 E4.039561139173561312 F1.000000
; T08 POINT 148 point-0000148 deposition
G1 A90.000000 C-63.714286 X446.151946 Y279.750000 Z-218.284626 E4.060202506744170632 F1.000000
; T08 POINT 149 point-0000149 deposition
G1 A90.000000 C-64.857143 X441.570270 Y279.750000 Z-227.137704 E4.080844042072896608 F1.000000
; T08 POINT 150 point-0000150 deposition
G1 A90.000000 C-65.726706 X437.940314 Y279.750000 Z-233.811207 E4.101981480103397964 F1.000000
; T08 POINT 151 point-0000151 deposition
G1 A90.000000 C-66.273294 X435.566338 Y279.750000 Z-237.977760 E4.123704788990966784 F1.000000
; T08 POINT 152 point-0000152 deposition
G1 A90.000000 C-67.142857 X431.772553 Y279.750000 Z-244.560252 E4.144842227021433998 F1.000000
; T08 POINT 153 point-0000153 deposition
G1 A90.000000 C-68.285714 X426.669647 Y279.750000 Z-253.122790 E4.165483762350160868 F1.000000
; T08 POINT 154 point-0000154 deposition
G1 A90.000000 C-69.428571 X421.396975 Y279.750000 Z-261.581648 E4.186125129920770288 F1.000000
; T08 POINT 155 point-0000155 deposition
G1 A90.000000 C-70.571429 X415.956640 Y279.750000 Z-269.933460 E4.206766381348782558 F1.000000
; T08 POINT 156 point-0000156 deposition
G1 A90.000000 C-71.714286 X410.350809 Y279.750000 Z-278.174902 E4.227407568252296858 F1.000000
; T08 POINT 157 point-0000157 deposition
G1 A90.000000 C-72.857143 X404.581717 Y279.750000 Z-286.302697 E4.248048742250839238 F1.000000
; T08 POINT 158 point-0000158 deposition
G1 A90.000000 C-74.000000 X398.651663 Y279.750000 Z-294.313610 E4.268689954964226354 F1.000000
; T08 POINT 159 point-0000159 deposition
G1 A90.000000 C-75.142857 X392.563012 Y279.750000 Z-302.204454 E4.289331258011404542 F1.000000
; T08 POINT 160 point-0000160 deposition
G1 A90.000000 C-76.285714 X386.318188 Y279.750000 Z-309.972090 E4.309972703009348816 F1.000000
; T08 POINT 161 point-0000161 deposition
G1 A90.000000 C-77.428571 X379.919682 Y279.750000 Z-317.613427 E4.330614341571814279 F1.000000
; T08 POINT 162 point-0000162 deposition
G1 A90.000000 C-78.000000 X376.608957 Y279.750000 Z-321.385533 E4.352292606435429513 F1.000000
; T08 POINT 163 point-0000163 deposition
G1 A90.000000 C-78.571429 X373.260771 Y279.750000 Z-325.125378 E4.373970871299013619 F1.000000
; T08 POINT 164 point-0000164 deposition
G1 A90.000000 C-79.714286 X366.562609 Y279.750000 Z-332.504955 E4.394612509861479709 F1.000000
; T08 POINT 165 point-0000165 deposition
G1 A90.000000 C-80.857143 X359.718592 Y279.750000 Z-339.749268 E4.415253954859417759 F1.000000
; T08 POINT 166 point-0000166 deposition
G1 A90.000000 C-82.000000 X352.731449 Y279.750000 Z-346.855435 E4.435895257906604319 F1.000000
; T08 POINT 167 point-0000167 deposition
G1 A90.000000 C-83.142857 X345.603963 Y279.750000 Z-353.820630 E4.456536470619986963 F1.000000
; T08 POINT 168 point-0000168 deposition
G1 A90.000000 C-84.285714 X338.338973 Y279.750000 Z-360.642081 E4.477177644618536553 F1.000000
; T08 POINT 169 point-0000169 deposition
G1 A90.000000 C-85.428571 X330.939375 Y279.750000 Z-367.317074 E4.497818831522040773 F1.000000
; T08 POINT 170 point-0000170 deposition
G1 A90.000000 C-86.571429 X323.408116 Y279.750000 Z-373.842953 E4.518460082950055511 F1.000000
; T08 POINT 171 point-0000171 deposition
G1 A90.000000 C-87.714286 X315.748197 Y279.750000 Z-380.217122 E4.539101450520672251 F1.000000
; T08 POINT 172 point-0000172 deposition
G1 A90.000000 C-88.857143 X307.962670 Y279.750000 Z-386.437046 E4.559742985849391247 F1.000000
; T08 POINT 173 point-0000173 deposition
G1 A90.000000 C-89.726706 X301.930549 Y279.750000 Z-391.064553 E4.580880423879890695 F1.000000
; T08 POINT 174 point-0000174 deposition
G1 A90.000000 C-90.273294 X298.062626 Y279.750000 Z-393.926470 E4.602603732767457565 F1.000000
; T08 POINT 175 point-0000175 deposition
G1 A90.000000 C-91.142857 X291.917974 Y279.750000 Z-398.404224 E4.623741170797927475 F1.000000
; T08 POINT 176 point-0000176 deposition
G1 A90.000000 C-92.285714 X283.774425 Y279.750000 Z-404.146718 E4.644382706126653850 F1.000000
; T08 POINT 177 point-0000177 deposition
G1 A90.000000 C-93.428571 X275.517962 Y279.750000 Z-409.725445 E4.665024073697269034 F1.000000
; T08 POINT 178 point-0000178 deposition
G1 A90.000000 C-94.571429 X267.151873 Y279.750000 Z-415.138187 E4.685665325125277774 F1.000000
; T08 POINT 179 point-0000179 deposition
G1 A90.000000 C-95.714286 X258.679492 Y279.750000 Z-420.382789 E4.706306512028796838 F1.000000
; T08 POINT 180 point-0000180 deposition
G1 A90.000000 C-96.857143 X250.104193 Y279.750000 Z-425.457165 E4.726947686027330118 F1.000000
; T08 POINT 181 point-0000181 deposition
G1 A90.000000 C-98.000000 X241.429392 Y279.750000 Z-430.359296 E4.747588898740721553 F1.000000
; T08 POINT 182 point-0000182 deposition
G1 A90.000000 C-99.142857 X232.658545 Y279.750000 Z-435.087232 E4.768230201787907683 F1.000000
; T08 POINT 183 point-0000183 deposition
G1 A90.000000 C-100.285714 X223.795144 Y279.750000 Z-439.639092 E4.788871646785836751 F1.000000
; T08 POINT 184 point-0000184 deposition
G1 A90.000000 C-101.428571 X214.842721 Y279.750000 Z-444.013064 E4.809513285348312091 F1.000000
; T08 POINT 185 point-0000185 deposition
G1 A90.000000 C-102.000000 X210.279604 Y279.750000 Z-446.132548 E4.831191550211920237 F1.000000
; T08 POINT 186 point-0000186 deposition
G1 A90.000000 C-102.571429 X205.695571 Y279.750000 Z-448.207362 E4.852869815075509677 F1.000000
; T08 POINT 187 point-0000187 deposition
G1 A90.000000 C-103.714286 X196.575835 Y279.750000 Z-452.220316 E4.873511453637976577 F1.000000
; T08 POINT 188 point-0000188 deposition
G1 A90.000000 C-104.857143 X187.377875 Y279.750000 Z-456.050378 E4.894152898635912957 F1.000000
; T08 POINT 189 point-0000189 deposition
G1 A90.000000 C-106.000000 X178.105354 Y279.750000 Z-459.696023 E4.914794201683100475 F1.000000
; T08 POINT 190 point-0000190 deposition
G1 A90.000000 C-107.142857 X168.761967 Y279.750000 Z-463.155802 E4.935435414396485325 F1.000000
; T08 POINT 191 point-0000191 deposition
G1 A90.000000 C-108.285714 X159.351433 Y279.750000 Z-466.428336 E4.956076588395023485 F1.000000
; T08 POINT 192 point-0000192 deposition
G1 A90.000000 C-109.428571 X149.877502 Y279.750000 Z-469.512326 E4.976717775298541057 F1.000000
; T08 POINT 193 point-0000193 deposition
G1 A90.000000 C-110.571429 X140.343947 Y279.750000 Z-472.406543 E4.997359026726555607 F1.000000
; T08 POINT 194 point-0000194 deposition
G1 A90.000000 C-111.714286 X130.754565 Y279.750000 Z-475.109836 E5.018000394297165027 F1.000000
; T08 POINT 195 point-0000195 deposition
G1 A90.000000 C-112.857143 X121.113174 Y279.750000 Z-477.621129 E5.038641929625890797 F1.000000
; T08 POINT 196 point-0000196 deposition
G1 A90.000000 C-113.726706 X113.718748 Y279.750000 Z-479.402478 E5.059779367656381873 F1.000000
; T08 POINT 197 point-0000197 deposition
G1 A90.000000 C-114.273294 X109.016679 Y279.750000 Z-480.464908 E5.081502676543950541 F1.000000
; T08 POINT 198 point-0000198 deposition
G1 A90.000000 C-115.142857 X101.580477 Y279.750000 Z-482.063704 E5.102640114574420218 F1.000000
; T08 POINT 199 point-0000199 deposition
G1 A90.000000 C-116.285714 X91.806179 Y279.750000 Z-483.993218 E5.123281649903150170 F1.000000
; T08 POINT 200 point-0000200 deposition
G1 A90.000000 C-117.428571 X81.995341 Y279.750000 Z-485.727198 E5.143923017473764782 F1.000000
; T08 POINT 201 point-0000201 deposition
G1 A90.000000 C-118.571429 X72.151872 Y279.750000 Z-487.264954 E5.164564268901780494 F1.000000
; T08 POINT 202 point-0000202 deposition
G1 A90.000000 C-119.714286 X62.279692 Y279.750000 Z-488.605875 E5.185205455805289894 F1.000000
; T08 POINT 203 point-0000203 deposition
G1 A90.000000 C-120.857143 X52.382732 Y279.750000 Z-489.749428 E5.205846629803828721 F1.000000
; T08 POINT 204 point-0000204 deposition
G1 A90.000000 C-122.000000 X42.464935 Y279.750000 Z-490.695156 E5.226487842517213304 F1.000000
; T08 POINT 205 point-0000205 deposition
G1 A90.000000 C-123.142857 X32.530251 Y279.750000 Z-491.442684 E5.247129145564403320 F1.000000
; T08 POINT 206 point-0000206 deposition
G1 A90.000000 C-124.285714 X22.582635 Y279.750000 Z-491.991715 E5.267770590562335160 F1.000000
; T08 POINT 207 point-0000207 deposition
G1 A90.000000 C-125.428571 X12.626050 Y279.750000 Z-492.342030 E5.288412229124802206 F1.000000
; T08 POINT 208 point-0000208 deposition
G1 A90.000000 C-126.000000 X7.590997 Y279.750000 Z-492.442373 E5.310090493988411049 F1.000000
; T08 POINT 209 point-0000209 deposition
G1 A90.000000 C-126.571429 X2.555190 Y279.750000 Z-492.493442 E5.331768758852007609 F1.000000
; T08 POINT 210 point-0000210 deposition
G1 A90.000000 C-127.714286 X-7.407435 Y279.750000 Z-492.445891 E5.352410397414472854 F1.000000
; T08 POINT 211 point-0000211 deposition
G1 A90.000000 C-128.857143 X-17.367128 Y279.750000 Z-492.199444 E5.373051842412414897 F1.000000
; T08 POINT 212 point-0000212 deposition
G1 A90.000000 C-130.000000 X-27.319923 Y279.750000 Z-491.754198 E5.393693145459594712 F1.000000
; T08 POINT 213 point-0000213 deposition
G1 A90.000000 C-131.142857 X-37.261856 Y279.750000 Z-491.110331 E5.414334358172978757 F1.000000
; T08 POINT 214 point-0000214 deposition
G1 A90.000000 C-132.285714 X-47.188967 Y279.750000 Z-490.268099 E5.434975532171526347 F1.000000
; T08 POINT 215 point-0000215 deposition
G1 A90.000000 C-133.428571 X-57.097302 Y279.750000 Z-489.227836 E5.455616719075034767 F1.000000
; T08 POINT 216 point-0000216 deposition
G1 A90.000000 C-134.571429 X-66.982917 Y279.750000 Z-487.989957 E5.476257970503050729 F1.000000
; T08 POINT 217 point-0000217 deposition
G1 A90.000000 C-135.714286 X-76.841872 Y279.750000 Z-486.554954 E5.496899338073662359 F1.000000
; T08 POINT 218 point-0000218 deposition
G1 A90.000000 C-136.857143 X-86.670242 Y279.750000 Z-484.923398 E5.517540873402384886 F1.000000
; T08 POINT 219 point-0000219 deposition
G1 A90.000000 C-137.726706 X-94.151560 Y279.750000 Z-483.550552 E5.538678311432874116 F1.000000
; T08 POINT 220 point-0000220 deposition
G1 A90.000000 C-138.273294 X-98.883741 Y279.750000 Z-482.629790 E5.560401620320442128 F1.000000
; T08 POINT 221 point-0000221 deposition
G1 A90.000000 C-139.142857 X-106.328854 Y279.750000 Z-481.073208 E5.581539058350925086 F1.000000
; T08 POINT 222 point-0000222 deposition
G1 A90.000000 C-140.285714 X-116.042038 Y279.750000 Z-478.856105 E5.602180593679644682 F1.000000
; T08 POINT 223 point-0000223 deposition
G1 A90.000000 C-141.428571 X-125.709068 Y279.750000 Z-476.445513 E5.622821961250262522 F1.000000
; T08 POINT 224 point-0000224 deposition
G1 A90.000000 C-142.571429 X-135.326093 Y279.750000 Z-473.842389 E5.643463212678267442 F1.000000
; T08 POINT 225 point-0000225 deposition
G1 A90.000000 C-143.714286 X-144.889283 Y279.750000 Z-471.047771 E5.664104399581788572 F1.000000
; T08 POINT 226 point-0000226 deposition
G1 A90.000000 C-144.857143 X-154.394829 Y279.750000 Z-468.062769 E5.684745573580328122 F1.000000
; T08 POINT 227 point-0000227 deposition
G1 A90.000000 C-146.000000 X-163.838946 Y279.750000 Z-464.888571 E5.705386786293706797 F1.000000
; T08 POINT 228 point-0000228 deposition
G1 A90.000000 C-147.142857 X-173.217871 Y279.750000 Z-461.526441 E5.726028089340898662 F1.000000
; T08 POINT 229 point-0000229 deposition
G1 A90.000000 C-148.285714 X-182.527870 Y279.750000 Z-457.977715 E5.746669534338833102 F1.000000
; T08 POINT 230 point-0000230 deposition
G1 A90.000000 C-149.428571 X-191.765233 Y279.750000 Z-454.243807 E5.767311172901300206 F1.000000
; T08 POINT 231 point-0000231 deposition
G1 A90.000000 C-150.000000 X-196.410162 Y279.750000 Z-452.307621 E5.788989437764904396 F1.000000
; T08 POINT 232 point-0000232 deposition
G1 A90.000000 C-150.571429 X-201.035554 Y279.750000 Z-450.326153 E5.810667702628500593 F1.000000
; T08 POINT 233 point-0000233 deposition
G1 A90.000000 C-151.714286 X-210.116640 Y279.750000 Z-446.226312 E5.831309341190973853 F1.000000
; T08 POINT 234 point-0000234 deposition
G1 A90.000000 C-152.857143 X-219.114145 Y279.750000 Z-441.945964 E5.851950786188906949 F1.000000
; T08 POINT 235 point-0000235 deposition
G1 A90.000000 C-154.000000 X-228.024487 Y279.750000 Z-437.486811 E5.872592089236092299 F1.000000
; T08 POINT 236 point-0000236 deposition
G1 A90.000000 C-155.142857 X-236.844115 Y279.750000 Z-432.850627 E5.893233301949473589 F1.000000
; T08 POINT 237 point-0000237 deposition
G1 A90.000000 C-156.285714 X-245.569516 Y279.750000 Z-428.039256 E5.913874475948024354 F1.000000
; T08 POINT 238 point-0000238 deposition
G1 A90.000000 C-157.428571 X-254.197216 Y279.750000 Z-423.054613 E5.934515662851524184 F1.000000
; T08 POINT 239 point-0000239 deposition
G1 A90.000000 C-158.571429 X-262.723777 Y279.750000 Z-417.898682 E5.955156914279545208 F1.000000
; T08 POINT 240 point-0000240 deposition
G1 A90.000000 C-159.714286 X-271.145802 Y279.750000 Z-412.573512 E5.975798281850155421 F1.000000
; T08 POINT 241 point-0000241 deposition
G1 A90.000000 C-160.857143 X-279.459938 Y279.750000 Z-407.081224 E5.996439817178876897 F1.000000
; T08 POINT 242 point-0000242 deposition
G1 A90.000000 C-161.726706 X-285.737708 Y279.750000 Z-402.791536 E6.017577255209364587 F1.000000
; T08 POINT 243 point-0000243 deposition
G1 A90.000000 C-162.273294 X-289.690762 Y279.750000 Z-400.046790 E6.039300564096933107 F1.000000
; T08 POINT 244 point-0000244 deposition
G1 A90.000000 C-163.142857 X-295.860608 Y279.750000 Z-395.604001 E6.060438002127418967 F1.000000
; T08 POINT 245 point-0000245 deposition
G1 A90.000000 C-164.285714 X-303.831381 Y279.750000 Z-389.623633 E6.081079537456138535 F1.000000
; T08 POINT 246 point-0000246 deposition
G1 A90.000000 C-165.428571 X-311.681286 Y279.750000 Z-383.485277 E6.101720905026753178 F1.000000
; T08 POINT 247 point-0000247 deposition
G1 A90.000000 C-166.571429 X-319.407196 Y279.750000 Z-377.191375 E6.122362156454763863 F1.000000
; T08 POINT 248 point-0000248 deposition
G1 A90.000000 C-167.714286 X-327.006034 Y279.750000 Z-370.744431 E6.143003343358276977 F1.000000
; T08 POINT 249 point-0000249 deposition
G1 A90.000000 C-168.857143 X-334.474773 Y279.750000 Z-364.147009 E6.163644517356819827 F1.000000
; T08 POINT 250 point-0000250 deposition
G1 A90.000000 C-170.000000 X-341.810436 Y279.750000 Z-357.401735 E6.184285730070197391 F1.000000
; T08 POINT 251 point-0000251 deposition
G1 A90.000000 C-171.142857 X-349.010101 Y279.750000 Z-350.511293 E6.204927033117394828 F1.000000
; T08 POINT 252 point-0000252 deposition
G1 A90.000000 C-172.285714 X-356.070899 Y279.750000 Z-343.478423 E6.225568478115320551 F1.000000
; T08 POINT 253 point-0000253 deposition
G1 A90.000000 C-173.428571 X-362.990018 Y279.750000 Z-336.305924 E6.246210116677797491 F1.000000
; T08 POINT 254 point-0000254 deposition
G1 A90.000000 C-174.000000 X-366.450219 Y279.750000 Z-332.667954 E6.267888381541393078 F1.000000
; T08 POINT 255 point-0000255 deposition
G1 A90.000000 C-174.571429 X-369.873971 Y279.750000 Z-328.996601 E6.289566646404992728 F1.000000
; T08 POINT 256 point-0000256 deposition
G1 A90.000000 C-175.714286 X-376.501517 Y279.750000 Z-321.553364 E6.310208284967457300 F1.000000
; T08 POINT 257 point-0000257 deposition
G1 A90.000000 C-176.857143 X-382.979285 Y279.750000 Z-313.979221 E6.330849729965393230 F1.000000
; T08 POINT 258 point-0000258 deposition
G1 A90.000000 C-178.000000 X-389.304694 Y279.750000 Z-306.277185 E6.351491033012584720 F1.000000
; T08 POINT 259 point-0000259 deposition
G1 A90.000000 C-179.142857 X-395.475224 Y279.750000 Z-298.450320 E6.372132245725969733 F1.000000
; T08 POINT 260 point-0000260 deposition
G1 A90.000000 C-180.285714 X-401.488415 Y279.750000 Z-290.501741 E6.392773419724510843 F1.000000
; T08 POINT 261 point-0000261 deposition
G1 A90.000000 C-181.428571 X-407.341872 Y279.750000 Z-282.434609 E6.413414606628019457 F1.000000
; T08 POINT 262 point-0000262 deposition
G1 A90.000000 C-182.571429 X-413.033260 Y279.750000 Z-274.252135 E6.434055858056031327 F1.000000
; T08 POINT 263 point-0000263 deposition
G1 A90.000000 C-183.714286 X-418.560312 Y279.750000 Z-265.957573 E6.454697225626649172 F1.000000
; T08 POINT 264 point-0000264 deposition
G1 A90.000000 C-184.857143 X-423.920825 Y279.750000 Z-257.554225 E6.475338760955365062 F1.000000
; T08 POINT 265 point-0000265 deposition
G1 A90.000000 C-185.726706 X-427.912713 Y279.750000 Z-251.089396 E6.496476198985853228 F1.000000
; T08 POINT 266 point-0000266 deposition
G1 A90.000000 C-186.273294 X-430.412117 Y279.750000 Z-246.995258 E6.518199507873422088 F1.000000
; T08 POINT 267 point-0000267 deposition
G1 A90.000000 C-187.142857 X-434.243023 Y279.750000 Z-240.434486 E6.539336945903910146 F1.000000
; T08 POINT 268 point-0000268 deposition
G1 A90.000000 C-188.285714 X-439.091365 Y279.750000 Z-231.724907 E6.559978481232623833 F1.000000
; T08 POINT 269 point-0000269 deposition
G1 A90.000000 C-189.428571 X-443.765027 Y279.750000 Z-222.920161 E6.580619848803244283 F1.000000
; T08 POINT 270 point-0000270 deposition
G1 A90.000000 C-190.571429 X-448.262143 Y279.750000 Z-214.023750 E6.601261100231250441 F1.000000
; T08 POINT 271 point-0000271 deposition
G1 A90.000000 C-191.714286 X-452.580922 Y279.750000 Z-205.039214 E6.621902287134769755 F1.000000
; T08 POINT 272 point-0000272 deposition
G1 A90.000000 C-192.857143 X-456.719640 Y279.750000 Z-195.970127 E6.642543461133305237 F1.000000
; T08 POINT 273 point-0000273 deposition
G1 A90.000000 C-194.000000 X-460.676647 Y279.750000 Z-186.820098 E6.663184673846691977 F1.000000
; T08 POINT 274 point-0000274 deposition
G1 A90.000000 C-195.142857 X-464.450365 Y279.750000 Z-177.592767 E6.683825976893876913 F1.000000
; T08 POINT 275 point-0000275 deposition
G1 A90.000000 C-196.285714 X-468.039288 Y279.750000 Z-168.291805 E6.704467421891818523 F1.000000
; T08 POINT 276 point-0000276 deposition
G1 A90.000000 C-197.428571 X-471.441984 Y279.750000 Z-158.920912 E6.725109060454284177 F1.000000
; T08 POINT 277 point-0000277 deposition
G1 A90.000000 C-198.000000 X-473.127705 Y279.750000 Z-154.210157 E6.746787325317883230 F1.000000
; T08 POINT 278 point-0000278 deposition
G1 A90.000000 C-198.571429 X-474.766366 Y279.750000 Z-149.483770 E6.768465590181479646 F1.000000
; T08 POINT 279 point-0000279 deposition
G1 A90.000000 C-199.714286 X-477.792609 Y279.750000 Z-139.984133 E6.789107228743950220 F1.000000
; T08 POINT 280 point-0000280 deposition
G1 A90.000000 C-200.857143 X-480.628775 Y279.750000 Z-130.425828 E6.809748673741888853 F1.000000
; T08 POINT 281 point-0000281 deposition
G1 A90.000000 C-202.000000 X-483.273732 Y279.750000 Z-120.812657 E6.830389976789071113 F1.000000
; T08 POINT 282 point-0000282 deposition
G1 A90.000000 C-203.142857 X-485.726424 Y279.750000 Z-111.148446 E6.851031189502454673 F1.000000
; T08 POINT 283 point-0000283 deposition
G1 A90.000000 C-204.285714 X-487.985870 Y279.750000 Z-101.437039 E6.871672363500996636 F1.000000
; T08 POINT 284 point-0000284 deposition
G1 A90.000000 C-205.428571 X-490.051168 Y279.750000 Z-91.682300 E6.892313550404514458 F1.000000
; T08 POINT 285 point-0000285 deposition
G1 A90.000000 C-206.571429 X-491.921492 Y279.750000 Z-81.888110 E6.912954801832523360 F1.000000
; T08 POINT 286 point-0000286 deposition
G1 A90.000000 C-207.714286 X-493.596093 Y279.750000 Z-72.058366 E6.933596169403136067 F1.000000
; T08 POINT 287 point-0000287 deposition
G1 A90.000000 C-208.857143 X-495.074302 Y279.750000 Z-62.196978 E6.954237704731855797 F1.000000
; T08 POINT 288 point-0000288 deposition
G1 A90.000000 C-209.726706 X-496.093223 Y279.750000 Z-54.674811 E6.975375142762342179 F1.000000
; T08 POINT 289 point-0000289 deposition
G1 A90.000000 C-210.273294 X-496.715806 Y279.750000 Z-49.939195 E6.997098451649909834 F1.000000
; T08 POINT 290 point-0000290 deposition
G1 A90.000000 C-211.142857 X-497.548522 Y279.750000 Z-42.394881 E7.018235889680392976 F1.000000
; T08 POINT 291 point-0000291 deposition
G1 A90.000000 C-212.285714 X-498.434312 Y279.750000 Z-32.462051 E7.038877425009119840 F1.000000
; T08 POINT 292 point-0000292 deposition
G1 A90.000000 C-213.428571 X-499.121811 Y279.750000 Z-22.513331 E7.059518792579727457 F1.000000
; T08 POINT 293 point-0000293 deposition
G1 A90.000000 C-214.571429 X-499.610742 Y279.750000 Z-12.552679 E7.080160044007751583 F1.000000
; T08 POINT 294 point-0000294 deposition
G1 A90.000000 C-215.714286 X-499.900906 Y279.750000 Z-2.584057 E7.100801230911253023 F1.000000
; T08 POINT 295 point-0000295 deposition
G1 A90.000000 C-216.857143 X-499.992182 Y279.750000 Z7.388567 E7.121442404909798123 F1.000000
; T08 POINT 296 point-0000296 deposition
G1 A90.000000 C-218.000000 X-499.884532 Y279.750000 Z17.361226 E7.142083617623179993 F1.000000
; T08 POINT 297 point-0000297 deposition
G1 A90.000000 C-219.142857 X-499.577993 Y279.750000 Z27.329953 E7.162724920670369138 F1.000000
; T08 POINT 298 point-0000298 deposition
G1 A90.000000 C-220.285714 X-499.072683 Y279.750000 Z37.290781 E7.183366365668307323 F1.000000
; T08 POINT 299 point-0000299 deposition
G1 A90.000000 C-221.428571 X-498.368800 Y279.750000 Z47.239748 E7.204008004230767860 F1.000000
; T08 POINT 300 point-0000300 deposition
G1 A90.000000 C-222.000000 X-497.997112 Y279.750000 Z52.208795 E7.225686269094372310 F1.000000
; T08 POINT 301 point-0000301 deposition
G1 A90.000000 C-222.571429 X-497.575890 Y279.750000 Z57.172942 E7.247364533957971380 F1.000000
; T08 POINT 302 point-0000302 deposition
G1 A90.000000 C-223.714286 X-496.475766 Y279.750000 Z67.086413 E7.268006172520443657 F1.000000
; T08 POINT 303 point-0000303 deposition
G1 A90.000000 C-224.857143 X-495.178132 Y279.750000 Z76.976167 E7.288647617518371621 F1.000000
; T08 POINT 304 point-0000304 deposition
G1 A90.000000 C-226.000000 X-493.683500 Y279.750000 Z86.838271 E7.309288920565564211 F1.000000
; T08 POINT 305 point-0000305 deposition
G1 A90.000000 C-227.142857 X-491.992462 Y279.750000 Z96.668801 E7.329930133278948523 F1.000000
; T08 POINT 306 point-0000306 deposition
G1 A90.000000 C-228.285714 X-490.105685 Y279.750000 Z106.463845 E7.350571307277483383 F1.000000
; T08 POINT 307 point-0000307 deposition
G1 A90.000000 C-229.428571 X-488.023916 Y279.750000 Z116.219507 E7.371212494180995956 F1.000000
; T08 POINT 308 point-0000308 deposition
G1 A90.000000 C-230.571429 X-485.747980 Y279.750000 Z125.931906 E7.391853745609016772 F1.000000
; T08 POINT 309 point-0000309 deposition
G1 A90.000000 C-231.714286 X-483.278778 Y279.750000 Z135.597176 E7.412495113179623279 F1.000000
; T08 POINT 310 point-0000310 deposition
G1 A90.000000 C-232.857143 X-480.617287 Y279.750000 Z145.211474 E7.433136648508352724 F1.000000
; T08 POINT 311 point-0000311 deposition
G1 A90.000000 C-233.726706 X-478.490210 Y279.750000 Z152.490353 E7.454274086538831709 F1.000000
; T08 POINT 312 point-0000312 deposition
G1 A90.000000 C-234.273294 X-477.137317 Y279.750000 Z157.048616 E7.475997395426401081 F1.000000
; T08 POINT 313 point-0000313 deposition
G1 A90.000000 C-235.142857 X-474.831009 Y279.750000 Z164.271966 E7.497134833456890575 F1.000000
; T08 POINT 314 point-0000314 deposition
G1 A90.000000 C-236.285714 X-471.599286 Y279.750000 Z173.710577 E7.517776368785604845 F1.000000
; T08 POINT 315 point-0000315 deposition
G1 A90.000000 C-237.428571 X-468.179950 Y279.750000 Z183.083051 E7.538417736356214967 F1.000000
; T08 POINT 316 point-0000316 deposition
G1 A90.000000 C-238.571429 X-464.574354 Y279.750000 Z192.385660 E7.559058987784237607 F1.000000
; T08 POINT 317 point-0000317 deposition
G1 A90.000000 C-239.714286 X-460.783932 Y279.750000 Z201.614702 E7.579700174687751267 F1.000000
; T08 POINT 318 point-0000318 deposition
G1 A90.000000 C-240.857143 X-456.810185 Y279.750000 Z210.766506 E7.600341348686284723 F1.000000
; T08 POINT 319 point-0000319 deposition
G1 A90.000000 C-242.000000 X-452.654691 Y279.750000 Z219.837430 E7.620982561399671243 F1.000000
; T08 POINT 320 point-0000320 deposition
G1 A90.000000 C-243.142857 X-448.319099 Y279.750000 Z228.823866 E7.641623864446861370 F1.000000
; T08 POINT 321 point-0000321 deposition
G1 A90.000000 C-244.285714 X-443.805130 Y279.750000 Z237.722238 E7.662265309444793636 F1.000000
; T08 POINT 322 point-0000322 deposition
G1 A90.000000 C-245.428571 X-439.114576 Y279.750000 Z246.529005 E7.682906948007261313 F1.000000
; T08 POINT 323 point-0000323 deposition
G1 A90.000000 C-246.000000 X-436.758295 Y279.750000 Z250.897190 E7.704585212870861327 F1.000000
; T08 POINT 324 point-0000324 deposition
G1 A90.000000 C-246.571429 X-434.358570 Y279.750000 Z255.240713 E7.726263477734456797 F1.000000
; T08 POINT 325 point-0000325 deposition
G1 A90.000000 C-247.714286 X-429.320501 Y279.750000 Z263.853894 E7.746905116296932735 F1.000000
; T08 POINT 326 point-0000326 deposition
G1 A90.000000 C-248.857143 X-424.111640 Y279.750000 Z272.365074 E7.767546561294864589 F1.000000
; T08 POINT 327 point-0000327 deposition
G1 A90.000000 C-250.000000 X-418.734056 Y279.750000 Z280.770867 E7.788187864342052479 F1.000000
; T08 POINT 328 point-0000328 deposition
G1 A90.000000 C-251.142857 X-413.189883 Y279.750000 Z289.067929 E7.808829077055434169 F1.000000
; T08 POINT 329 point-0000329 deposition
G1 A90.000000 C-252.285714 X-407.481325 Y279.750000 Z297.252960 E7.829470251053974495 F1.000000
; T08 POINT 330 point-0000330 deposition
G1 A90.000000 C-253.428571 X-401.610647 Y279.750000 Z305.322701 E7.850111437957491453 F1.000000
; T08 POINT 331 point-0000331 deposition
G1 A90.000000 C-254.571429 X-395.580181 Y279.750000 Z313.273943 E7.870752689385504753 F1.000000
; T08 POINT 332 point-0000332 deposition
G1 A90.000000 C-255.714286 X-389.392323 Y279.750000 Z321.103523 E7.891394056956114327 F1.000000
; T08 POINT 333 point-0000333 deposition
G1 A90.000000 C-256.857143 X-383.049529 Y279.750000 Z328.808325 E7.912035592284832819 F1.000000
; T08 POINT 334 point-0000334 deposition
G1 A90.000000 C-257.726706 X-378.147394 Y279.750000 Z334.585357 E7.933173030315321637 F1.000000
; T08 POINT 335 point-0000335 deposition
G1 A90.000000 C-258.273294 X-375.061951 Y279.750000 Z338.178102 E7.954896339202890010 F1.000000
; T08 POINT 336 point-0000336 deposition
G1 A90.000000 C-259.142857 X-370.018548 Y279.750000 Z343.831481 E7.976033777233383116 F1.000000
; T08 POINT 337 point-0000337 deposition
G1 A90.000000 C-260.285714 X-363.226308 Y279.750000 Z351.143857 E7.996675312562092536 F1.000000
; T08 POINT 338 point-0000338 deposition
G1 A90.000000 C-261.428571 X-356.289570 Y279.750000 Z358.319503 E8.017316680132715082 F1.000000
; T08 POINT 339 point-0000339 deposition
G1 A90.000000 C-262.571429 X-349.211090 Y279.750000 Z365.355566 E8.037957931560725139 F1.000000
; T08 POINT 340 point-0000340 deposition
G1 A90.000000 C-263.714286 X-341.993679 Y279.750000 Z372.249245 E8.058599118464235196 F1.000000
; T08 POINT 341 point-0000341 deposition
G1 A90.000000 C-264.857143 X-334.640207 Y279.750000 Z378.997798 E8.079240292462774262 F1.000000
; T08 POINT 342 point-0000342 deposition
G1 A90.000000 C-266.000000 X-327.153592 Y279.750000 Z385.598540 E8.099881505176160157 F1.000000
; T08 POINT 343 point-0000343 deposition
G1 A90.000000 C-267.142857 X-319.536812 Y279.750000 Z392.048844 E8.120522808223352310 F1.000000
; T08 POINT 344 point-0000344 deposition
G1 A90.000000 C-268.285714 X-311.792890 Y279.750000 Z398.346145 E8.141164253221280146 F1.000000
; T08 POINT 345 point-0000345 deposition
G1 A90.000000 C-269.428571 X-303.924906 Y279.750000 Z404.487937 E8.161805891783750071 F1.000000
; T08 POINT 346 point-0000346 deposition
G1 A90.000000 C-270.000000 X-300.000000 Y279.750000 Z407.500000 E8.183484156647351391 F1.000000
M400 ; finish queued motion
M2
