; 5AxisSclicer P03 P06 real STEP planar_offset
; reference XYZAC profile; offline simulation only
G21 ; millimetres
G90 ; absolute axes
M82 ; absolute extrusion
; P03 EVENT event-0000001 prime
G1 E1.000000 F100.000
; P03 EVENT event-0000002 retract
G1 E0.000000 F100.000
; P03 EVENT event-0000003 prime
G1 E1.000000 F100.000
; P03 EVENT event-0000004 retract
G1 E0.000000 F100.000
; P03 EVENT event-0000005 prime
G1 E1.000000 F100.000
; P03 POINT 1 point-0000001 approach
G1 A0.000000 C0.000000 X254.784314 Y240.721539 Z312.000000 F100.000
; P03 POINT 2 point-0000002 deposition
G1 A0.000000 C0.000000 X284.271914 Y201.087850 Z312.000000 E8.393710 F100.000
; P03 POINT 3 point-0000003 deposition
G1 A0.000000 C0.000000 X286.999738 Y203.117360 Z312.000000 E8.902588 F100.000
; P03 POINT 4 point-0000004 deposition
G1 A0.000000 C0.000000 X257.512137 Y242.751050 Z312.000000 E16.296298 F100.000
; P03 POINT 5 point-0000005 deposition
G1 A0.000000 C0.000000 X254.784314 Y240.721539 Z312.000000 E16.805177 F100.000
; P03 POINT 6 point-0000006 travel
G1 A0.000000 C0.000000 X255.623846 Y240.598307 Z312.000000 F100.000
; P03 POINT 7 point-0000007 deposition
G1 A0.000000 C0.000000 X284.395146 Y201.927382 Z312.000000 E24.019281 F100.000
; P03 POINT 8 point-0000008 deposition
G1 A0.000000 C0.000000 X286.160206 Y203.240592 Z312.000000 E24.348555 F100.000
; P03 POINT 9 point-0000009 deposition
G1 A0.000000 C0.000000 X257.388905 Y241.911517 Z312.000000 E31.562660 F100.000
; P03 POINT 10 point-0000010 deposition
G1 A0.000000 C0.000000 X255.623846 Y240.598307 Z312.000000 E31.891934 F100.000
; P03 POINT 11 point-0000011 travel
G1 A0.000000 C0.000000 X256.463378 Y240.475075 Z312.000000 F100.000
; P03 POINT 12 point-0000012 deposition
G1 A0.000000 C0.000000 X284.518378 Y202.766914 Z312.000000 E38.926434 F100.000
; P03 POINT 13 point-0000013 deposition
G1 A0.000000 C0.000000 X285.320674 Y203.363825 Z312.000000 E39.076103 F100.000
; P03 POINT 14 point-0000014 deposition
G1 A0.000000 C0.000000 X257.265673 Y241.071985 Z312.000000 E46.110604 F100.000
; P03 POINT 15 point-0000015 deposition
G1 A0.000000 C0.000000 X256.463378 Y240.475075 Z312.000000 E46.260273 F100.000
M400 ; finish queued motion
M2
