; 5AxisSclicer T08 Tube Thin-Wall Indexed
; reference XYZAC profile; offline simulation only
G21 ; millimetres
G90 ; absolute axes
M82 ; absolute extrusion
; T08 POINT 1 point-0000001 approach
G1 A90.000000 C90.000000 X-50.000000 Y-20.250000 Z57.500000 F1.000
; T08 EVENT event-0000001 prime
G1 E1.000000 F1.000
; T08 POINT 2 point-0000002 deposition
G1 A90.000000 C87.187500 X-47.486389 Y-20.250000 Z59.893157 E1.056117 F1.000
; T08 POINT 3 point-0000003 deposition
G1 A90.000000 C84.375000 X-44.858379 Y-20.250000 Z62.160093 E1.112234 F1.000
; T08 POINT 4 point-0000004 deposition
G1 A90.000000 C81.562500 X-42.122302 Y-20.250000 Z64.295349 E1.168350 F1.000
; T08 POINT 5 point-0000005 deposition
G1 A90.000000 C78.750000 X-39.284748 Y-20.250000 Z66.293780 E1.224467 F1.000
; T08 POINT 6 point-0000006 deposition
G1 A90.000000 C75.937500 X-36.352554 Y-20.250000 Z68.150572 E1.280584 F1.000
; T08 POINT 7 point-0000007 deposition
G1 A90.000000 C73.125000 X-33.332783 Y-20.250000 Z69.861251 E1.336701 F1.000
; T08 POINT 8 point-0000008 deposition
G1 A90.000000 C70.312500 X-30.232711 Y-20.250000 Z71.421696 E1.392818 F1.000
; T08 POINT 9 point-0000009 deposition
G1 A90.000000 C67.500000 X-27.059805 Y-20.250000 Z72.828148 E1.448935 F1.000
; T08 POINT 10 point-0000010 deposition
G1 A90.000000 C64.687500 X-23.821710 Y-20.250000 Z74.077219 E1.505051 F1.000
; T08 POINT 11 point-0000011 deposition
G1 A90.000000 C61.875000 X-20.526226 Y-20.250000 Z75.165900 E1.561168 F1.000
; T08 POINT 12 point-0000012 deposition
G1 A90.000000 C59.062500 X-17.181293 Y-20.250000 Z76.091568 E1.617285 F1.000
; T08 POINT 13 point-0000013 deposition
G1 A90.000000 C56.250000 X-13.794969 Y-20.250000 Z76.851992 E1.673402 F1.000
; T08 POINT 14 point-0000014 deposition
G1 A90.000000 C53.437500 X-10.375411 Y-20.250000 Z77.445342 E1.729519 F1.000
; T08 POINT 15 point-0000015 deposition
G1 A90.000000 C50.625000 X-6.930858 Y-20.250000 Z77.870187 E1.785635 F1.000
; T08 POINT 16 point-0000016 deposition
G1 A90.000000 C47.812500 X-3.469609 Y-20.250000 Z78.125504 E1.841752 F1.000
; T08 POINT 17 point-0000017 deposition
G1 A90.000000 C45.000000 X0.000000 Y-20.250000 Z78.210678 E1.897869 F1.000
; T08 POINT 18 point-0000018 deposition
G1 A90.000000 C42.187500 X3.469609 Y-20.250000 Z78.125504 E1.953986 F1.000
; T08 POINT 19 point-0000019 deposition
G1 A90.000000 C39.375000 X6.930858 Y-20.250000 Z77.870187 E2.010103 F1.000
; T08 POINT 20 point-0000020 deposition
G1 A90.000000 C36.562500 X10.375411 Y-20.250000 Z77.445342 E2.066219 F1.000
; T08 POINT 21 point-0000021 deposition
G1 A90.000000 C33.750000 X13.794969 Y-20.250000 Z76.851992 E2.122336 F1.000
; T08 POINT 22 point-0000022 deposition
G1 A90.000000 C30.937500 X17.181293 Y-20.250000 Z76.091568 E2.178453 F1.000
; T08 POINT 23 point-0000023 deposition
G1 A90.000000 C28.125000 X20.526226 Y-20.250000 Z75.165900 E2.234570 F1.000
; T08 POINT 24 point-0000024 deposition
G1 A90.000000 C25.312500 X23.821710 Y-20.250000 Z74.077219 E2.290687 F1.000
; T08 POINT 25 point-0000025 deposition
G1 A90.000000 C22.500000 X27.059805 Y-20.250000 Z72.828148 E2.346804 F1.000
; T08 POINT 26 point-0000026 deposition
G1 A90.000000 C19.687500 X30.232711 Y-20.250000 Z71.421696 E2.402920 F1.000
; T08 POINT 27 point-0000027 deposition
G1 A90.000000 C16.875000 X33.332783 Y-20.250000 Z69.861251 E2.459037 F1.000
; T08 POINT 28 point-0000028 deposition
G1 A90.000000 C14.062500 X36.352554 Y-20.250000 Z68.150572 E2.515154 F1.000
; T08 POINT 29 point-0000029 deposition
G1 A90.000000 C11.250000 X39.284748 Y-20.250000 Z66.293780 E2.571271 F1.000
; T08 POINT 30 point-0000030 deposition
G1 A90.000000 C8.437500 X42.122302 Y-20.250000 Z64.295349 E2.627388 F1.000
; T08 POINT 31 point-0000031 deposition
G1 A90.000000 C5.625000 X44.858379 Y-20.250000 Z62.160093 E2.683504 F1.000
; T08 POINT 32 point-0000032 deposition
G1 A90.000000 C2.812500 X47.486389 Y-20.250000 Z59.893157 E2.739621 F1.000
; T08 POINT 33 point-0000033 deposition
G1 A90.000000 C0.000000 X50.000000 Y-20.250000 Z57.500000 E2.795738 F1.000
; T08 POINT 34 point-0000034 deposition
G1 A90.000000 C-2.812500 X52.393157 Y-20.250000 Z54.986389 E2.851855 F1.000
; T08 POINT 35 point-0000035 deposition
G1 A90.000000 C-5.625000 X54.660093 Y-20.250000 Z52.358379 E2.907972 F1.000
; T08 POINT 36 point-0000036 deposition
G1 A90.000000 C-8.437500 X56.795349 Y-20.250000 Z49.622302 E2.964089 F1.000
; T08 POINT 37 point-0000037 deposition
G1 A90.000000 C-11.250000 X58.793780 Y-20.250000 Z46.784748 E3.020205 F1.000
; T08 POINT 38 point-0000038 deposition
G1 A90.000000 C-14.062500 X60.650572 Y-20.250000 Z43.852554 E3.076322 F1.000
; T08 POINT 39 point-0000039 deposition
G1 A90.000000 C-16.875000 X62.361251 Y-20.250000 Z40.832783 E3.132439 F1.000
; T08 POINT 40 point-0000040 deposition
G1 A90.000000 C-19.687500 X63.921696 Y-20.250000 Z37.732711 E3.188556 F1.000
; T08 POINT 41 point-0000041 deposition
G1 A90.000000 C-22.500000 X65.328148 Y-20.250000 Z34.559805 E3.244673 F1.000
; T08 POINT 42 point-0000042 deposition
G1 A90.000000 C-25.312500 X66.577219 Y-20.250000 Z31.321710 E3.300789 F1.000
; T08 POINT 43 point-0000043 deposition
G1 A90.000000 C-28.125000 X67.665900 Y-20.250000 Z28.026226 E3.356906 F1.000
; T08 POINT 44 point-0000044 deposition
G1 A90.000000 C-30.937500 X68.591568 Y-20.250000 Z24.681293 E3.413023 F1.000
; T08 POINT 45 point-0000045 deposition
G1 A90.000000 C-33.750000 X69.351992 Y-20.250000 Z21.294969 E3.469140 F1.000
; T08 POINT 46 point-0000046 deposition
G1 A90.000000 C-36.562500 X69.945342 Y-20.250000 Z17.875411 E3.525257 F1.000
; T08 POINT 47 point-0000047 deposition
G1 A90.000000 C-39.375000 X70.370187 Y-20.250000 Z14.430858 E3.581373 F1.000
; T08 POINT 48 point-0000048 deposition
G1 A90.000000 C-42.187500 X70.625504 Y-20.250000 Z10.969609 E3.637490 F1.000
; T08 POINT 49 point-0000049 deposition
G1 A90.000000 C-45.000000 X70.710678 Y-20.250000 Z7.500000 E3.693607 F1.000
; T08 POINT 50 point-0000050 deposition
G1 A90.000000 C-47.812500 X70.625504 Y-20.250000 Z4.030391 E3.749724 F1.000
; T08 POINT 51 point-0000051 deposition
G1 A90.000000 C-50.625000 X70.370187 Y-20.250000 Z0.569142 E3.805841 F1.000
; T08 POINT 52 point-0000052 deposition
G1 A90.000000 C-53.437500 X69.945342 Y-20.250000 Z-2.875411 E3.861958 F1.000
; T08 POINT 53 point-0000053 deposition
G1 A90.000000 C-56.250000 X69.351992 Y-20.250000 Z-6.294969 E3.918074 F1.000
; T08 POINT 54 point-0000054 deposition
G1 A90.000000 C-59.062500 X68.591568 Y-20.250000 Z-9.681293 E3.974191 F1.000
; T08 POINT 55 point-0000055 deposition
G1 A90.000000 C-61.875000 X67.665900 Y-20.250000 Z-13.026226 E4.030308 F1.000
; T08 POINT 56 point-0000056 deposition
G1 A90.000000 C-64.687500 X66.577219 Y-20.250000 Z-16.321710 E4.086425 F1.000
; T08 POINT 57 point-0000057 deposition
G1 A90.000000 C-67.500000 X65.328148 Y-20.250000 Z-19.559805 E4.142542 F1.000
; T08 POINT 58 point-0000058 deposition
G1 A90.000000 C-70.312500 X63.921696 Y-20.250000 Z-22.732711 E4.198658 F1.000
; T08 POINT 59 point-0000059 deposition
G1 A90.000000 C-73.125000 X62.361251 Y-20.250000 Z-25.832783 E4.254775 F1.000
; T08 POINT 60 point-0000060 deposition
G1 A90.000000 C-75.937500 X60.650572 Y-20.250000 Z-28.852554 E4.310892 F1.000
; T08 POINT 61 point-0000061 deposition
G1 A90.000000 C-78.750000 X58.793780 Y-20.250000 Z-31.784748 E4.367009 F1.000
; T08 POINT 62 point-0000062 deposition
G1 A90.000000 C-81.562500 X56.795349 Y-20.250000 Z-34.622302 E4.423126 F1.000
; T08 POINT 63 point-0000063 deposition
G1 A90.000000 C-84.375000 X54.660093 Y-20.250000 Z-37.358379 E4.479243 F1.000
; T08 POINT 64 point-0000064 deposition
G1 A90.000000 C-87.187500 X52.393157 Y-20.250000 Z-39.986389 E4.535359 F1.000
; T08 POINT 65 point-0000065 deposition
G1 A90.000000 C-90.000000 X50.000000 Y-20.250000 Z-42.500000 E4.591476 F1.000
; T08 POINT 66 point-0000066 deposition
G1 A90.000000 C-92.812500 X47.486389 Y-20.250000 Z-44.893157 E4.647593 F1.000
; T08 POINT 67 point-0000067 deposition
G1 A90.000000 C-95.625000 X44.858379 Y-20.250000 Z-47.160093 E4.703710 F1.000
; T08 POINT 68 point-0000068 deposition
G1 A90.000000 C-98.437500 X42.122302 Y-20.250000 Z-49.295349 E4.759827 F1.000
; T08 POINT 69 point-0000069 deposition
G1 A90.000000 C-101.250000 X39.284748 Y-20.250000 Z-51.293780 E4.815943 F1.000
; T08 POINT 70 point-0000070 deposition
G1 A90.000000 C-104.062500 X36.352554 Y-20.250000 Z-53.150572 E4.872060 F1.000
; T08 POINT 71 point-0000071 deposition
G1 A90.000000 C-106.875000 X33.332783 Y-20.250000 Z-54.861251 E4.928177 F1.000
; T08 POINT 72 point-0000072 deposition
G1 A90.000000 C-109.687500 X30.232711 Y-20.250000 Z-56.421696 E4.984294 F1.000
; T08 POINT 73 point-0000073 deposition
G1 A90.000000 C-112.500000 X27.059805 Y-20.250000 Z-57.828148 E5.040411 F1.000
; T08 POINT 74 point-0000074 deposition
G1 A90.000000 C-115.312500 X23.821710 Y-20.250000 Z-59.077219 E5.096527 F1.000
; T08 POINT 75 point-0000075 deposition
G1 A90.000000 C-118.125000 X20.526226 Y-20.250000 Z-60.165900 E5.152644 F1.000
; T08 POINT 76 point-0000076 deposition
G1 A90.000000 C-120.937500 X17.181293 Y-20.250000 Z-61.091568 E5.208761 F1.000
; T08 POINT 77 point-0000077 deposition
G1 A90.000000 C-123.750000 X13.794969 Y-20.250000 Z-61.851992 E5.264878 F1.000
; T08 POINT 78 point-0000078 deposition
G1 A90.000000 C-126.562500 X10.375411 Y-20.250000 Z-62.445342 E5.320995 F1.000
; T08 POINT 79 point-0000079 deposition
G1 A90.000000 C-129.375000 X6.930858 Y-20.250000 Z-62.870187 E5.377112 F1.000
; T08 POINT 80 point-0000080 deposition
G1 A90.000000 C-132.187500 X3.469609 Y-20.250000 Z-63.125504 E5.433228 F1.000
; T08 POINT 81 point-0000081 deposition
G1 A90.000000 C-135.000000 X0.000000 Y-20.250000 Z-63.210678 E5.489345 F1.000
; T08 POINT 82 point-0000082 deposition
G1 A90.000000 C-137.812500 X-3.469609 Y-20.250000 Z-63.125504 E5.545462 F1.000
; T08 POINT 83 point-0000083 deposition
G1 A90.000000 C-140.625000 X-6.930858 Y-20.250000 Z-62.870187 E5.601579 F1.000
; T08 POINT 84 point-0000084 deposition
G1 A90.000000 C-143.437500 X-10.375411 Y-20.250000 Z-62.445342 E5.657696 F1.000
; T08 POINT 85 point-0000085 deposition
G1 A90.000000 C-146.250000 X-13.794969 Y-20.250000 Z-61.851992 E5.713812 F1.000
; T08 POINT 86 point-0000086 deposition
G1 A90.000000 C-149.062500 X-17.181293 Y-20.250000 Z-61.091568 E5.769929 F1.000
; T08 POINT 87 point-0000087 deposition
G1 A90.000000 C-151.875000 X-20.526226 Y-20.250000 Z-60.165900 E5.826046 F1.000
; T08 POINT 88 point-0000088 deposition
G1 A90.000000 C-154.687500 X-23.821710 Y-20.250000 Z-59.077219 E5.882163 F1.000
; T08 POINT 89 point-0000089 deposition
G1 A90.000000 C-157.500000 X-27.059805 Y-20.250000 Z-57.828148 E5.938280 F1.000
; T08 POINT 90 point-0000090 deposition
G1 A90.000000 C-160.312500 X-30.232711 Y-20.250000 Z-56.421696 E5.994396 F1.000
; T08 POINT 91 point-0000091 deposition
G1 A90.000000 C-163.125000 X-33.332783 Y-20.250000 Z-54.861251 E6.050513 F1.000
; T08 POINT 92 point-0000092 deposition
G1 A90.000000 C-165.937500 X-36.352554 Y-20.250000 Z-53.150572 E6.106630 F1.000
; T08 POINT 93 point-0000093 deposition
G1 A90.000000 C-168.750000 X-39.284748 Y-20.250000 Z-51.293780 E6.162747 F1.000
; T08 POINT 94 point-0000094 deposition
G1 A90.000000 C-171.562500 X-42.122302 Y-20.250000 Z-49.295349 E6.218864 F1.000
; T08 POINT 95 point-0000095 deposition
G1 A90.000000 C-174.375000 X-44.858379 Y-20.250000 Z-47.160093 E6.274981 F1.000
; T08 POINT 96 point-0000096 deposition
G1 A90.000000 C-177.187500 X-47.486389 Y-20.250000 Z-44.893157 E6.331097 F1.000
; T08 POINT 97 point-0000097 deposition
G1 A90.000000 C-180.000000 X-50.000000 Y-20.250000 Z-42.500000 E6.387214 F1.000
; T08 POINT 98 point-0000098 deposition
G1 A90.000000 C-182.812500 X-52.393157 Y-20.250000 Z-39.986389 E6.443331 F1.000
; T08 POINT 99 point-0000099 deposition
G1 A90.000000 C-185.625000 X-54.660093 Y-20.250000 Z-37.358379 E6.499448 F1.000
; T08 POINT 100 point-0000100 deposition
G1 A90.000000 C-188.437500 X-56.795349 Y-20.250000 Z-34.622302 E6.555565 F1.000
; T08 POINT 101 point-0000101 deposition
G1 A90.000000 C-191.250000 X-58.793780 Y-20.250000 Z-31.784748 E6.611681 F1.000
; T08 POINT 102 point-0000102 deposition
G1 A90.000000 C-194.062500 X-60.650572 Y-20.250000 Z-28.852554 E6.667798 F1.000
; T08 POINT 103 point-0000103 deposition
G1 A90.000000 C-196.875000 X-62.361251 Y-20.250000 Z-25.832783 E6.723915 F1.000
; T08 POINT 104 point-0000104 deposition
G1 A90.000000 C-199.687500 X-63.921696 Y-20.250000 Z-22.732711 E6.780032 F1.000
; T08 POINT 105 point-0000105 deposition
G1 A90.000000 C-202.500000 X-65.328148 Y-20.250000 Z-19.559805 E6.836149 F1.000
; T08 POINT 106 point-0000106 deposition
G1 A90.000000 C-205.312500 X-66.577219 Y-20.250000 Z-16.321710 E6.892266 F1.000
; T08 POINT 107 point-0000107 deposition
G1 A90.000000 C-208.125000 X-67.665900 Y-20.250000 Z-13.026226 E6.948382 F1.000
; T08 POINT 108 point-0000108 deposition
G1 A90.000000 C-210.937500 X-68.591568 Y-20.250000 Z-9.681293 E7.004499 F1.000
; T08 POINT 109 point-0000109 deposition
G1 A90.000000 C-213.750000 X-69.351992 Y-20.250000 Z-6.294969 E7.060616 F1.000
; T08 POINT 110 point-0000110 deposition
G1 A90.000000 C-216.562500 X-69.945342 Y-20.250000 Z-2.875411 E7.116733 F1.000
; T08 POINT 111 point-0000111 deposition
G1 A90.000000 C-219.375000 X-70.370187 Y-20.250000 Z0.569142 E7.172850 F1.000
; T08 POINT 112 point-0000112 deposition
G1 A90.000000 C-222.187500 X-70.625504 Y-20.250000 Z4.030391 E7.228966 F1.000
; T08 POINT 113 point-0000113 deposition
G1 A90.000000 C-225.000000 X-70.710678 Y-20.250000 Z7.500000 E7.285083 F1.000
; T08 POINT 114 point-0000114 deposition
G1 A90.000000 C-227.812500 X-70.625504 Y-20.250000 Z10.969609 E7.341200 F1.000
; T08 POINT 115 point-0000115 deposition
G1 A90.000000 C-230.625000 X-70.370187 Y-20.250000 Z14.430858 E7.397317 F1.000
; T08 POINT 116 point-0000116 deposition
G1 A90.000000 C-233.437500 X-69.945342 Y-20.250000 Z17.875411 E7.453434 F1.000
; T08 POINT 117 point-0000117 deposition
G1 A90.000000 C-236.250000 X-69.351992 Y-20.250000 Z21.294969 E7.509550 F1.000
; T08 POINT 118 point-0000118 deposition
G1 A90.000000 C-239.062500 X-68.591568 Y-20.250000 Z24.681293 E7.565667 F1.000
; T08 POINT 119 point-0000119 deposition
G1 A90.000000 C-241.875000 X-67.665900 Y-20.250000 Z28.026226 E7.621784 F1.000
; T08 POINT 120 point-0000120 deposition
G1 A90.000000 C-244.687500 X-66.577219 Y-20.250000 Z31.321710 E7.677901 F1.000
; T08 POINT 121 point-0000121 deposition
G1 A90.000000 C-247.500000 X-65.328148 Y-20.250000 Z34.559805 E7.734018 F1.000
; T08 POINT 122 point-0000122 deposition
G1 A90.000000 C-250.312500 X-63.921696 Y-20.250000 Z37.732711 E7.790135 F1.000
; T08 POINT 123 point-0000123 deposition
G1 A90.000000 C-253.125000 X-62.361251 Y-20.250000 Z40.832783 E7.846251 F1.000
; T08 POINT 124 point-0000124 deposition
G1 A90.000000 C-255.937500 X-60.650572 Y-20.250000 Z43.852554 E7.902368 F1.000
; T08 POINT 125 point-0000125 deposition
G1 A90.000000 C-258.750000 X-58.793780 Y-20.250000 Z46.784748 E7.958485 F1.000
; T08 POINT 126 point-0000126 deposition
G1 A90.000000 C-261.562500 X-56.795349 Y-20.250000 Z49.622302 E8.014602 F1.000
; T08 POINT 127 point-0000127 deposition
G1 A90.000000 C-264.375000 X-54.660093 Y-20.250000 Z52.358379 E8.070719 F1.000
; T08 POINT 128 point-0000128 deposition
G1 A90.000000 C-267.187500 X-52.393157 Y-20.250000 Z54.986389 E8.126835 F1.000
; T08 POINT 129 point-0000129 deposition
G1 A90.000000 C-270.000000 X-50.000000 Y-20.250000 Z57.500000 E8.182952 F1.000
M400 ; finish queued motion
M2
