; 5AxisSclicer T08 Tube Thin-Wall Indexed
; reference XYZAC profile; offline simulation only
G21 ; millimetres
G90 ; absolute axes
M82 ; absolute extrusion
G92 E0 ; known initial extrusion position
; T08 POINT 1 point-0000001 approach
G1 A90.000000 C90.000000 X-300.000000 Y279.750000 Z307.500000 F1.000000
; T08 EVENT event-0000001 prime
G1 E1.0 F1.000000
; T08 POINT 2 point-0000002 deposition
G1 A90.000000 C89.428571 X-297.042569 Y279.750000 Z310.476797 E1.02167826486361609 F1.000000
; T08 POINT 3 point-0000003 deposition
G1 A90.000000 C88.285714 X-290.930116 Y279.750000 Z316.340182 E1.04231990342607568 F1.000000
; T08 POINT 4 point-0000004 deposition
G1 A90.000000 C87.142857 X-284.701930 Y279.750000 Z322.080684 E1.06296134842401096 F1.000000
; T08 POINT 5 point-0000005 deposition
G1 A90.000000 C86.000000 X-278.360485 Y279.750000 Z327.696019 E1.083602651471203113 F1.000000
; T08 POINT 6 point-0000006 deposition
G1 A90.000000 C84.857143 X-271.908301 Y279.750000 Z333.183954 E1.104243864184581527 F1.000000
; T08 POINT 7 point-0000007 deposition
G1 A90.000000 C83.714286 X-265.347940 Y279.750000 Z338.542305 E1.124885038183127941 F1.000000
; T08 POINT 8 point-0000008 deposition
G1 A90.000000 C82.571429 X-258.682007 Y279.750000 Z343.768940 E1.145526225086632308 F1.000000
; T08 POINT 9 point-0000009 deposition
G1 A90.000000 C81.428571 X-251.913152 Y279.750000 Z348.861781 E1.166167476514654272 F1.000000
; T08 POINT 10 point-0000010 deposition
G1 A90.000000 C80.285714 X-245.044063 Y279.750000 Z353.818799 E1.186808844085255932 F1.000000
; T08 POINT 11 point-0000011 deposition
G1 A90.000000 C79.142857 X-238.077469 Y279.750000 Z358.638024 E1.207450379413984774 F1.000000
; T08 POINT 12 point-0000012 deposition
G1 A90.000000 C78.273294 X-232.739329 Y279.750000 Z362.211502 E1.228587817444477880 F1.000000
; T08 POINT 13 point-0000013 deposition
G1 A90.000000 C77.726706 X-229.396960 Y279.750000 Z364.415853 E1.250311126332047696 F1.000000
; T08 POINT 14 point-0000014 deposition
G1 A90.000000 C76.857143 X-223.972144 Y279.750000 Z367.855575 E1.271448564362518916 F1.000000
; T08 POINT 15 point-0000015 deposition
G1 A90.000000 C75.714286 X-216.729789 Y279.750000 Z372.250233 E1.292090099691240274 F1.000000
; T08 POINT 16 point-0000016 deposition
G1 A90.000000 C74.571429 X-209.401220 Y279.750000 Z376.499765 E1.312731467261856319 F1.000000
; T08 POINT 17 point-0000017 deposition
G1 A90.000000 C73.428571 X-201.989349 Y279.750000 Z380.602479 E1.333372718689865959 F1.000000
; T08 POINT 18 point-0000018 deposition
G1 A90.000000 C72.285714 X-194.497121 Y279.750000 Z384.556744 E1.354013905593388999 F1.000000
; T08 POINT 19 point-0000019 deposition
G1 A90.000000 C71.142857 X-186.927513 Y279.750000 Z388.360986 E1.374655079591917639 F1.000000
; T08 POINT 20 point-0000020 deposition
G1 A90.000000 C70.000000 X-179.283531 Y279.750000 Z392.013691 E1.395296292305303999 F1.000000
; T08 POINT 21 point-0000021 deposition
G1 A90.000000 C68.857143 X-171.568214 Y279.750000 Z395.513407 E1.415937595352496039 F1.000000
; T08 POINT 22 point-0000022 deposition
G1 A90.000000 C67.714286 X-163.784626 Y279.750000 Z398.858741 E1.436579040350426519 F1.000000
; T08 POINT 23 point-0000023 deposition
G1 A90.000000 C66.571429 X-155.935860 Y279.750000 Z402.048362 E1.457220678912894505 F1.000000
; T08 POINT 24 point-0000024 deposition
G1 A90.000000 C66.000000 X-152.042644 Y279.750000 Z403.584630 E1.478898943776505107 F1.000000
; T08 POINT 25 point-0000025 deposition
G1 A90.000000 C65.428571 X-148.134306 Y279.750000 Z405.081049 E1.500577208640093257 F1.000000
; T08 POINT 26 point-0000026 deposition
G1 A90.000000 C64.285714 X-140.164564 Y279.750000 Z407.955594 E1.521218847202564237 F1.000000
; T08 POINT 27 point-0000027 deposition
G1 A90.000000 C63.142857 X-132.139073 Y279.750000 Z410.670808 E1.541860292200496503 F1.000000
; T08 POINT 28 point-0000028 deposition
G1 A90.000000 C62.000000 X-124.061021 Y279.750000 Z413.225609 E1.562501595247680027 F1.000000
; T08 POINT 29 point-0000029 deposition
G1 A90.000000 C60.857143 X-115.933618 Y279.750000 Z415.618981 E1.583142807961069847 F1.000000
; T08 POINT 30 point-0000030 deposition
G1 A90.000000 C59.714286 X-107.760093 Y279.750000 Z417.849972 E1.603783981959609347 F1.000000
; T08 POINT 31 point-0000031 deposition
G1 A90.000000 C58.571429 X-99.543695 Y279.750000 Z419.917694 E1.624425168863120223 F1.000000
; T08 POINT 32 point-0000032 deposition
G1 A90.000000 C57.428571 X-91.287687 Y279.750000 Z421.821325 E1.645066420291136286 F1.000000
; T08 POINT 33 point-0000033 deposition
G1 A90.000000 C56.285714 X-82.995351 Y279.750000 Z423.560108 E1.665707787861739844 F1.000000
; T08 POINT 34 point-0000034 deposition
G1 A90.000000 C55.142857 X-74.669982 Y279.750000 Z425.133350 E1.686349323190468866 F1.000000
; T08 POINT 35 point-0000035 deposition
G1 A90.000000 C54.273294 X-68.341517 Y279.750000 Z426.219272 E1.707486761220963686 F1.000000
; T08 POINT 36 point-0000036 deposition
G1 A90.000000 C53.726706 X-64.396019 Y279.750000 Z426.852418 E1.729210070108531861 F1.000000
; T08 POINT 37 point-0000037 deposition
G1 A90.000000 C52.857143 X-58.042658 Y279.750000 Z427.780869 E1.750347508139007887 F1.000000
; T08 POINT 38 point-0000038 deposition
G1 A90.000000 C51.714286 X-49.638083 Y279.750000 Z428.854094 E1.770989043467730199 F1.000000
; T08 POINT 39 point-0000039 deposition
G1 A90.000000 C50.571429 X-41.213772 Y279.750000 Z429.759672 E1.791630411038336706 F1.000000
; T08 POINT 40 point-0000040 deposition
G1 A90.000000 C49.428571 X-32.773074 Y279.750000 Z430.497242 E1.812271662466352054 F1.000000
; T08 POINT 41 point-0000041 deposition
G1 A90.000000 C48.285714 X-24.319342 Y279.750000 Z431.066513 E1.832912849369864764 F1.000000
; T08 POINT 42 point-0000042 deposition
G1 A90.000000 C47.142857 X-15.855935 Y279.750000 Z431.467256 E1.853554023368399624 F1.000000
; T08 POINT 43 point-0000043 deposition
G1 A90.000000 C46.000000 X-7.386217 Y279.750000 Z431.699313 E1.874195236081787034 F1.000000
; T08 POINT 44 point-0000044 deposition
G1 A90.000000 C44.857143 X1.086447 Y279.750000 Z431.762591 E1.894836539128975444 F1.000000
; T08 POINT 45 point-0000045 deposition
G1 A90.000000 C43.714286 X9.558690 Y279.750000 Z431.657066 E1.915477984126907589 F1.000000
; T08 POINT 46 point-0000046 deposition
G1 A90.000000 C42.571429 X18.027146 Y279.750000 Z431.382779 E1.936119622689380883 F1.000000
; T08 POINT 47 point-0000047 deposition
G1 A90.000000 C42.000000 X22.204266 Y279.750000 Z431.182630 E1.957797887552991475 F1.000000
; T08 POINT 48 point-0000048 deposition
G1 A90.000000 C41.428571 X26.379177 Y279.750000 Z430.939886 E1.979476152416577160 F1.000000
; T08 POINT 49 point-0000049 deposition
G1 A90.000000 C40.285714 X34.829965 Y279.750000 Z430.328564 E2.000117790979043942 F1.000000
; T08 POINT 50 point-0000050 deposition
G1 A90.000000 C39.142857 X43.266881 Y279.750000 Z429.549009 E2.020759235976982127 F1.000000
; T08 POINT 51 point-0000051 deposition
G1 A90.000000 C38.000000 X51.686571 Y279.750000 Z428.601531 E2.041400539024163887 F1.000000
; T08 POINT 52 point-0000052 deposition
G1 A90.000000 C36.857143 X60.085691 Y279.750000 Z427.486506 E2.062041751737552247 F1.000000
; T08 POINT 53 point-0000053 deposition
G1 A90.000000 C35.714286 X68.460902 Y279.750000 Z426.204379 E2.082682925736089964 F1.000000
; T08 POINT 54 point-0000054 deposition
G1 A90.000000 C34.571429 X76.808876 Y279.750000 Z424.755659 E2.103324112639603751 F1.000000
; T08 POINT 55 point-0000055 deposition
G1 A90.000000 C33.428571 X85.126297 Y279.750000 Z423.140923 E2.123965364067609017 F1.000000
; T08 POINT 56 point-0000056 deposition
G1 A90.000000 C32.285714 X93.409859 Y279.750000 Z421.360814 E2.144606731638235890 F1.000000
; T08 POINT 57 point-0000057 deposition
G1 A90.000000 C31.142857 X101.656272 Y279.750000 Z419.416039 E2.165248266966943030 F1.000000
; T08 POINT 58 point-0000058 deposition
G1 A90.000000 C30.273294 X107.877663 Y279.750000 Z417.826664 E2.186385704997449220 F1.000000
; T08 POINT 59 point-0000059 deposition
G1 A90.000000 C29.726706 X111.735081 Y279.750000 Z416.779130 E2.208109013885018894 F1.000000
; T08 POINT 60 point-0000060 deposition
G1 A90.000000 C28.857143 X117.915283 Y279.750000 Z415.035748 E2.229246451915485474 F1.000000
; T08 POINT 61 point-0000061 deposition
G1 A90.000000 C27.714286 X126.030650 Y279.750000 Z412.601974 E2.249887987244211807 F1.000000
; T08 POINT 62 point-0000062 deposition
G1 A90.000000 C26.571429 X134.095862 Y279.750000 Z410.007020 E2.270529354814825184 F1.000000
; T08 POINT 63 point-0000063 deposition
G1 A90.000000 C25.428571 X142.107714 Y279.750000 Z407.251917 E2.291170606242831474 F1.000000
; T08 POINT 64 point-0000064 deposition
G1 A90.000000 C24.285714 X150.063023 Y279.750000 Z404.337762 E2.311811793146348574 F1.000000
; T08 POINT 65 point-0000065 deposition
G1 A90.000000 C23.142857 X157.958627 Y279.750000 Z401.265714 E2.332452967144886644 F1.000000
; T08 POINT 66 point-0000066 deposition
G1 A90.000000 C22.000000 X165.791390 Y279.750000 Z398.036996 E2.353094179858274860 F1.000000
; T08 POINT 67 point-0000067 deposition
G1 A90.000000 C20.857143 X173.558200 Y279.750000 Z394.652892 E2.373735482905459040 F1.000000
; T08 POINT 68 point-0000068 deposition
G1 A90.000000 C19.714286 X181.255970 Y279.750000 Z391.114748 E2.394376927903394908 F1.000000
; T08 POINT 69 point-0000069 deposition
G1 A90.000000 C18.571429 X188.881641 Y279.750000 Z387.423973 E2.415018566465858028 F1.000000
; T08 POINT 70 point-0000070 deposition
G1 A90.000000 C18.000000 X192.611857 Y279.750000 Z385.522053 E2.436696831329476858 F1.000000
; T08 POINT 71 point-0000071 deposition
G1 A90.000000 C17.428571 X196.322914 Y279.750000 Z383.582081 E2.458375096193064194 F1.000000
; T08 POINT 72 point-0000072 deposition
G1 A90.000000 C16.285714 X203.795330 Y279.750000 Z379.590601 E2.479016734755526597 F1.000000
; T08 POINT 73 point-0000073 deposition
G1 A90.000000 C15.142857 X211.186650 Y279.750000 Z375.451075 E2.499658179753464967 F1.000000
; T08 POINT 74 point-0000074 deposition
G1 A90.000000 C14.000000 X218.493937 Y279.750000 Z371.165148 E2.520299482800651337 F1.000000
; T08 POINT 75 point-0000075 deposition
G1 A90.000000 C12.857143 X225.714288 Y279.750000 Z366.734527 E2.540940695514030553 F1.000000
; T08 POINT 76 point-0000076 deposition
G1 A90.000000 C11.714286 X232.844835 Y279.750000 Z362.160973 E2.561581869512575323 F1.000000
; T08 POINT 77 point-0000077 deposition
G1 A90.000000 C10.571429 X239.882744 Y279.750000 Z357.446307 E2.582223056416082761 F1.000000
; T08 POINT 78 point-0000078 deposition
G1 A90.000000 C9.428571 X246.825220 Y279.750000 Z352.592404 E2.602864307844097641 F1.000000
; T08 POINT 79 point-0000079 deposition
G1 A90.000000 C8.285714 X253.669505 Y279.750000 Z347.601196 E2.623505675414710799 F1.000000
; T08 POINT 80 point-0000080 deposition
G1 A90.000000 C7.142857 X260.412880 Y279.750000 Z342.474668 E2.644147210743432005 F1.000000
; T08 POINT 81 point-0000081 deposition
G1 A90.000000 C6.273294 X265.448314 Y279.750000 Z338.484838 E2.665284648773934902 F1.000000
; T08 POINT 82 point-0000082 deposition
G1 A90.000000 C5.726706 X268.541671 Y279.750000 Z335.937751 E2.687007957661503912 F1.000000
; T08 POINT 83 point-0000083 deposition
G1 A90.000000 C4.857143 X273.476953 Y279.750000 Z331.823957 E2.708145395691974165 F1.000000
; T08 POINT 84 point-0000084 deposition
G1 A90.000000 C3.714286 X279.901691 Y279.750000 Z326.304013 E2.728786931020693102 F1.000000
; T08 POINT 85 point-0000085 deposition
G1 A90.000000 C2.571429 X286.215055 Y279.750000 Z320.657222 E2.749428298591302022 F1.000000
; T08 POINT 86 point-0000086 deposition
G1 A90.000000 C1.428571 X292.414538 Y279.750000 Z314.885831 E2.770069550019321272 F1.000000
; T08 POINT 87 point-0000087 deposition
G1 A90.000000 C0.285714 X298.497678 Y279.750000 Z308.992136 E2.790710736922831382 F1.000000
; T08 POINT 88 point-0000088 deposition
G1 A90.000000 C-0.857143 X304.462058 Y279.750000 Z302.978482 E2.811351910921372485 F1.000000
; T08 POINT 89 point-0000089 deposition
G1 A90.000000 C-2.000000 X310.305309 Y279.750000 Z296.847261 E2.831993123634754542 F1.000000
; T08 POINT 90 point-0000090 deposition
G1 A90.000000 C-3.142857 X316.025111 Y279.750000 Z290.600913 E2.852634426681940132 F1.000000
; T08 POINT 91 point-0000091 deposition
G1 A90.000000 C-4.285714 X321.619193 Y279.750000 Z284.241923 E2.873275871679874674 F1.000000
; T08 POINT 92 point-0000092 deposition
G1 A90.000000 C-5.428571 X327.085332 Y279.750000 Z277.772821 E2.893917510242345137 F1.000000
; T08 POINT 93 point-0000093 deposition
G1 A90.000000 C-6.000000 X329.715108 Y279.750000 Z274.498030 E2.915595775105961100 F1.000000
; T08 POINT 94 point-0000094 deposition
G1 A90.000000 C-6.571429 X332.312087 Y279.750000 Z271.196228 E2.937274039969540210 F1.000000
; T08 POINT 95 point-0000095 deposition
G1 A90.000000 C-7.714286 X337.515883 Y279.750000 Z264.514761 E2.957915678532018417 F1.000000
; T08 POINT 96 point-0000096 deposition
G1 A90.000000 C-8.857143 X342.585380 Y279.750000 Z257.731030 E2.978557123529944362 F1.000000
; T08 POINT 97 point-0000097 deposition
G1 A90.000000 C-10.000000 X347.518567 Y279.750000 Z250.847734 E2.999198426577132812 F1.000000
; T08 POINT 98 point-0000098 deposition
G1 A90.000000 C-11.142857 X352.313485 Y279.750000 Z243.867613 E3.019839639290517632 F1.000000
; T08 POINT 99 point-0000099 deposition
G1 A90.000000 C-12.285714 X356.968231 Y279.750000 Z236.793442 E3.040480813289061927 F1.000000
; T08 POINT 100 point-0000100 deposition
G1 A90.000000 C-13.428571 X361.480956 Y279.750000 Z229.628037 E3.061122000192564307 F1.000000
; T08 POINT 101 point-0000101 deposition
G1 A90.000000 C-14.571429 X365.849869 Y279.750000 Z222.374248 E3.081763251620582867 F1.000000
; T08 POINT 102 point-0000102 deposition
G1 A90.000000 C-15.714286 X370.073237 Y279.750000 Z215.034962 E3.102404619191198561 F1.000000
; T08 POINT 103 point-0000103 deposition
G1 A90.000000 C-16.857143 X374.149383 Y279.750000 Z207.613097 E3.123046154519914885 F1.000000
; T08 POINT 104 point-0000104 deposition
G1 A90.000000 C-17.726706 X377.125038 Y279.750000 Z201.912716 E3.144183592550419850 F1.000000
; T08 POINT 105 point-0000105 deposition
G1 A90.000000 C-18.273294 X378.910468 Y279.750000 Z198.306490 E3.165906901437987910 F1.000000
; T08 POINT 106 point-0000106 deposition
G1 A90.000000 C-19.142857 X381.744326 Y279.750000 Z192.533573 E3.187044339468450853 F1.000000
; T08 POINT 107 point-0000107 deposition
G1 A90.000000 C-20.285714 X385.369338 Y279.750000 Z184.881912 E3.207685874797179771 F1.000000
; T08 POINT 108 point-0000108 deposition
G1 A90.000000 C-21.428571 X388.841016 Y279.750000 Z177.159670 E3.228327242367786695 F1.000000
; T08 POINT 109 point-0000109 deposition
G1 A90.000000 C-22.571429 X392.157983 Y279.750000 Z169.369919 E3.248968493795799209 F1.000000
; T08 POINT 110 point-0000110 deposition
G1 A90.000000 C-23.714286 X395.318923 Y279.750000 Z161.515759 E3.269609680699318242 F1.000000
; T08 POINT 111 point-0000111 deposition
G1 A90.000000 C-24.857143 X398.322582 Y279.750000 Z153.600313 E3.290250854697851162 F1.000000
; T08 POINT 112 point-0000112 deposition
G1 A90.000000 C-26.000000 X401.167770 Y279.750000 Z145.626732 E3.310892067411241022 F1.000000
; T08 POINT 113 point-0000113 deposition
G1 A90.000000 C-27.142857 X403.853359 Y279.750000 Z137.598187 E3.331533370458424392 F1.000000
; T08 POINT 114 point-0000114 deposition
G1 A90.000000 C-28.285714 X406.378284 Y279.750000 Z129.517873 E3.352174815456358122 F1.000000
; T08 POINT 115 point-0000115 deposition
G1 A90.000000 C-29.428571 X408.741545 Y279.750000 Z121.389005 E3.372816454018825480 F1.000000
; T08 POINT 116 point-0000116 deposition
G1 A90.000000 C-30.000000 X409.807621 Y279.750000 Z117.307621 E3.394494718882446780 F1.000000
; T08 POINT 117 point-0000117 deposition
G1 A90.000000 C-30.571429 X410.832935 Y279.750000 Z113.214863 E3.416172983746030452 F1.000000
; T08 POINT 118 point-0000118 deposition
G1 A90.000000 C-31.714286 X412.870125 Y279.750000 Z104.998701 E3.436814622308496779 F1.000000
; T08 POINT 119 point-0000119 deposition
G1 A90.000000 C-32.857143 X414.743037 Y279.750000 Z96.743739 E3.457456067306429972 F1.000000
; T08 POINT 120 point-0000120 deposition
G1 A90.000000 C-34.000000 X416.450931 Y279.750000 Z88.453263 E3.478097370353611186 F1.000000
; T08 POINT 121 point-0000121 deposition
G1 A90.000000 C-35.142857 X417.993130 Y279.750000 Z80.130569 E3.498738583067001723 F1.000000
; T08 POINT 122 point-0000122 deposition
G1 A90.000000 C-36.285714 X419.369026 Y279.750000 Z71.778970 E3.519379757065538347 F1.000000
; T08 POINT 123 point-0000123 deposition
G1 A90.000000 C-37.428571 X420.578075 Y279.750000 Z63.401789 E3.540020943969050025 F1.000000
; T08 POINT 124 point-0000124 deposition
G1 A90.000000 C-38.571429 X421.619801 Y279.750000 Z55.002357 E3.560662195397069715 F1.000000
; T08 POINT 125 point-0000125 deposition
G1 A90.000000 C-39.714286 X422.493792 Y279.750000 Z46.584017 E3.581303562967681548 F1.000000
; T08 POINT 126 point-0000126 deposition
G1 A90.000000 C-40.857143 X423.199706 Y279.750000 Z38.150119 E3.601945098296398878 F1.000000
; T08 POINT 127 point-0000127 deposition
G1 A90.000000 C-41.726706 X423.597916 Y279.750000 Z31.724859 E3.623082536326906018 F1.000000
; T08 POINT 128 point-0000128 deposition
G1 A90.000000 C-42.273294 X423.757704 Y279.750000 Z27.683044 E3.644805845214474030 F1.000000
; T08 POINT 129 point-0000129 deposition
G1 A90.000000 C-43.142857 X423.996989 Y279.750000 Z21.249167 E3.665943283244940227 F1.000000
; T08 POINT 130 point-0000130 deposition
G1 A90.000000 C-44.285714 X424.197278 Y279.750000 Z12.788837 E3.686584818573662754 F1.000000
; T08 POINT 131 point-0000131 deposition
G1 A90.000000 C-45.428571 X424.228784 Y279.750000 Z4.326395 E3.707226186144270208 F1.000000
; T08 POINT 132 point-0000132 deposition
G1 A90.000000 C-46.571429 X424.091500 Y279.750000 Z-4.134795 E3.727867437572290302 F1.000000
; T08 POINT 133 point-0000133 deposition
G1 A90.000000 C-47.714286 X423.785485 Y279.750000 Z-12.591364 E3.748508624475798722 F1.000000
; T08 POINT 134 point-0000134 deposition
G1 A90.000000 C-48.857143 X423.310863 Y279.750000 Z-21.039949 E3.769149798474342142 F1.000000
; T08 POINT 135 point-0000135 deposition
G1 A90.000000 C-50.000000 X422.667828 Y279.750000 Z-29.477188 E3.789791011187730198 F1.000000
; T08 POINT 136 point-0000136 deposition
G1 A90.000000 C-51.142857 X421.856640 Y279.750000 Z-37.899725 E3.810432314234909068 F1.000000
; T08 POINT 137 point-0000137 deposition
G1 A90.000000 C-52.285714 X420.877626 Y279.750000 Z-46.304208 E3.831073759232846726 F1.000000
; T08 POINT 138 point-0000138 deposition
G1 A90.000000 C-53.428571 X419.731179 Y279.750000 Z-54.687295 E3.851715397795316113 F1.000000
; T08 POINT 139 point-0000139 deposition
G1 A90.000000 C-54.000000 X419.040674 Y279.750000 Z-58.869523 E3.873393662658936020 F1.000000
; T08 POINT 140 point-0000140 deposition
G1 A90.000000 C-54.571429 X418.308489 Y279.750000 Z-63.045601 E3.895071927522519450 F1.000000
; T08 POINT 141 point-0000141 deposition
G1 A90.000000 C-55.714286 X416.828624 Y279.750000 Z-71.375803 E3.915713566084989386 F1.000000
; T08 POINT 142 point-0000142 deposition
G1 A90.000000 C-56.857143 X415.182907 Y279.750000 Z-79.674632 E3.936355011082919994 F1.000000
; T08 POINT 143 point-0000143 deposition
G1 A90.000000 C-58.000000 X413.371996 Y279.750000 Z-87.938788 E3.956996314130107974 F1.000000
; T08 POINT 144 point-0000144 deposition
G1 A90.000000 C-59.142857 X411.396616 Y279.750000 Z-96.164982 E3.977637526843495354 F1.000000
; T08 POINT 145 point-0000145 deposition
G1 A90.000000 C-60.285714 X409.257557 Y279.750000 Z-104.349941 E3.998278700842036200 F1.000000
; T08 POINT 146 point-0000146 deposition
G1 A90.000000 C-61.428571 X406.955674 Y279.750000 Z-112.490410 E4.018919887745545600 F1.000000
; T08 POINT 147 point-0000147 deposition
G1 A90.000000 C-62.571429 X404.491887 Y279.750000 Z-120.583149 E4.039561139173561312 F1.000000
; T08 POINT 148 point-0000148 deposition
G1 A90.000000 C-63.714286 X401.867181 Y279.750000 Z-128.624938 E4.060202506744170632 F1.000000
; T08 POINT 149 point-0000149 deposition
G1 A90.000000 C-64.857143 X399.082603 Y279.750000 Z-136.612579 E4.080844042072896608 F1.000000
; T08 POINT 150 point-0000150 deposition
G1 A90.000000 C-65.726706 X396.831364 Y279.750000 Z-142.651708 E4.101981480103397964 F1.000000
; T08 POINT 151 point-0000151 deposition
G1 A90.000000 C-66.273294 X395.328885 Y279.750000 Z-146.430246 E4.123704788990966784 F1.000000
; T08 POINT 152 point-0000152 deposition
G1 A90.000000 C-67.142857 X392.929073 Y279.750000 Z-152.412631 E4.144842227021433998 F1.000000
; T08 POINT 153 point-0000153 deposition
G1 A90.000000 C-68.285714 X389.671806 Y279.750000 Z-160.218755 E4.165483762350160868 F1.000000
; T08 POINT 154 point-0000154 deposition
G1 A90.000000 C-69.428571 X386.259493 Y279.750000 Z-167.958161 E4.186125129920770288 F1.000000
; T08 POINT 155 point-0000155 deposition
G1 A90.000000 C-70.571429 X382.693495 Y279.750000 Z-175.627769 E4.206766381348782558 F1.000000
; T08 POINT 156 point-0000156 deposition
G1 A90.000000 C-71.714286 X378.975236 Y279.750000 Z-183.224529 E4.227407568252296858 F1.000000
; T08 POINT 157 point-0000157 deposition
G1 A90.000000 C-72.857143 X375.106199 Y279.750000 Z-190.745416 E4.248048742250839238 F1.000000
; T08 POINT 158 point-0000158 deposition
G1 A90.000000 C-74.000000 X371.087928 Y279.750000 Z-198.187440 E4.268689954964226354 F1.000000
; T08 POINT 159 point-0000159 deposition
G1 A90.000000 C-75.142857 X366.922024 Y279.750000 Z-205.547640 E4.289331258011404542 F1.000000
; T08 POINT 160 point-0000160 deposition
G1 A90.000000 C-76.285714 X362.610151 Y279.750000 Z-212.823086 E4.309972703009348816 F1.000000
; T08 POINT 161 point-0000161 deposition
G1 A90.000000 C-77.428571 X358.154026 Y279.750000 Z-220.010885 E4.330614341571814279 F1.000000
; T08 POINT 162 point-0000162 deposition
G1 A90.000000 C-78.000000 X355.817787 Y279.750000 Z-223.570773 E4.352292606435429513 F1.000000
; T08 POINT 163 point-0000163 deposition
G1 A90.000000 C-78.571429 X353.446157 Y279.750000 Z-227.108130 E4.373970871299013619 F1.000000
; T08 POINT 164 point-0000164 deposition
G1 A90.000000 C-79.714286 X348.706919 Y279.750000 Z-234.111996 E4.394612509861479709 F1.000000
; T08 POINT 165 point-0000165 deposition
G1 A90.000000 C-80.857143 X343.828932 Y279.750000 Z-241.019745 E4.415253954859417759 F1.000000
; T08 POINT 166 point-0000166 deposition
G1 A90.000000 C-82.000000 X338.814139 Y279.750000 Z-247.828628 E4.435895257906604319 F1.000000
; T08 POINT 167 point-0000167 deposition
G1 A90.000000 C-83.142857 X333.664540 Y279.750000 Z-254.535937 E4.456536470619986963 F1.000000
; T08 POINT 168 point-0000168 deposition
G1 A90.000000 C-84.285714 X328.382188 Y279.750000 Z-261.139003 E4.477177644618536553 F1.000000
; T08 POINT 169 point-0000169 deposition
G1 A90.000000 C-85.428571 X322.969189 Y279.750000 Z-267.635199 E4.497818831522040773 F1.000000
; T08 POINT 170 point-0000170 deposition
G1 A90.000000 C-86.571429 X317.427701 Y279.750000 Z-274.021940 E4.518460082950055511 F1.000000
; T08 POINT 171 point-0000171 deposition
G1 A90.000000 C-87.714286 X311.759931 Y279.750000 Z-280.296685 E4.539101450520672251 F1.000000
; T08 POINT 172 point-0000172 deposition
G1 A90.000000 C-88.857143 X305.968140 Y279.750000 Z-286.456938 E4.559742985849391247 F1.000000
; T08 POINT 173 point-0000173 deposition
G1 A90.000000 C-89.726706 X301.453563 Y279.750000 Z-291.065691 E4.580880423879890695 F1.000000
; T08 POINT 174 point-0000174 deposition
G1 A90.000000 C-90.273294 X298.539612 Y279.750000 Z-293.927608 E4.602603732767457565 F1.000000
; T08 POINT 175 point-0000175 deposition
G1 A90.000000 C-91.142857 X293.912504 Y279.750000 Z-298.424117 E4.623741170797927475 F1.000000
; T08 POINT 176 point-0000176 deposition
G1 A90.000000 C-92.285714 X287.762691 Y279.750000 Z-304.226281 E4.644382706126653850 F1.000000
; T08 POINT 177 point-0000177 deposition
G1 A90.000000 C-93.428571 X281.498377 Y279.750000 Z-309.904432 E4.665024073697269034 F1.000000
; T08 POINT 178 point-0000178 deposition
G1 A90.000000 C-94.571429 X275.122059 Y279.750000 Z-315.456312 E4.685665325125277774 F1.000000
; T08 POINT 179 point-0000179 deposition
G1 A90.000000 C-95.714286 X268.636277 Y279.750000 Z-320.879711 E4.706306512028796838 F1.000000
; T08 POINT 180 point-0000180 deposition
G1 A90.000000 C-96.857143 X262.043616 Y279.750000 Z-326.172472 E4.726947686027330118 F1.000000
; T08 POINT 181 point-0000181 deposition
G1 A90.000000 C-98.000000 X255.346702 Y279.750000 Z-331.332489 E4.747588898740721553 F1.000000
; T08 POINT 182 point-0000182 deposition
G1 A90.000000 C-99.142857 X248.548206 Y279.750000 Z-336.357709 E4.768230201787907683 F1.000000
; T08 POINT 183 point-0000183 deposition
G1 A90.000000 C-100.285714 X241.650834 Y279.750000 Z-341.246133 E4.788871646785836751 F1.000000
; T08 POINT 184 point-0000184 deposition
G1 A90.000000 C-101.428571 X234.657336 Y279.750000 Z-345.995815 E4.809513285348312091 F1.000000
; T08 POINT 185 point-0000185 deposition
G1 A90.000000 C-102.000000 X231.070773 Y279.750000 Z-348.317787 E4.831191550211920237 F1.000000
; T08 POINT 186 point-0000186 deposition
G1 A90.000000 C-102.571429 X227.461226 Y279.750000 Z-350.604820 E4.852869815075509677 F1.000000
; T08 POINT 187 point-0000187 deposition
G1 A90.000000 C-103.714286 X220.283872 Y279.750000 Z-355.071313 E4.873511453637976577 F1.000000
; T08 POINT 188 point-0000188 deposition
G1 A90.000000 C-104.857143 X213.018862 Y279.750000 Z-359.393564 E4.894152898635912957 F1.000000
; T08 POINT 189 point-0000189 deposition
G1 A90.000000 C-106.000000 X205.669090 Y279.750000 Z-363.569854 E4.914794201683100475 F1.000000
; T08 POINT 190 point-0000190 deposition
G1 A90.000000 C-107.142857 X198.237484 Y279.750000 Z-367.598521 E4.935435414396485325 F1.000000
; T08 POINT 191 point-0000191 deposition
G1 A90.000000 C-108.285714 X190.727006 Y279.750000 Z-371.477963 E4.956076588395023485 F1.000000
; T08 POINT 192 point-0000192 deposition
G1 A90.000000 C-109.428571 X183.140647 Y279.750000 Z-375.206635 E4.976717775298541057 F1.000000
; T08 POINT 193 point-0000193 deposition
G1 A90.000000 C-110.571429 X175.481430 Y279.750000 Z-378.783056 E4.997359026726555607 F1.000000
; T08 POINT 194 point-0000194 deposition
G1 A90.000000 C-111.714286 X167.752405 Y279.750000 Z-382.205800 E5.018000394297165027 F1.000000
; T08 POINT 195 point-0000195 deposition
G1 A90.000000 C-112.857143 X159.956654 Y279.750000 Z-385.473508 E5.038641929625890797 F1.000000
; T08 POINT 196 point-0000196 deposition
G1 A90.000000 C-113.726706 X153.956201 Y279.750000 Z-387.854964 E5.059779367656381873 F1.000000
; T08 POINT 197 point-0000197 deposition
G1 A90.000000 C-114.273294 X150.125629 Y279.750000 Z-389.305409 E5.081502676543950541 F1.000000
; T08 POINT 198 point-0000198 deposition
G1 A90.000000 C-115.142857 X144.068144 Y279.750000 Z-391.538580 E5.102640114574420218 F1.000000
; T08 POINT 199 point-0000199 deposition
G1 A90.000000 C-116.285714 X136.090944 Y279.750000 Z-394.333530 E5.123281649903150170 F1.000000
; T08 POINT 200 point-0000200 deposition
G1 A90.000000 C-117.428571 X128.059586 Y279.750000 Z-396.968619 E5.143923017473764782 F1.000000
; T08 POINT 201 point-0000201 deposition
G1 A90.000000 C-118.571429 X119.977270 Y279.750000 Z-399.442797 E5.164564268901780494 F1.000000
; T08 POINT 202 point-0000202 deposition
G1 A90.000000 C-119.714286 X111.847215 Y279.750000 Z-401.755080 E5.185205455805289894 F1.000000
; T08 POINT 203 point-0000203 deposition
G1 A90.000000 C-120.857143 X103.672660 Y279.750000 Z-403.904548 E5.205846629803828721 F1.000000
; T08 POINT 204 point-0000204 deposition
G1 A90.000000 C-122.000000 X95.456862 Y279.750000 Z-405.890346 E5.226487842517213304 F1.000000
; T08 POINT 205 point-0000205 deposition
G1 A90.000000 C-123.142857 X87.203093 Y279.750000 Z-407.711684 E5.247129145564403320 F1.000000
; T08 POINT 206 point-0000206 deposition
G1 A90.000000 C-124.285714 X78.914641 Y279.750000 Z-409.367838 E5.267770590562335160 F1.000000
; T08 POINT 207 point-0000207 deposition
G1 A90.000000 C-125.428571 X70.594808 Y279.750000 Z-410.858147 E5.288412229124802206 F1.000000
; T08 POINT 208 point-0000208 deposition
G1 A90.000000 C-126.000000 X66.369523 Y279.750000 Z-411.540674 E5.310090493988411049 F1.000000
; T08 POINT 209 point-0000209 deposition
G1 A90.000000 C-126.571429 X62.137636 Y279.750000 Z-412.181973 E5.331768758852007609 F1.000000
; T08 POINT 210 point-0000210 deposition
G1 A90.000000 C-127.714286 X53.764995 Y279.750000 Z-413.338788 E5.352410397414472854 F1.000000
; T08 POINT 211 point-0000211 deposition
G1 A90.000000 C-128.857143 X45.370948 Y279.750000 Z-414.328180 E5.373051842412414897 F1.000000
; T08 POINT 212 point-0000212 deposition
G1 A90.000000 C-130.000000 X36.958838 Y279.750000 Z-415.149754 E5.393693145459594712 F1.000000
; T08 POINT 213 point-0000213 deposition
G1 A90.000000 C-131.142857 X28.532017 Y279.750000 Z-415.803184 E5.414334358172978757 F1.000000
; T08 POINT 214 point-0000214 deposition
G1 A90.000000 C-132.285714 X20.093841 Y279.750000 Z-416.288211 E5.434975532171526347 F1.000000
; T08 POINT 215 point-0000215 deposition
G1 A90.000000 C-133.428571 X11.647672 Y279.750000 Z-416.604640 E5.455616719075034767 F1.000000
; T08 POINT 216 point-0000216 deposition
G1 A90.000000 C-134.571429 X3.196874 Y279.750000 Z-416.752347 E5.476257970503050729 F1.000000
; T08 POINT 217 point-0000217 deposition
G1 A90.000000 C-135.714286 X-5.255187 Y279.750000 Z-416.731272 E5.496899338073662359 F1.000000
; T08 POINT 218 point-0000218 deposition
G1 A90.000000 C-136.857143 X-13.705144 Y279.750000 Z-416.541424 E5.517540873402384886 F1.000000
; T08 POINT 219 point-0000219 deposition
G1 A90.000000 C-137.726706 X-20.157089 Y279.750000 Z-416.283783 E5.538678311432874116 F1.000000
; T08 POINT 220 point-0000220 deposition
G1 A90.000000 C-138.273294 X-24.250938 Y279.750000 Z-416.071961 E5.560401620320442128 F1.000000
; T08 POINT 221 point-0000221 deposition
G1 A90.000000 C-139.142857 X-30.694554 Y279.750000 Z-415.655683 E5.581539058350925086 F1.000000
; T08 POINT 222 point-0000222 deposition
G1 A90.000000 C-140.285714 X-39.118012 Y279.750000 Z-414.960142 E5.602180593679644682 F1.000000
; T08 POINT 223 point-0000223 deposition
G1 A90.000000 C-141.428571 X-47.525920 Y279.750000 Z-414.096532 E5.622821961250262522 F1.000000
; T08 POINT 224 point-0000224 deposition
G1 A90.000000 C-142.571429 X-55.914929 Y279.750000 Z-413.065198 E5.643463212678267442 F1.000000
; T08 POINT 225 point-0000225 deposition
G1 A90.000000 C-143.714286 X-64.281697 Y279.750000 Z-411.866549 E5.664104399581788572 F1.000000
; T08 POINT 226 point-0000226 deposition
G1 A90.000000 C-144.857143 X-72.622891 Y279.750000 Z-410.501062 E5.684745573580328122 F1.000000
; T08 POINT 227 point-0000227 deposition
G1 A90.000000 C-146.000000 X-80.935189 Y279.750000 Z-408.969281 E5.705386786293706797 F1.000000
; T08 POINT 228 point-0000228 deposition
G1 A90.000000 C-147.142857 X-89.215279 Y279.750000 Z-407.271815 E5.726028089340898662 F1.000000
; T08 POINT 229 point-0000229 deposition
G1 A90.000000 C-148.285714 X-97.459863 Y279.750000 Z-405.409338 E5.746669534338833102 F1.000000
; T08 POINT 230 point-0000230 deposition
G1 A90.000000 C-149.428571 X-105.665657 Y279.750000 Z-403.382594 E5.767311172901300206 F1.000000
; T08 POINT 231 point-0000231 deposition
G1 A90.000000 C-150.000000 X-109.807621 Y279.750000 Z-402.307621 E5.788989437764904396 F1.000000
; T08 POINT 232 point-0000232 deposition
G1 A90.000000 C-150.571429 X-113.938663 Y279.750000 Z-401.192339 E5.810667702628500593 F1.000000
; T08 POINT 233 point-0000233 deposition
G1 A90.000000 C-151.714286 X-122.057087 Y279.750000 Z-398.839446 E5.831309341190973853 F1.000000
; T08 POINT 234 point-0000234 deposition
G1 A90.000000 C-152.857143 X-130.126964 Y279.750000 Z-396.324898 E5.851950786188906949 F1.000000
; T08 POINT 235 point-0000235 deposition
G1 A90.000000 C-154.000000 X-138.145082 Y279.750000 Z-393.649696 E5.872592089236092299 F1.000000
; T08 POINT 236 point-0000236 deposition
G1 A90.000000 C-155.142857 X-146.108245 Y279.750000 Z-390.814904 E5.893233301949473589 F1.000000
; T08 POINT 237 point-0000237 deposition
G1 A90.000000 C-156.285714 X-154.013281 Y279.750000 Z-387.821649 E5.913874475948024354 F1.000000
; T08 POINT 238 point-0000238 deposition
G1 A90.000000 C-157.428571 X-161.857042 Y279.750000 Z-384.671123 E5.934515662851524184 F1.000000
; T08 POINT 239 point-0000239 deposition
G1 A90.000000 C-158.571429 X-169.636402 Y279.750000 Z-381.364579 E5.955156914279545208 F1.000000
; T08 POINT 240 point-0000240 deposition
G1 A90.000000 C-159.714286 X-177.348262 Y279.750000 Z-377.903333 E5.975798281850155421 F1.000000
; T08 POINT 241 point-0000241 deposition
G1 A90.000000 C-160.857143 X-184.989550 Y279.750000 Z-374.288761 E5.996439817178876897 F1.000000
; T08 POINT 242 point-0000242 deposition
G1 A90.000000 C-161.726706 X-190.780536 Y279.750000 Z-371.436547 E6.017577255209364587 F1.000000
; T08 POINT 243 point-0000243 deposition
G1 A90.000000 C-162.273294 X-194.438795 Y279.750000 Z-369.599083 E6.039300564096933107 F1.000000
; T08 POINT 244 point-0000244 deposition
G1 A90.000000 C-163.142857 X-200.157532 Y279.750000 Z-366.605359 E6.060438002127418967 F1.000000
; T08 POINT 245 point-0000245 deposition
G1 A90.000000 C-164.285714 X-207.568956 Y279.750000 Z-362.539587 E6.081079537456138535 F1.000000
; T08 POINT 246 point-0000246 deposition
G1 A90.000000 C-165.428571 X-214.897811 Y279.750000 Z-358.326601 E6.101720905026753178 F1.000000
; T08 POINT 247 point-0000247 deposition
G1 A90.000000 C-166.571429 X-222.141177 Y279.750000 Z-353.968078 E6.122362156454763863 F1.000000
; T08 POINT 248 point-0000248 deposition
G1 A90.000000 C-167.714286 X-229.296169 Y279.750000 Z-349.465754 E6.143003343358276977 F1.000000
; T08 POINT 249 point-0000249 deposition
G1 A90.000000 C-168.857143 X-236.359934 Y279.750000 Z-344.821417 E6.163644517356819827 F1.000000
; T08 POINT 250 point-0000250 deposition
G1 A90.000000 C-170.000000 X-243.329661 Y279.750000 Z-340.036917 E6.184285730070197391 F1.000000
; T08 POINT 251 point-0000251 deposition
G1 A90.000000 C-171.142857 X-250.202570 Y279.750000 Z-335.114157 E6.204927033117394828 F1.000000
; T08 POINT 252 point-0000252 deposition
G1 A90.000000 C-172.285714 X-256.975923 Y279.750000 Z-330.055096 E6.225568478115320551 F1.000000
; T08 POINT 253 point-0000253 deposition
G1 A90.000000 C-173.428571 X-263.647022 Y279.750000 Z-324.861746 E6.246210116677797491 F1.000000
; T08 POINT 254 point-0000254 deposition
G1 A90.000000 C-174.000000 X-266.998030 Y279.750000 Z-322.215108 E6.267888381541393078 F1.000000
; T08 POINT 255 point-0000255 deposition
G1 A90.000000 C-174.571429 X-270.322480 Y279.750000 Z-319.536126 E6.289566646404992728 F1.000000
; T08 POINT 256 point-0000256 deposition
G1 A90.000000 C-175.714286 X-276.781137 Y279.750000 Z-314.080355 E6.310208284967457300 F1.000000
; T08 POINT 257 point-0000257 deposition
G1 A90.000000 C-176.857143 X-283.129691 Y279.750000 Z-308.496651 E6.330849729965393230 F1.000000
; T08 POINT 258 point-0000258 deposition
G1 A90.000000 C-178.000000 X-289.365611 Y279.750000 Z-302.787235 E6.351491033012584720 F1.000000
; T08 POINT 259 point-0000259 deposition
G1 A90.000000 C-179.142857 X-295.486414 Y279.750000 Z-296.954380 E6.372132245725969733 F1.000000
; T08 POINT 260 point-0000260 deposition
G1 A90.000000 C-180.285714 X-301.489659 Y279.750000 Z-291.000404 E6.392773419724510843 F1.000000
; T08 POINT 261 point-0000261 deposition
G1 A90.000000 C-181.428571 X-307.372953 Y279.750000 Z-284.927678 E6.413414606628019457 F1.000000
; T08 POINT 262 point-0000262 deposition
G1 A90.000000 C-182.571429 X-313.133954 Y279.750000 Z-278.738618 E6.434055858056031327 F1.000000
; T08 POINT 263 point-0000263 deposition
G1 A90.000000 C-183.714286 X-318.770363 Y279.750000 Z-272.435685 E6.454697225626649172 F1.000000
; T08 POINT 264 point-0000264 deposition
G1 A90.000000 C-184.857143 X-324.279934 Y279.750000 Z-266.021388 E6.475338760955365062 F1.000000
; T08 POINT 265 point-0000265 deposition
G1 A90.000000 C-185.726706 X-328.411796 Y279.750000 Z-261.067750 E6.496476198985853228 F1.000000
; T08 POINT 266 point-0000266 deposition
G1 A90.000000 C-186.273294 X-331.010918 Y279.750000 Z-257.922359 E6.518199507873422088 F1.000000
; T08 POINT 267 point-0000267 deposition
G1 A90.000000 C-187.142857 X-335.019102 Y279.750000 Z-252.868856 E6.539336945903910146 F1.000000
; T08 POINT 268 point-0000268 deposition
G1 A90.000000 C-188.285714 X-340.135190 Y279.750000 Z-246.135855 E6.559978481232623833 F1.000000
; T08 POINT 269 point-0000269 deposition
G1 A90.000000 C-189.428571 X-345.115967 Y279.750000 Z-239.301952 E6.580619848803244283 F1.000000
; T08 POINT 270 point-0000270 deposition
G1 A90.000000 C-190.571429 X-349.959447 Y279.750000 Z-232.369867 E6.601261100231250441 F1.000000
; T08 POINT 271 point-0000271 deposition
G1 A90.000000 C-191.714286 X-354.663700 Y279.750000 Z-225.342358 E6.621902287134769755 F1.000000
; T08 POINT 272 point-0000272 deposition
G1 A90.000000 C-192.857143 X-359.226849 Y279.750000 Z-218.222220 E6.642543461133305237 F1.000000
; T08 POINT 273 point-0000273 deposition
G1 A90.000000 C-194.000000 X-363.647074 Y279.750000 Z-211.012287 E6.663184673846691977 F1.000000
; T08 POINT 274 point-0000274 deposition
G1 A90.000000 C-195.142857 X-367.922614 Y279.750000 Z-203.715427 E6.683825976893876913 F1.000000
; T08 POINT 275 point-0000275 deposition
G1 A90.000000 C-196.285714 X-372.051764 Y279.750000 Z-196.334543 E6.704467421891818523 F1.000000
; T08 POINT 276 point-0000276 deposition
G1 A90.000000 C-197.428571 X-376.032875 Y279.750000 Z-188.872572 E6.725109060454284177 F1.000000
; T08 POINT 277 point-0000277 deposition
G1 A90.000000 C-198.000000 X-378.022053 Y279.750000 Z-185.111857 E6.746787325317883230 F1.000000
; T08 POINT 278 point-0000278 deposition
G1 A90.000000 C-198.571429 X-379.973631 Y279.750000 Z-181.332435 E6.768465590181479646 F1.000000
; T08 POINT 279 point-0000279 deposition
G1 A90.000000 C-199.714286 X-383.653962 Y279.750000 Z-173.717132 E6.789107228743950220 F1.000000
; T08 POINT 280 point-0000280 deposition
G1 A90.000000 C-200.857143 X-387.181670 Y279.750000 Z-166.029739 E6.809748673741888853 F1.000000
; T08 POINT 281 point-0000281 deposition
G1 A90.000000 C-202.000000 X-390.555346 Y279.750000 Z-158.273316 E6.830389976789071113 F1.000000
; T08 POINT 282 point-0000282 deposition
G1 A90.000000 C-203.142857 X-393.773646 Y279.750000 Z-150.450949 E6.851031189502454673 F1.000000
; T08 POINT 283 point-0000283 deposition
G1 A90.000000 C-204.285714 X-396.835285 Y279.750000 Z-142.565749 E6.871672363500996636 F1.000000
; T08 POINT 284 point-0000284 deposition
G1 A90.000000 C-205.428571 X-399.739040 Y279.750000 Z-134.620854 E6.892313550404514458 F1.000000
; T08 POINT 285 point-0000285 deposition
G1 A90.000000 C-206.571429 X-402.483751 Y279.750000 Z-126.619425 E6.912954801832523360 F1.000000
; T08 POINT 286 point-0000286 deposition
G1 A90.000000 C-207.714286 X-405.068324 Y279.750000 Z-118.564645 E6.933596169403136067 F1.000000
; T08 POINT 287 point-0000287 deposition
G1 A90.000000 C-208.857143 X-407.491725 Y279.750000 Z-110.459718 E6.954237704731855797 F1.000000
; T08 POINT 288 point-0000288 deposition
G1 A90.000000 C-209.726706 X-409.253175 Y279.750000 Z-104.261160 E6.975375142762342179 F1.000000
; T08 POINT 289 point-0000289 deposition
G1 A90.000000 C-210.273294 X-410.352743 Y279.750000 Z-100.351708 E6.997098451649909834 F1.000000
; T08 POINT 290 point-0000290 deposition
G1 A90.000000 C-211.142857 X-411.960474 Y279.750000 Z-94.112248 E7.018235889680392976 F1.000000
; T08 POINT 291 point-0000291 deposition
G1 A90.000000 C-212.285714 X-413.894808 Y279.750000 Z-85.876209 E7.038877425009119840 F1.000000
; T08 POINT 292 point-0000292 deposition
G1 A90.000000 C-213.428571 X-415.664486 Y279.750000 Z-77.603029 E7.059518792579727457 F1.000000
; T08 POINT 293 point-0000293 deposition
G1 A90.000000 C-214.571429 X-417.268799 Y279.750000 Z-69.295999 E7.080160044007751583 F1.000000
; T08 POINT 294 point-0000294 deposition
G1 A90.000000 C-215.714286 X-418.707105 Y279.750000 Z-60.958425 E7.100801230911253023 F1.000000
; T08 POINT 295 point-0000295 deposition
G1 A90.000000 C-216.857143 X-419.978828 Y279.750000 Z-52.593623 E7.121442404909798123 F1.000000
; T08 POINT 296 point-0000296 deposition
G1 A90.000000 C-218.000000 X-421.083457 Y279.750000 Z-44.204922 E7.142083617623179993 F1.000000
; T08 POINT 297 point-0000297 deposition
G1 A90.000000 C-219.142857 X-422.020548 Y279.750000 Z-35.795658 E7.162724920670369138 F1.000000
; T08 POINT 298 point-0000298 deposition
G1 A90.000000 C-220.285714 X-422.789726 Y279.750000 Z-27.369179 E7.183366365668307323 F1.000000
; T08 POINT 299 point-0000299 deposition
G1 A90.000000 C-221.428571 X-423.390680 Y279.750000 Z-18.928836 E7.204008004230767860 F1.000000
; T08 POINT 300 point-0000300 deposition
G1 A90.000000 C-222.000000 X-423.682630 Y279.750000 Z-14.704266 E7.225686269094372310 F1.000000
; T08 POINT 301 point-0000301 deposition
G1 A90.000000 C-222.571429 X-423.932437 Y279.750000 Z-10.477939 E7.247364533957971380 F1.000000
; T08 POINT 302 point-0000302 deposition
G1 A90.000000 C-223.714286 X-424.196280 Y279.750000 Z-2.019852 E7.268006172520443657 F1.000000
; T08 POINT 303 point-0000303 deposition
G1 A90.000000 C-224.857143 X-424.291369 Y279.750000 Z6.442013 E7.288647617518371621 F1.000000
; T08 POINT 304 point-0000304 deposition
G1 A90.000000 C-226.000000 X-424.217663 Y279.750000 Z14.904291 E7.309288920565564211 F1.000000
; T08 POINT 305 point-0000305 deposition
G1 A90.000000 C-227.142857 X-423.975188 Y279.750000 Z23.363613 E7.329930133278948523 F1.000000
; T08 POINT 306 point-0000306 deposition
G1 A90.000000 C-228.285714 X-423.564035 Y279.750000 Z31.816615 E7.350571307277483383 F1.000000
; T08 POINT 307 point-0000307 deposition
G1 A90.000000 C-229.428571 X-422.984365 Y279.750000 Z40.259934 E7.371212494180995956 F1.000000
; T08 POINT 308 point-0000308 deposition
G1 A90.000000 C-230.571429 X-422.236403 Y279.750000 Z48.690210 E7.391853745609016772 F1.000000
; T08 POINT 309 point-0000309 deposition
G1 A90.000000 C-231.714286 X-421.320443 Y279.750000 Z57.104089 E7.412495113179623279 F1.000000
; T08 POINT 310 point-0000310 deposition
G1 A90.000000 C-232.857143 X-420.236846 Y279.750000 Z65.498223 E7.433136648508352724 F1.000000
; T08 POINT 311 point-0000311 deposition
G1 A90.000000 C-233.726706 X-419.326463 Y279.750000 Z71.869940 E7.454274086538831709 F1.000000
; T08 POINT 312 point-0000312 deposition
G1 A90.000000 C-234.273294 X-418.745351 Y279.750000 Z75.867472 E7.475997395426401081 F1.000000
; T08 POINT 313 point-0000313 deposition
G1 A90.000000 C-235.142857 X-417.677785 Y279.750000 Z82.214005 E7.497134833456890575 F1.000000
; T08 POINT 314 point-0000314 deposition
G1 A90.000000 C-236.285714 X-416.094102 Y279.750000 Z90.529002 E7.517776368785604845 F1.000000
; T08 POINT 315 point-0000315 deposition
G1 A90.000000 C-237.428571 X-414.344888 Y279.750000 Z98.810956 E7.538417736356214967 F1.000000
; T08 POINT 316 point-0000316 deposition
G1 A90.000000 C-238.571429 X-412.430834 Y279.750000 Z107.056572 E7.559058987784237607 F1.000000
; T08 POINT 317 point-0000317 deposition
G1 A90.000000 C-239.714286 X-410.352698 Y279.750000 Z115.262570 E7.579700174687751267 F1.000000
; T08 POINT 318 point-0000318 deposition
G1 A90.000000 C-240.857143 X-408.111302 Y279.750000 Z123.425686 E7.600341348686284723 F1.000000
; T08 POINT 319 point-0000319 deposition
G1 A90.000000 C-242.000000 X-405.707535 Y279.750000 Z131.542671 E7.620982561399671243 F1.000000
; T08 POINT 320 point-0000320 deposition
G1 A90.000000 C-243.142857 X-403.142347 Y279.750000 Z139.610296 E7.641623864446861370 F1.000000
; T08 POINT 321 point-0000321 deposition
G1 A90.000000 C-244.285714 X-400.416756 Y279.750000 Z147.625351 E7.662265309444793636 F1.000000
; T08 POINT 322 point-0000322 deposition
G1 A90.000000 C-245.428571 X-397.531843 Y279.750000 Z155.584647 E7.682906948007261313 F1.000000
; T08 POINT 323 point-0000323 deposition
G1 A90.000000 C-246.000000 X-396.084630 Y279.750000 Z159.542644 E7.704585212870861327 F1.000000
; T08 POINT 324 point-0000324 deposition
G1 A90.000000 C-246.571429 X-394.598021 Y279.750000 Z163.485066 E7.726263477734456797 F1.000000
; T08 POINT 325 point-0000325 deposition
G1 A90.000000 C-247.714286 X-391.397955 Y279.750000 Z171.323464 E7.746905116296932735 F1.000000
; T08 POINT 326 point-0000326 deposition
G1 A90.000000 C-248.857143 X-388.042185 Y279.750000 Z179.096674 E7.767546561294864589 F1.000000
; T08 POINT 327 point-0000327 deposition
G1 A90.000000 C-250.000000 X-384.532041 Y279.750000 Z186.801605 E7.788187864342052479 F1.000000
; T08 POINT 328 point-0000328 deposition
G1 A90.000000 C-251.142857 X-380.868918 Y279.750000 Z194.435191 E7.808829077055434169 F1.000000
; T08 POINT 329 point-0000329 deposition
G1 A90.000000 C-252.285714 X-377.054266 Y279.750000 Z201.994395 E7.829470251053974495 F1.000000
; T08 POINT 330 point-0000330 deposition
G1 A90.000000 C-253.428571 X-373.089602 Y279.750000 Z209.476209 E7.850111437957491453 F1.000000
; T08 POINT 331 point-0000331 deposition
G1 A90.000000 C-254.571429 X-368.976496 Y279.750000 Z216.877657 E7.870752689385504753 F1.000000
; T08 POINT 332 point-0000332 deposition
G1 A90.000000 C-255.714286 X-364.716583 Y279.750000 Z224.195795 E7.891394056956114327 F1.000000
; T08 POINT 333 point-0000333 deposition
G1 A90.000000 C-256.857143 X-360.311552 Y279.750000 Z231.427709 E7.912035592284832819 F1.000000
; T08 POINT 334 point-0000334 deposition
G1 A90.000000 C-257.726706 X-356.889898 Y279.750000 Z236.870881 E7.933173030315321637 F1.000000
; T08 POINT 335 point-0000335 deposition
G1 A90.000000 C-258.273294 X-354.737581 Y279.750000 Z240.265284 E7.954896339202890010 F1.000000
; T08 POINT 336 point-0000336 deposition
G1 A90.000000 C-259.142857 X-351.182459 Y279.750000 Z245.621492 E7.976033777233383116 F1.000000
; T08 POINT 337 point-0000337 deposition
G1 A90.000000 C-260.285714 X-346.352794 Y279.750000 Z252.577714 E7.996675312562092536 F1.000000
; T08 POINT 338 point-0000338 deposition
G1 A90.000000 C-261.428571 X-341.385343 Y279.750000 Z259.436421 E8.017316680132715082 F1.000000
; T08 POINT 339 point-0000339 deposition
G1 A90.000000 C-262.571429 X-336.282080 Y279.750000 Z266.194885 E8.037957931560725139 F1.000000
; T08 POINT 340 point-0000340 deposition
G1 A90.000000 C-263.714286 X-331.045031 Y279.750000 Z272.850417 E8.058599118464235196 F1.000000
; T08 POINT 341 point-0000341 deposition
G1 A90.000000 C-264.857143 X-325.676276 Y279.750000 Z279.400369 E8.079240292462774262 F1.000000
; T08 POINT 342 point-0000342 deposition
G1 A90.000000 C-266.000000 X-320.177945 Y279.750000 Z285.842135 E8.099881505176160157 F1.000000
; T08 POINT 343 point-0000343 deposition
G1 A90.000000 C-267.142857 X-314.552223 Y279.750000 Z292.173152 E8.120522808223352310 F1.000000
; T08 POINT 344 point-0000344 deposition
G1 A90.000000 C-268.285714 X-308.801344 Y279.750000 Z298.390902 E8.141164253221280146 F1.000000
; T08 POINT 345 point-0000345 deposition
G1 A90.000000 C-269.428571 X-302.927591 Y279.750000 Z304.492911 E8.161805891783750071 F1.000000
; T08 POINT 346 point-0000346 deposition
G1 A90.000000 C-270.000000 X-300.000000 Y279.750000 Z307.500000 E8.183484156647351391 F1.000000
M400 ; finish queued motion
M2
