; 5AxisSclicer P04 P06 real STEP planar_thin_wall
; reference XYZAC profile; offline simulation only
G21 ; millimetres
G90 ; absolute axes
M82 ; absolute extrusion
; P04 EVENT event-0000001 prime
G1 E1.000000 F100.000
; P04 POINT 1 point-0000001 approach
G1 A0.000000 C0.000000 X254.784314 Y240.721539 Z312.000000 F100.000
; P04 POINT 2 point-0000002 deposition
G1 A0.000000 C0.000000 X284.271914 Y201.087850 Z312.000000 E8.393710 F100.000
; P04 POINT 3 point-0000003 deposition
G1 A0.000000 C0.000000 X286.999738 Y203.117360 Z312.000000 E8.902588 F100.000
; P04 POINT 4 point-0000004 deposition
G1 A0.000000 C0.000000 X257.512137 Y242.751050 Z312.000000 E16.296298 F100.000
; P04 POINT 5 point-0000005 deposition
G1 A0.000000 C0.000000 X254.784314 Y240.721539 Z312.000000 E16.805177 F100.000
M400 ; finish queued motion
M2
