; 5AxisSclicer P05 P06 real STEP planar_spiral
; reference XYZAC profile; offline simulation only
G21 ; millimetres
G90 ; absolute axes
M82 ; absolute extrusion
; P05 EVENT event-0000130 finish
; P05 POINT 1 point-0000001 approach
G1 A0.000000 C0.000000 X254.364547 Y240.783156 Z312.000000 F100.000
; P05 POINT 2 point-0000002 deposition
G1 A0.000000 C0.000000 X255.373293 Y239.430018 Z312.009375 E0.252613 F100.000
; P05 POINT 3 point-0000003 deposition
G1 A0.000000 C0.000000 X256.382409 Y238.077159 Z312.018750 E0.505225 F100.000
; P05 POINT 4 point-0000004 deposition
G1 A0.000000 C0.000000 X257.391897 Y236.724579 Z312.028125 E0.757837 F100.000
; P05 POINT 5 point-0000005 deposition
G1 A0.000000 C0.000000 X258.401756 Y235.372278 Z312.037500 E1.010449 F100.000
; P05 POINT 6 point-0000006 deposition
G1 A0.000000 C0.000000 X259.411987 Y234.020256 Z312.046875 E1.263061 F100.000
; P05 POINT 7 point-0000007 deposition
G1 A0.000000 C0.000000 X260.422589 Y232.668513 Z312.056250 E1.515672 F100.000
; P05 POINT 8 point-0000008 deposition
G1 A0.000000 C0.000000 X261.433562 Y231.317049 Z312.065625 E1.768284 F100.000
; P05 POINT 9 point-0000009 deposition
G1 A0.000000 C0.000000 X262.444907 Y229.965864 Z312.075000 E2.020895 F100.000
; P05 POINT 10 point-0000010 deposition
G1 A0.000000 C0.000000 X263.456623 Y228.614958 Z312.084375 E2.273506 F100.000
; P05 POINT 11 point-0000011 deposition
G1 A0.000000 C0.000000 X264.468710 Y227.264330 Z312.093750 E2.526118 F100.000
; P05 POINT 12 point-0000012 deposition
G1 A0.000000 C0.000000 X265.481169 Y225.913982 Z312.103125 E2.778729 F100.000
; P05 POINT 13 point-0000013 deposition
G1 A0.000000 C0.000000 X266.493999 Y224.563913 Z312.112500 E3.031340 F100.000
; P05 POINT 14 point-0000014 deposition
G1 A0.000000 C0.000000 X267.507200 Y223.214122 Z312.121875 E3.283951 F100.000
; P05 POINT 15 point-0000015 deposition
G1 A0.000000 C0.000000 X268.520773 Y221.864611 Z312.131250 E3.536562 F100.000
; P05 POINT 16 point-0000016 deposition
G1 A0.000000 C0.000000 X269.534717 Y220.515378 Z312.140625 E3.789172 F100.000
; P05 POINT 17 point-0000017 deposition
G1 A0.000000 C0.000000 X270.549032 Y219.166424 Z312.150000 E4.041783 F100.000
; P05 POINT 18 point-0000018 deposition
G1 A0.000000 C0.000000 X271.563719 Y217.817750 Z312.159375 E4.294394 F100.000
; P05 POINT 19 point-0000019 deposition
G1 A0.000000 C0.000000 X272.578777 Y216.469354 Z312.168750 E4.547006 F100.000
; P05 POINT 20 point-0000020 deposition
G1 A0.000000 C0.000000 X273.594206 Y215.121237 Z312.178125 E4.799617 F100.000
; P05 POINT 21 point-0000021 deposition
G1 A0.000000 C0.000000 X274.610007 Y213.773399 Z312.187500 E5.052228 F100.000
; P05 POINT 22 point-0000022 deposition
G1 A0.000000 C0.000000 X275.626179 Y212.425840 Z312.196875 E5.304839 F100.000
; P05 POINT 23 point-0000023 deposition
G1 A0.000000 C0.000000 X276.642722 Y211.078560 Z312.206250 E5.557451 F100.000
; P05 POINT 24 point-0000024 deposition
G1 A0.000000 C0.000000 X277.659637 Y209.731559 Z312.215625 E5.810063 F100.000
; P05 POINT 25 point-0000025 deposition
G1 A0.000000 C0.000000 X278.676923 Y208.384837 Z312.225000 E6.062674 F100.000
; P05 POINT 26 point-0000026 deposition
G1 A0.000000 C0.000000 X279.694580 Y207.038394 Z312.234375 E6.315286 F100.000
; P05 POINT 27 point-0000027 deposition
G1 A0.000000 C0.000000 X280.712608 Y205.692230 Z312.243750 E6.567899 F100.000
; P05 POINT 28 point-0000028 deposition
G1 A0.000000 C0.000000 X281.731008 Y204.346344 Z312.253125 E6.820511 F100.000
; P05 POINT 29 point-0000029 deposition
G1 A0.000000 C0.000000 X282.749780 Y203.000738 Z312.262500 E7.073124 F100.000
; P05 POINT 30 point-0000030 deposition
G1 A0.000000 C0.000000 X283.768922 Y201.655411 Z312.271875 E7.325737 F100.000
; P05 POINT 31 point-0000031 deposition
G1 A0.000000 C0.000000 X284.913190 Y201.185386 Z312.281250 E7.510891 F100.000
; P05 POINT 32 point-0000032 deposition
G1 A0.000000 C0.000000 X286.269465 Y202.203243 Z312.290625 E7.764697 F100.000
; P05 POINT 33 point-0000033 deposition
G1 A0.000000 C0.000000 X287.625462 Y203.221472 Z312.300000 E8.018502 F100.000
; P05 POINT 34 point-0000034 deposition
G1 A0.000000 C0.000000 X286.618477 Y204.575932 Z312.309375 E8.271116 F100.000
; P05 POINT 35 point-0000035 deposition
G1 A0.000000 C0.000000 X285.611121 Y205.930113 Z312.318750 E8.523730 F100.000
; P05 POINT 36 point-0000036 deposition
G1 A0.000000 C0.000000 X284.603393 Y207.284015 Z312.328125 E8.776343 F100.000
; P05 POINT 37 point-0000037 deposition
G1 A0.000000 C0.000000 X283.595294 Y208.637639 Z312.337500 E9.028956 F100.000
; P05 POINT 38 point-0000038 deposition
G1 A0.000000 C0.000000 X282.586824 Y209.990983 Z312.346875 E9.281569 F100.000
; P05 POINT 39 point-0000039 deposition
G1 A0.000000 C0.000000 X281.577982 Y211.344049 Z312.356250 E9.534182 F100.000
; P05 POINT 40 point-0000040 deposition
G1 A0.000000 C0.000000 X280.568769 Y212.696835 Z312.365625 E9.786794 F100.000
; P05 POINT 41 point-0000041 deposition
G1 A0.000000 C0.000000 X279.559185 Y214.049343 Z312.375000 E10.039406 F100.000
; P05 POINT 42 point-0000042 deposition
G1 A0.000000 C0.000000 X278.549230 Y215.401571 Z312.384375 E10.292018 F100.000
; P05 POINT 43 point-0000043 deposition
G1 A0.000000 C0.000000 X277.538903 Y216.753521 Z312.393750 E10.544630 F100.000
; P05 POINT 44 point-0000044 deposition
G1 A0.000000 C0.000000 X276.528204 Y218.105192 Z312.403125 E10.797241 F100.000
; P05 POINT 45 point-0000045 deposition
G1 A0.000000 C0.000000 X275.517135 Y219.456583 Z312.412500 E11.049853 F100.000
; P05 POINT 46 point-0000046 deposition
G1 A0.000000 C0.000000 X274.505694 Y220.807696 Z312.421875 E11.302464 F100.000
; P05 POINT 47 point-0000047 deposition
G1 A0.000000 C0.000000 X273.493882 Y222.158530 Z312.431250 E11.555075 F100.000
; P05 POINT 48 point-0000048 deposition
G1 A0.000000 C0.000000 X272.481698 Y223.509085 Z312.440625 E11.807686 F100.000
; P05 POINT 49 point-0000049 deposition
G1 A0.000000 C0.000000 X271.469143 Y224.859361 Z312.450000 E12.060297 F100.000
; P05 POINT 50 point-0000050 deposition
G1 A0.000000 C0.000000 X270.456217 Y226.209358 Z312.459375 E12.312908 F100.000
; P05 POINT 51 point-0000051 deposition
G1 A0.000000 C0.000000 X269.442919 Y227.559076 Z312.468750 E12.565519 F100.000
; P05 POINT 52 point-0000052 deposition
G1 A0.000000 C0.000000 X268.429250 Y228.908516 Z312.478125 E12.818130 F100.000
; P05 POINT 53 point-0000053 deposition
G1 A0.000000 C0.000000 X267.415210 Y230.257676 Z312.487500 E13.070741 F100.000
; P05 POINT 54 point-0000054 deposition
G1 A0.000000 C0.000000 X266.400799 Y231.606557 Z312.496875 E13.323352 F100.000
; P05 POINT 55 point-0000055 deposition
G1 A0.000000 C0.000000 X265.386016 Y232.955160 Z312.506250 E13.575963 F100.000
; P05 POINT 56 point-0000056 deposition
G1 A0.000000 C0.000000 X264.370862 Y234.303483 Z312.515625 E13.828574 F100.000
; P05 POINT 57 point-0000057 deposition
G1 A0.000000 C0.000000 X263.355336 Y235.651528 Z312.525000 E14.081185 F100.000
; P05 POINT 58 point-0000058 deposition
G1 A0.000000 C0.000000 X262.339439 Y236.999293 Z312.534375 E14.333797 F100.000
; P05 POINT 59 point-0000059 deposition
G1 A0.000000 C0.000000 X261.323171 Y238.346780 Z312.543750 E14.586408 F100.000
; P05 POINT 60 point-0000060 deposition
G1 A0.000000 C0.000000 X260.306531 Y239.693987 Z312.553125 E14.839020 F100.000
; P05 POINT 61 point-0000061 deposition
G1 A0.000000 C0.000000 X259.289520 Y241.040916 Z312.562500 E15.091631 F100.000
; P05 POINT 62 point-0000062 deposition
G1 A0.000000 C0.000000 X258.272138 Y242.387566 Z312.571875 E15.344243 F100.000
; P05 POINT 63 point-0000063 deposition
G1 A0.000000 C0.000000 X257.133484 Y242.858366 Z312.581250 E15.528665 F100.000
; P05 POINT 64 point-0000064 deposition
G1 A0.000000 C0.000000 X255.789374 Y241.840352 Z312.590625 E15.781030 F100.000
; P05 POINT 65 point-0000065 deposition
G1 A0.000000 C0.000000 X254.445542 Y240.821968 Z312.600000 E16.033397 F100.000
; P05 POINT 66 point-0000066 deposition
G1 A0.000000 C0.000000 X255.464719 Y239.477010 Z312.600000 E16.285965 F100.000
; P05 POINT 67 point-0000067 deposition
G1 A0.000000 C0.000000 X256.483896 Y238.132053 Z312.600000 E16.538533 F100.000
; P05 POINT 68 point-0000068 deposition
G1 A0.000000 C0.000000 X257.503072 Y236.787095 Z312.600000 E16.791101 F100.000
; P05 POINT 69 point-0000069 deposition
G1 A0.000000 C0.000000 X258.522249 Y235.442138 Z312.600000 E17.043669 F100.000
; P05 POINT 70 point-0000070 deposition
G1 A0.000000 C0.000000 X259.541426 Y234.097180 Z312.600000 E17.296237 F100.000
; P05 POINT 71 point-0000071 deposition
G1 A0.000000 C0.000000 X260.560603 Y232.752222 Z312.600000 E17.548805 F100.000
; P05 POINT 72 point-0000072 deposition
G1 A0.000000 C0.000000 X261.579779 Y231.407265 Z312.600000 E17.801373 F100.000
; P05 POINT 73 point-0000073 deposition
G1 A0.000000 C0.000000 X262.598956 Y230.062307 Z312.600000 E18.053941 F100.000
; P05 POINT 74 point-0000074 deposition
G1 A0.000000 C0.000000 X263.618133 Y228.717350 Z312.600000 E18.306509 F100.000
; P05 POINT 75 point-0000075 deposition
G1 A0.000000 C0.000000 X264.637310 Y227.372392 Z312.600000 E18.559077 F100.000
; P05 POINT 76 point-0000076 deposition
G1 A0.000000 C0.000000 X265.656486 Y226.027435 Z312.600000 E18.811645 F100.000
; P05 POINT 77 point-0000077 deposition
G1 A0.000000 C0.000000 X266.675663 Y224.682477 Z312.600000 E19.064213 F100.000
; P05 POINT 78 point-0000078 deposition
G1 A0.000000 C0.000000 X267.694840 Y223.337519 Z312.600000 E19.316782 F100.000
; P05 POINT 79 point-0000079 deposition
G1 A0.000000 C0.000000 X268.714017 Y221.992562 Z312.600000 E19.569350 F100.000
; P05 POINT 80 point-0000080 deposition
G1 A0.000000 C0.000000 X269.733194 Y220.647604 Z312.600000 E19.821918 F100.000
; P05 POINT 81 point-0000081 deposition
G1 A0.000000 C0.000000 X270.752370 Y219.302647 Z312.600000 E20.074486 F100.000
; P05 POINT 82 point-0000082 deposition
G1 A0.000000 C0.000000 X271.771547 Y217.957689 Z312.600000 E20.327054 F100.000
; P05 POINT 83 point-0000083 deposition
G1 A0.000000 C0.000000 X272.790724 Y216.612732 Z312.600000 E20.579622 F100.000
; P05 POINT 84 point-0000084 deposition
G1 A0.000000 C0.000000 X273.809901 Y215.267774 Z312.600000 E20.832190 F100.000
; P05 POINT 85 point-0000085 deposition
G1 A0.000000 C0.000000 X274.829077 Y213.922816 Z312.600000 E21.084758 F100.000
; P05 POINT 86 point-0000086 deposition
G1 A0.000000 C0.000000 X275.848254 Y212.577859 Z312.600000 E21.337326 F100.000
; P05 POINT 87 point-0000087 deposition
G1 A0.000000 C0.000000 X276.867431 Y211.232901 Z312.600000 E21.589894 F100.000
; P05 POINT 88 point-0000088 deposition
G1 A0.000000 C0.000000 X277.886608 Y209.887944 Z312.600000 E21.842462 F100.000
; P05 POINT 89 point-0000089 deposition
G1 A0.000000 C0.000000 X278.905784 Y208.542986 Z312.600000 E22.095030 F100.000
; P05 POINT 90 point-0000090 deposition
G1 A0.000000 C0.000000 X279.924961 Y207.198029 Z312.600000 E22.347599 F100.000
; P05 POINT 91 point-0000091 deposition
G1 A0.000000 C0.000000 X280.944138 Y205.853071 Z312.600000 E22.600167 F100.000
; P05 POINT 92 point-0000092 deposition
G1 A0.000000 C0.000000 X281.963315 Y204.508113 Z312.600000 E22.852735 F100.000
; P05 POINT 93 point-0000093 deposition
G1 A0.000000 C0.000000 X282.982491 Y203.163156 Z312.600000 E23.105303 F100.000
; P05 POINT 94 point-0000094 deposition
G1 A0.000000 C0.000000 X284.001668 Y201.818198 Z312.600000 E23.357871 F100.000
; P05 POINT 95 point-0000095 deposition
G1 A0.000000 C0.000000 X285.141504 Y201.348846 Z312.600000 E23.542368 F100.000
; P05 POINT 96 point-0000096 deposition
G1 A0.000000 C0.000000 X286.486462 Y202.368023 Z312.600000 E23.794936 F100.000
; P05 POINT 97 point-0000097 deposition
G1 A0.000000 C0.000000 X287.831420 Y203.387200 Z312.600000 E24.047504 F100.000
; P05 POINT 98 point-0000098 deposition
G1 A0.000000 C0.000000 X286.812243 Y204.732157 Z312.600000 E24.300072 F100.000
; P05 POINT 99 point-0000099 deposition
G1 A0.000000 C0.000000 X285.793066 Y206.077115 Z312.600000 E24.552640 F100.000
; P05 POINT 100 point-0000100 deposition
G1 A0.000000 C0.000000 X284.773889 Y207.422072 Z312.600000 E24.805208 F100.000
; P05 POINT 101 point-0000101 deposition
G1 A0.000000 C0.000000 X283.754713 Y208.767030 Z312.600000 E25.057776 F100.000
; P05 POINT 102 point-0000102 deposition
G1 A0.000000 C0.000000 X282.735536 Y210.111987 Z312.600000 E25.310344 F100.000
; P05 POINT 103 point-0000103 deposition
G1 A0.000000 C0.000000 X281.716359 Y211.456945 Z312.600000 E25.562913 F100.000
; P05 POINT 104 point-0000104 deposition
G1 A0.000000 C0.000000 X280.697182 Y212.801903 Z312.600000 E25.815481 F100.000
; P05 POINT 105 point-0000105 deposition
G1 A0.000000 C0.000000 X279.678006 Y214.146860 Z312.600000 E26.068049 F100.000
; P05 POINT 106 point-0000106 deposition
G1 A0.000000 C0.000000 X278.658829 Y215.491818 Z312.600000 E26.320617 F100.000
; P05 POINT 107 point-0000107 deposition
G1 A0.000000 C0.000000 X277.639652 Y216.836775 Z312.600000 E26.573185 F100.000
; P05 POINT 108 point-0000108 deposition
G1 A0.000000 C0.000000 X276.620475 Y218.181733 Z312.600000 E26.825753 F100.000
; P05 POINT 109 point-0000109 deposition
G1 A0.000000 C0.000000 X275.601298 Y219.526690 Z312.600000 E27.078321 F100.000
; P05 POINT 110 point-0000110 deposition
G1 A0.000000 C0.000000 X274.582122 Y220.871648 Z312.600000 E27.330889 F100.000
; P05 POINT 111 point-0000111 deposition
G1 A0.000000 C0.000000 X273.562945 Y222.216606 Z312.600000 E27.583457 F100.000
; P05 POINT 112 point-0000112 deposition
G1 A0.000000 C0.000000 X272.543768 Y223.561563 Z312.600000 E27.836025 F100.000
; P05 POINT 113 point-0000113 deposition
G1 A0.000000 C0.000000 X271.524591 Y224.906521 Z312.600000 E28.088593 F100.000
; P05 POINT 114 point-0000114 deposition
G1 A0.000000 C0.000000 X270.505415 Y226.251478 Z312.600000 E28.341161 F100.000
; P05 POINT 115 point-0000115 deposition
G1 A0.000000 C0.000000 X269.486238 Y227.596436 Z312.600000 E28.593730 F100.000
; P05 POINT 116 point-0000116 deposition
G1 A0.000000 C0.000000 X268.467061 Y228.941393 Z312.600000 E28.846298 F100.000
; P05 POINT 117 point-0000117 deposition
G1 A0.000000 C0.000000 X267.447884 Y230.286351 Z312.600000 E29.098866 F100.000
; P05 POINT 118 point-0000118 deposition
G1 A0.000000 C0.000000 X266.428708 Y231.631309 Z312.600000 E29.351434 F100.000
; P05 POINT 119 point-0000119 deposition
G1 A0.000000 C0.000000 X265.409531 Y232.976266 Z312.600000 E29.604002 F100.000
; P05 POINT 120 point-0000120 deposition
G1 A0.000000 C0.000000 X264.390354 Y234.321224 Z312.600000 E29.856570 F100.000
; P05 POINT 121 point-0000121 deposition
G1 A0.000000 C0.000000 X263.371177 Y235.666181 Z312.600000 E30.109138 F100.000
; P05 POINT 122 point-0000122 deposition
G1 A0.000000 C0.000000 X262.352001 Y237.011139 Z312.600000 E30.361706 F100.000
; P05 POINT 123 point-0000123 deposition
G1 A0.000000 C0.000000 X261.332824 Y238.356096 Z312.600000 E30.614274 F100.000
; P05 POINT 124 point-0000124 deposition
G1 A0.000000 C0.000000 X260.313647 Y239.701054 Z312.600000 E30.866842 F100.000
; P05 POINT 125 point-0000125 deposition
G1 A0.000000 C0.000000 X259.294470 Y241.046012 Z312.600000 E31.119410 F100.000
; P05 POINT 126 point-0000126 deposition
G1 A0.000000 C0.000000 X258.275294 Y242.390969 Z312.600000 E31.371978 F100.000
; P05 POINT 127 point-0000127 deposition
G1 A0.000000 C0.000000 X257.135458 Y242.860321 Z312.600000 E31.556475 F100.000
; P05 POINT 128 point-0000128 deposition
G1 A0.000000 C0.000000 X255.790501 Y241.841144 Z312.600000 E31.809044 F100.000
; P05 POINT 129 point-0000129 deposition
G1 A0.000000 C0.000000 X254.445542 Y240.821968 Z312.600000 E32.061612 F100.000
M400 ; finish queued motion
M2
