; 5AxisSclicer T08 Tube Thin-Wall Indexed
; reference XYZAC profile; offline simulation only
G21 ; millimetres
G90 ; absolute axes
M82 ; absolute extrusion
G92 E0 ; known initial extrusion position
; P02 POINT 1 point-0000001 approach
G1 A0.000000 C0.000000 X250.000000 Y256.000000 Z252.500000 F100.000000
; P02 EVENT event-0000001 prime
G1 E1.0 F100.000000
; P02 POINT 2 point-0000002 deposition
G1 A0.000000 C0.000000 X250.000000 Y255.906250 Z252.500000 E1.011693016227159658 F100.000000
; P02 POINT 3 point-0000003 deposition
G1 A0.000000 C0.000000 X250.000000 Y255.812500 Z252.500000 E1.023386032454319316 F100.000000
; P02 POINT 4 point-0000004 deposition
G1 A0.000000 C0.000000 X250.000000 Y255.718750 Z252.500000 E1.035079048681478974 F100.000000
; P02 POINT 5 point-0000005 deposition
G1 A0.000000 C0.000000 X250.000000 Y255.625000 Z252.500000 E1.046772064908638632 F100.000000
; P02 POINT 6 point-0000006 deposition
G1 A0.000000 C0.000000 X250.000000 Y255.531250 Z252.500000 E1.058465081135798290 F100.000000
; P02 POINT 7 point-0000007 deposition
G1 A0.000000 C0.000000 X250.000000 Y255.437500 Z252.500000 E1.070158097362957948 F100.000000
; P02 POINT 8 point-0000008 deposition
G1 A0.000000 C0.000000 X250.000000 Y255.343750 Z252.500000 E1.081851113590117606 F100.000000
; P02 POINT 9 point-0000009 deposition
G1 A0.000000 C0.000000 X250.000000 Y255.250000 Z252.500000 E1.093544129817277264 F100.000000
; P02 POINT 10 point-0000010 deposition
G1 A0.000000 C0.000000 X250.000000 Y255.156250 Z252.500000 E1.105237146044436922 F100.000000
; P02 POINT 11 point-0000011 deposition
G1 A0.000000 C0.000000 X250.000000 Y255.062500 Z252.500000 E1.116930162271596580 F100.000000
; P02 POINT 12 point-0000012 deposition
G1 A0.000000 C0.000000 X250.000000 Y254.968750 Z252.500000 E1.128623178498756238 F100.000000
; P02 POINT 13 point-0000013 deposition
G1 A0.000000 C0.000000 X250.000000 Y254.875000 Z252.500000 E1.140316194725915896 F100.000000
; P02 POINT 14 point-0000014 deposition
G1 A0.000000 C0.000000 X250.000000 Y254.781250 Z252.500000 E1.152009210953075554 F100.000000
; P02 POINT 15 point-0000015 deposition
G1 A0.000000 C0.000000 X250.000000 Y254.687500 Z252.500000 E1.163702227180235212 F100.000000
; P02 POINT 16 point-0000016 deposition
G1 A0.000000 C0.000000 X250.000000 Y254.593750 Z252.500000 E1.175395243407394870 F100.000000
; P02 POINT 17 point-0000017 deposition
G1 A0.000000 C0.000000 X250.000000 Y254.500000 Z252.500000 E1.187088259634554528 F100.000000
; P02 POINT 18 point-0000018 deposition
G1 A0.000000 C0.000000 X250.000000 Y254.406250 Z252.500000 E1.198781275861714186 F100.000000
; P02 POINT 19 point-0000019 deposition
G1 A0.000000 C0.000000 X250.000000 Y254.312500 Z252.500000 E1.210474292088873844 F100.000000
; P02 POINT 20 point-0000020 deposition
G1 A0.000000 C0.000000 X250.000000 Y254.218750 Z252.500000 E1.222167308316033502 F100.000000
; P02 POINT 21 point-0000021 deposition
G1 A0.000000 C0.000000 X250.000000 Y254.125000 Z252.500000 E1.233860324543193160 F100.000000
; P02 POINT 22 point-0000022 deposition
G1 A0.000000 C0.000000 X250.000000 Y254.031250 Z252.500000 E1.245553340770352818 F100.000000
; P02 POINT 23 point-0000023 deposition
G1 A0.000000 C0.000000 X250.000000 Y253.937500 Z252.500000 E1.257246356997512476 F100.000000
; P02 POINT 24 point-0000024 deposition
G1 A0.000000 C0.000000 X250.000000 Y253.843750 Z252.500000 E1.268939373224672134 F100.000000
; P02 POINT 25 point-0000025 deposition
G1 A0.000000 C0.000000 X250.000000 Y253.750000 Z252.500000 E1.280632389451831792 F100.000000
; P02 POINT 26 point-0000026 deposition
G1 A0.000000 C0.000000 X250.000000 Y253.656250 Z252.500000 E1.292325405678991450 F100.000000
; P02 POINT 27 point-0000027 deposition
G1 A0.000000 C0.000000 X250.000000 Y253.562500 Z252.500000 E1.304018421906151108 F100.000000
; P02 POINT 28 point-0000028 deposition
G1 A0.000000 C0.000000 X250.000000 Y253.468750 Z252.500000 E1.315711438133310766 F100.000000
; P02 POINT 29 point-0000029 deposition
G1 A0.000000 C0.000000 X250.000000 Y253.375000 Z252.500000 E1.327404454360470424 F100.000000
; P02 POINT 30 point-0000030 deposition
G1 A0.000000 C0.000000 X250.000000 Y253.281250 Z252.500000 E1.339097470587630082 F100.000000
; P02 POINT 31 point-0000031 deposition
G1 A0.000000 C0.000000 X250.000000 Y253.187500 Z252.500000 E1.350790486814789740 F100.000000
; P02 POINT 32 point-0000032 deposition
G1 A0.000000 C0.000000 X250.000000 Y253.093750 Z252.500000 E1.362483503041949398 F100.000000
; P02 POINT 33 point-0000033 deposition
G1 A0.000000 C0.000000 X250.000000 Y253.000000 Z252.500000 E1.374176519269109056 F100.000000
; P02 POINT 34 point-0000034 deposition
G1 A0.000000 C0.000000 X250.000000 Y252.906250 Z252.500000 E1.385869535496268714 F100.000000
; P02 POINT 35 point-0000035 deposition
G1 A0.000000 C0.000000 X250.000000 Y252.812500 Z252.500000 E1.397562551723428372 F100.000000
; P02 POINT 36 point-0000036 deposition
G1 A0.000000 C0.000000 X250.000000 Y252.718750 Z252.500000 E1.409255567950588030 F100.000000
; P02 POINT 37 point-0000037 deposition
G1 A0.000000 C0.000000 X250.000000 Y252.625000 Z252.500000 E1.420948584177747688 F100.000000
; P02 POINT 38 point-0000038 deposition
G1 A0.000000 C0.000000 X250.000000 Y252.531250 Z252.500000 E1.432641600404907346 F100.000000
; P02 POINT 39 point-0000039 deposition
G1 A0.000000 C0.000000 X250.000000 Y252.437500 Z252.500000 E1.444334616632067004 F100.000000
; P02 POINT 40 point-0000040 deposition
G1 A0.000000 C0.000000 X250.000000 Y252.343750 Z252.500000 E1.456027632859226662 F100.000000
; P02 POINT 41 point-0000041 deposition
G1 A0.000000 C0.000000 X250.000000 Y252.250000 Z252.500000 E1.467720649086386320 F100.000000
; P02 POINT 42 point-0000042 deposition
G1 A0.000000 C0.000000 X250.000000 Y252.156250 Z252.500000 E1.479413665313545978 F100.000000
; P02 POINT 43 point-0000043 deposition
G1 A0.000000 C0.000000 X250.000000 Y252.062500 Z252.500000 E1.491106681540705636 F100.000000
; P02 POINT 44 point-0000044 deposition
G1 A0.000000 C0.000000 X250.000000 Y251.968750 Z252.500000 E1.502799697767865294 F100.000000
; P02 POINT 45 point-0000045 deposition
G1 A0.000000 C0.000000 X250.000000 Y251.875000 Z252.500000 E1.514492713995024952 F100.000000
; P02 POINT 46 point-0000046 deposition
G1 A0.000000 C0.000000 X250.000000 Y251.781250 Z252.500000 E1.526185730222184610 F100.000000
; P02 POINT 47 point-0000047 deposition
G1 A0.000000 C0.000000 X250.000000 Y251.687500 Z252.500000 E1.537878746449344268 F100.000000
; P02 POINT 48 point-0000048 deposition
G1 A0.000000 C0.000000 X250.000000 Y251.593750 Z252.500000 E1.549571762676503926 F100.000000
; P02 POINT 49 point-0000049 deposition
G1 A0.000000 C0.000000 X250.000000 Y251.500000 Z252.500000 E1.561264778903663584 F100.000000
; P02 POINT 50 point-0000050 deposition
G1 A0.000000 C0.000000 X250.000000 Y251.406250 Z252.500000 E1.572957795130823242 F100.000000
; P02 POINT 51 point-0000051 deposition
G1 A0.000000 C0.000000 X250.000000 Y251.312500 Z252.500000 E1.584650811357982900 F100.000000
; P02 POINT 52 point-0000052 deposition
G1 A0.000000 C0.000000 X250.000000 Y251.218750 Z252.500000 E1.596343827585142558 F100.000000
; P02 POINT 53 point-0000053 deposition
G1 A0.000000 C0.000000 X250.000000 Y251.125000 Z252.500000 E1.608036843812302216 F100.000000
; P02 POINT 54 point-0000054 deposition
G1 A0.000000 C0.000000 X250.000000 Y251.031250 Z252.500000 E1.619729860039461874 F100.000000
; P02 POINT 55 point-0000055 deposition
G1 A0.000000 C0.000000 X250.000000 Y250.937500 Z252.500000 E1.631422876266621532 F100.000000
; P02 POINT 56 point-0000056 deposition
G1 A0.000000 C0.000000 X250.000000 Y250.843750 Z252.500000 E1.643115892493781190 F100.000000
; P02 POINT 57 point-0000057 deposition
G1 A0.000000 C0.000000 X250.000000 Y250.750000 Z252.500000 E1.654808908720940848 F100.000000
; P02 POINT 58 point-0000058 deposition
G1 A0.000000 C0.000000 X250.000000 Y250.656250 Z252.500000 E1.666501924948100506 F100.000000
; P02 POINT 59 point-0000059 deposition
G1 A0.000000 C0.000000 X250.000000 Y250.562500 Z252.500000 E1.678194941175260164 F100.000000
; P02 POINT 60 point-0000060 deposition
G1 A0.000000 C0.000000 X250.000000 Y250.468750 Z252.500000 E1.689887957402419822 F100.000000
; P02 POINT 61 point-0000061 deposition
G1 A0.000000 C0.000000 X250.000000 Y250.375000 Z252.500000 E1.701580973629579480 F100.000000
; P02 POINT 62 point-0000062 deposition
G1 A0.000000 C0.000000 X250.000000 Y250.281250 Z252.500000 E1.713273989856739138 F100.000000
; P02 POINT 63 point-0000063 deposition
G1 A0.000000 C0.000000 X250.000000 Y250.187500 Z252.500000 E1.724967006083898796 F100.000000
; P02 POINT 64 point-0000064 deposition
G1 A0.000000 C0.000000 X250.000000 Y250.093750 Z252.500000 E1.736660022311058454 F100.000000
; P02 POINT 65 point-0000065 deposition
G1 A0.000000 C0.000000 X250.000000 Y250.000000 Z252.500000 E1.748353038538218112 F100.000000
; P02 POINT 66 point-0000066 deposition
G1 A0.000000 C0.000000 X250.125000 Y250.000000 Z252.500000 E1.763943726841097656 F100.000000
; P02 POINT 67 point-0000067 deposition
G1 A0.000000 C0.000000 X250.250000 Y250.000000 Z252.500000 E1.779534415143977200 F100.000000
; P02 POINT 68 point-0000068 deposition
G1 A0.000000 C0.000000 X250.375000 Y250.000000 Z252.500000 E1.795125103446856744 F100.000000
; P02 POINT 69 point-0000069 deposition
G1 A0.000000 C0.000000 X250.500000 Y250.000000 Z252.500000 E1.810715791749736288 F100.000000
; P02 POINT 70 point-0000070 deposition
G1 A0.000000 C0.000000 X250.625000 Y250.000000 Z252.500000 E1.826306480052615832 F100.000000
; P02 POINT 71 point-0000071 deposition
G1 A0.000000 C0.000000 X250.750000 Y250.000000 Z252.500000 E1.841897168355495376 F100.000000
; P02 POINT 72 point-0000072 deposition
G1 A0.000000 C0.000000 X250.875000 Y250.000000 Z252.500000 E1.857487856658374920 F100.000000
; P02 POINT 73 point-0000073 deposition
G1 A0.000000 C0.000000 X251.000000 Y250.000000 Z252.500000 E1.873078544961254464 F100.000000
; P02 POINT 74 point-0000074 deposition
G1 A0.000000 C0.000000 X251.125000 Y250.000000 Z252.500000 E1.888669233264134008 F100.000000
; P02 POINT 75 point-0000075 deposition
G1 A0.000000 C0.000000 X251.250000 Y250.000000 Z252.500000 E1.904259921567013552 F100.000000
; P02 POINT 76 point-0000076 deposition
G1 A0.000000 C0.000000 X251.375000 Y250.000000 Z252.500000 E1.919850609869893096 F100.000000
; P02 POINT 77 point-0000077 deposition
G1 A0.000000 C0.000000 X251.500000 Y250.000000 Z252.500000 E1.935441298172772640 F100.000000
; P02 POINT 78 point-0000078 deposition
G1 A0.000000 C0.000000 X251.625000 Y250.000000 Z252.500000 E1.951031986475652184 F100.000000
; P02 POINT 79 point-0000079 deposition
G1 A0.000000 C0.000000 X251.750000 Y250.000000 Z252.500000 E1.966622674778531728 F100.000000
; P02 POINT 80 point-0000080 deposition
G1 A0.000000 C0.000000 X251.875000 Y250.000000 Z252.500000 E1.982213363081411272 F100.000000
; P02 POINT 81 point-0000081 deposition
G1 A0.000000 C0.000000 X252.000000 Y250.000000 Z252.500000 E1.997804051384290816 F100.000000
; P02 POINT 82 point-0000082 deposition
G1 A0.000000 C0.000000 X252.125000 Y250.000000 Z252.500000 E2.013394739687170360 F100.000000
; P02 POINT 83 point-0000083 deposition
G1 A0.000000 C0.000000 X252.250000 Y250.000000 Z252.500000 E2.028985427990049904 F100.000000
; P02 POINT 84 point-0000084 deposition
G1 A0.000000 C0.000000 X252.375000 Y250.000000 Z252.500000 E2.044576116292929448 F100.000000
; P02 POINT 85 point-0000085 deposition
G1 A0.000000 C0.000000 X252.500000 Y250.000000 Z252.500000 E2.060166804595808992 F100.000000
; P02 POINT 86 point-0000086 deposition
G1 A0.000000 C0.000000 X252.625000 Y250.000000 Z252.500000 E2.075757492898688536 F100.000000
; P02 POINT 87 point-0000087 deposition
G1 A0.000000 C0.000000 X252.750000 Y250.000000 Z252.500000 E2.091348181201568080 F100.000000
; P02 POINT 88 point-0000088 deposition
G1 A0.000000 C0.000000 X252.875000 Y250.000000 Z252.500000 E2.106938869504447624 F100.000000
; P02 POINT 89 point-0000089 deposition
G1 A0.000000 C0.000000 X253.000000 Y250.000000 Z252.500000 E2.122529557807327168 F100.000000
; P02 POINT 90 point-0000090 deposition
G1 A0.000000 C0.000000 X253.125000 Y250.000000 Z252.500000 E2.138120246110206712 F100.000000
; P02 POINT 91 point-0000091 deposition
G1 A0.000000 C0.000000 X253.250000 Y250.000000 Z252.500000 E2.153710934413086256 F100.000000
; P02 POINT 92 point-0000092 deposition
G1 A0.000000 C0.000000 X253.375000 Y250.000000 Z252.500000 E2.169301622715965800 F100.000000
; P02 POINT 93 point-0000093 deposition
G1 A0.000000 C0.000000 X253.500000 Y250.000000 Z252.500000 E2.184892311018845344 F100.000000
; P02 POINT 94 point-0000094 deposition
G1 A0.000000 C0.000000 X253.625000 Y250.000000 Z252.500000 E2.200482999321724888 F100.000000
; P02 POINT 95 point-0000095 deposition
G1 A0.000000 C0.000000 X253.750000 Y250.000000 Z252.500000 E2.216073687624604432 F100.000000
; P02 POINT 96 point-0000096 deposition
G1 A0.000000 C0.000000 X253.875000 Y250.000000 Z252.500000 E2.231664375927483976 F100.000000
; P02 POINT 97 point-0000097 deposition
G1 A0.000000 C0.000000 X254.000000 Y250.000000 Z252.500000 E2.247255064230363520 F100.000000
; P02 POINT 98 point-0000098 deposition
G1 A0.000000 C0.000000 X254.125000 Y250.000000 Z252.500000 E2.262845752533243064 F100.000000
; P02 POINT 99 point-0000099 deposition
G1 A0.000000 C0.000000 X254.250000 Y250.000000 Z252.500000 E2.278436440836122608 F100.000000
; P02 POINT 100 point-0000100 deposition
G1 A0.000000 C0.000000 X254.375000 Y250.000000 Z252.500000 E2.294027129139002152 F100.000000
; P02 POINT 101 point-0000101 deposition
G1 A0.000000 C0.000000 X254.500000 Y250.000000 Z252.500000 E2.309617817441881696 F100.000000
; P02 POINT 102 point-0000102 deposition
G1 A0.000000 C0.000000 X254.625000 Y250.000000 Z252.500000 E2.325208505744761240 F100.000000
; P02 POINT 103 point-0000103 deposition
G1 A0.000000 C0.000000 X254.750000 Y250.000000 Z252.500000 E2.340799194047640784 F100.000000
; P02 POINT 104 point-0000104 deposition
G1 A0.000000 C0.000000 X254.875000 Y250.000000 Z252.500000 E2.356389882350520328 F100.000000
; P02 POINT 105 point-0000105 deposition
G1 A0.000000 C0.000000 X255.000000 Y250.000000 Z252.500000 E2.371980570653399872 F100.000000
; P02 POINT 106 point-0000106 deposition
G1 A0.000000 C0.000000 X255.125000 Y250.000000 Z252.500000 E2.387571258956279416 F100.000000
; P02 POINT 107 point-0000107 deposition
G1 A0.000000 C0.000000 X255.250000 Y250.000000 Z252.500000 E2.403161947259158960 F100.000000
; P02 POINT 108 point-0000108 deposition
G1 A0.000000 C0.000000 X255.375000 Y250.000000 Z252.500000 E2.418752635562038504 F100.000000
; P02 POINT 109 point-0000109 deposition
G1 A0.000000 C0.000000 X255.500000 Y250.000000 Z252.500000 E2.434343323864918048 F100.000000
; P02 POINT 110 point-0000110 deposition
G1 A0.000000 C0.000000 X255.625000 Y250.000000 Z252.500000 E2.449934012167797592 F100.000000
; P02 POINT 111 point-0000111 deposition
G1 A0.000000 C0.000000 X255.750000 Y250.000000 Z252.500000 E2.465524700470677136 F100.000000
; P02 POINT 112 point-0000112 deposition
G1 A0.000000 C0.000000 X255.875000 Y250.000000 Z252.500000 E2.481115388773556680 F100.000000
; P02 POINT 113 point-0000113 deposition
G1 A0.000000 C0.000000 X256.000000 Y250.000000 Z252.500000 E2.496706077076436224 F100.000000
; P02 POINT 114 point-0000114 deposition
G1 A0.000000 C0.000000 X256.125000 Y250.000000 Z252.500000 E2.512296765379315768 F100.000000
; P02 POINT 115 point-0000115 deposition
G1 A0.000000 C0.000000 X256.250000 Y250.000000 Z252.500000 E2.527887453682195312 F100.000000
; P02 POINT 116 point-0000116 deposition
G1 A0.000000 C0.000000 X256.375000 Y250.000000 Z252.500000 E2.543478141985074856 F100.000000
; P02 POINT 117 point-0000117 deposition
G1 A0.000000 C0.000000 X256.500000 Y250.000000 Z252.500000 E2.559068830287954400 F100.000000
; P02 POINT 118 point-0000118 deposition
G1 A0.000000 C0.000000 X256.625000 Y250.000000 Z252.500000 E2.574659518590833944 F100.000000
; P02 POINT 119 point-0000119 deposition
G1 A0.000000 C0.000000 X256.750000 Y250.000000 Z252.500000 E2.590250206893713488 F100.000000
; P02 POINT 120 point-0000120 deposition
G1 A0.000000 C0.000000 X256.875000 Y250.000000 Z252.500000 E2.605840895196593032 F100.000000
; P02 POINT 121 point-0000121 deposition
G1 A0.000000 C0.000000 X257.000000 Y250.000000 Z252.500000 E2.621431583499472576 F100.000000
; P02 POINT 122 point-0000122 deposition
G1 A0.000000 C0.000000 X257.125000 Y250.000000 Z252.500000 E2.637022271802352120 F100.000000
; P02 POINT 123 point-0000123 deposition
G1 A0.000000 C0.000000 X257.250000 Y250.000000 Z252.500000 E2.652612960105231664 F100.000000
; P02 POINT 124 point-0000124 deposition
G1 A0.000000 C0.000000 X257.375000 Y250.000000 Z252.500000 E2.668203648408111208 F100.000000
; P02 POINT 125 point-0000125 deposition
G1 A0.000000 C0.000000 X257.500000 Y250.000000 Z252.500000 E2.683794336710990752 F100.000000
; P02 POINT 126 point-0000126 deposition
G1 A0.000000 C0.000000 X257.625000 Y250.000000 Z252.500000 E2.699385025013870296 F100.000000
; P02 POINT 127 point-0000127 deposition
G1 A0.000000 C0.000000 X257.750000 Y250.000000 Z252.500000 E2.714975713316749840 F100.000000
; P02 POINT 128 point-0000128 deposition
G1 A0.000000 C0.000000 X257.875000 Y250.000000 Z252.500000 E2.730566401619629384 F100.000000
; P02 POINT 129 point-0000129 deposition
G1 A0.000000 C0.000000 X258.000000 Y250.000000 Z252.500000 E2.746157089922508928 F100.000000
; P02 POINT 130 point-0000130 deposition
G1 A0.000000 C0.000000 X258.000000 Y250.093750 Z252.500000 E2.757850106149668586 F100.000000
; P02 POINT 131 point-0000131 deposition
G1 A0.000000 C0.000000 X258.000000 Y250.187500 Z252.500000 E2.769543122376828244 F100.000000
; P02 POINT 132 point-0000132 deposition
G1 A0.000000 C0.000000 X258.000000 Y250.281250 Z252.500000 E2.781236138603987902 F100.000000
; P02 POINT 133 point-0000133 deposition
G1 A0.000000 C0.000000 X258.000000 Y250.375000 Z252.500000 E2.792929154831147560 F100.000000
; P02 POINT 134 point-0000134 deposition
G1 A0.000000 C0.000000 X258.000000 Y250.468750 Z252.500000 E2.804622171058307218 F100.000000
; P02 POINT 135 point-0000135 deposition
G1 A0.000000 C0.000000 X258.000000 Y250.562500 Z252.500000 E2.816315187285466876 F100.000000
; P02 POINT 136 point-0000136 deposition
G1 A0.000000 C0.000000 X258.000000 Y250.656250 Z252.500000 E2.828008203512626534 F100.000000
; P02 POINT 137 point-0000137 deposition
G1 A0.000000 C0.000000 X258.000000 Y250.750000 Z252.500000 E2.839701219739786192 F100.000000
; P02 POINT 138 point-0000138 deposition
G1 A0.000000 C0.000000 X258.000000 Y250.843750 Z252.500000 E2.851394235966945850 F100.000000
; P02 POINT 139 point-0000139 deposition
G1 A0.000000 C0.000000 X258.000000 Y250.937500 Z252.500000 E2.863087252194105508 F100.000000
; P02 POINT 140 point-0000140 deposition
G1 A0.000000 C0.000000 X258.000000 Y251.031250 Z252.500000 E2.874780268421265166 F100.000000
; P02 POINT 141 point-0000141 deposition
G1 A0.000000 C0.000000 X258.000000 Y251.125000 Z252.500000 E2.886473284648424824 F100.000000
; P02 POINT 142 point-0000142 deposition
G1 A0.000000 C0.000000 X258.000000 Y251.218750 Z252.500000 E2.898166300875584482 F100.000000
; P02 POINT 143 point-0000143 deposition
G1 A0.000000 C0.000000 X258.000000 Y251.312500 Z252.500000 E2.909859317102744140 F100.000000
; P02 POINT 144 point-0000144 deposition
G1 A0.000000 C0.000000 X258.000000 Y251.406250 Z252.500000 E2.921552333329903798 F100.000000
; P02 POINT 145 point-0000145 deposition
G1 A0.000000 C0.000000 X258.000000 Y251.500000 Z252.500000 E2.933245349557063456 F100.000000
; P02 POINT 146 point-0000146 deposition
G1 A0.000000 C0.000000 X258.000000 Y251.593750 Z252.500000 E2.944938365784223114 F100.000000
; P02 POINT 147 point-0000147 deposition
G1 A0.000000 C0.000000 X258.000000 Y251.687500 Z252.500000 E2.956631382011382772 F100.000000
; P02 POINT 148 point-0000148 deposition
G1 A0.000000 C0.000000 X258.000000 Y251.781250 Z252.500000 E2.968324398238542430 F100.000000
; P02 POINT 149 point-0000149 deposition
G1 A0.000000 C0.000000 X258.000000 Y251.875000 Z252.500000 E2.980017414465702088 F100.000000
; P02 POINT 150 point-0000150 deposition
G1 A0.000000 C0.000000 X258.000000 Y251.968750 Z252.500000 E2.991710430692861746 F100.000000
; P02 POINT 151 point-0000151 deposition
G1 A0.000000 C0.000000 X258.000000 Y252.062500 Z252.500000 E3.003403446920021404 F100.000000
; P02 POINT 152 point-0000152 deposition
G1 A0.000000 C0.000000 X258.000000 Y252.156250 Z252.500000 E3.015096463147181062 F100.000000
; P02 POINT 153 point-0000153 deposition
G1 A0.000000 C0.000000 X258.000000 Y252.250000 Z252.500000 E3.026789479374340720 F100.000000
; P02 POINT 154 point-0000154 deposition
G1 A0.000000 C0.000000 X258.000000 Y252.343750 Z252.500000 E3.038482495601500378 F100.000000
; P02 POINT 155 point-0000155 deposition
G1 A0.000000 C0.000000 X258.000000 Y252.437500 Z252.500000 E3.050175511828660036 F100.000000
; P02 POINT 156 point-0000156 deposition
G1 A0.000000 C0.000000 X258.000000 Y252.531250 Z252.500000 E3.061868528055819694 F100.000000
; P02 POINT 157 point-0000157 deposition
G1 A0.000000 C0.000000 X258.000000 Y252.625000 Z252.500000 E3.073561544282979352 F100.000000
; P02 POINT 158 point-0000158 deposition
G1 A0.000000 C0.000000 X258.000000 Y252.718750 Z252.500000 E3.085254560510139010 F100.000000
; P02 POINT 159 point-0000159 deposition
G1 A0.000000 C0.000000 X258.000000 Y252.812500 Z252.500000 E3.096947576737298668 F100.000000
; P02 POINT 160 point-0000160 deposition
G1 A0.000000 C0.000000 X258.000000 Y252.906250 Z252.500000 E3.108640592964458326 F100.000000
; P02 POINT 161 point-0000161 deposition
G1 A0.000000 C0.000000 X258.000000 Y253.000000 Z252.500000 E3.120333609191617984 F100.000000
; P02 POINT 162 point-0000162 deposition
G1 A0.000000 C0.000000 X258.000000 Y253.093750 Z252.500000 E3.132026625418777642 F100.000000
; P02 POINT 163 point-0000163 deposition
G1 A0.000000 C0.000000 X258.000000 Y253.187500 Z252.500000 E3.143719641645937300 F100.000000
; P02 POINT 164 point-0000164 deposition
G1 A0.000000 C0.000000 X258.000000 Y253.281250 Z252.500000 E3.155412657873096958 F100.000000
; P02 POINT 165 point-0000165 deposition
G1 A0.000000 C0.000000 X258.000000 Y253.375000 Z252.500000 E3.167105674100256616 F100.000000
; P02 POINT 166 point-0000166 deposition
G1 A0.000000 C0.000000 X258.000000 Y253.468750 Z252.500000 E3.178798690327416274 F100.000000
; P02 POINT 167 point-0000167 deposition
G1 A0.000000 C0.000000 X258.000000 Y253.562500 Z252.500000 E3.190491706554575932 F100.000000
; P02 POINT 168 point-0000168 deposition
G1 A0.000000 C0.000000 X258.000000 Y253.656250 Z252.500000 E3.202184722781735590 F100.000000
; P02 POINT 169 point-0000169 deposition
G1 A0.000000 C0.000000 X258.000000 Y253.750000 Z252.500000 E3.213877739008895248 F100.000000
; P02 POINT 170 point-0000170 deposition
G1 A0.000000 C0.000000 X258.000000 Y253.843750 Z252.500000 E3.225570755236054906 F100.000000
; P02 POINT 171 point-0000171 deposition
G1 A0.000000 C0.000000 X258.000000 Y253.937500 Z252.500000 E3.237263771463214564 F100.000000
; P02 POINT 172 point-0000172 deposition
G1 A0.000000 C0.000000 X258.000000 Y254.031250 Z252.500000 E3.248956787690374222 F100.000000
; P02 POINT 173 point-0000173 deposition
G1 A0.000000 C0.000000 X258.000000 Y254.125000 Z252.500000 E3.260649803917533880 F100.000000
; P02 POINT 174 point-0000174 deposition
G1 A0.000000 C0.000000 X258.000000 Y254.218750 Z252.500000 E3.272342820144693538 F100.000000
; P02 POINT 175 point-0000175 deposition
G1 A0.000000 C0.000000 X258.000000 Y254.312500 Z252.500000 E3.284035836371853196 F100.000000
; P02 POINT 176 point-0000176 deposition
G1 A0.000000 C0.000000 X258.000000 Y254.406250 Z252.500000 E3.295728852599012854 F100.000000
; P02 POINT 177 point-0000177 deposition
G1 A0.000000 C0.000000 X258.000000 Y254.500000 Z252.500000 E3.307421868826172512 F100.000000
; P02 POINT 178 point-0000178 deposition
G1 A0.000000 C0.000000 X258.000000 Y254.593750 Z252.500000 E3.319114885053332170 F100.000000
; P02 POINT 179 point-0000179 deposition
G1 A0.000000 C0.000000 X258.000000 Y254.687500 Z252.500000 E3.330807901280491828 F100.000000
; P02 POINT 180 point-0000180 deposition
G1 A0.000000 C0.000000 X258.000000 Y254.781250 Z252.500000 E3.342500917507651486 F100.000000
; P02 POINT 181 point-0000181 deposition
G1 A0.000000 C0.000000 X258.000000 Y254.875000 Z252.500000 E3.354193933734811144 F100.000000
; P02 POINT 182 point-0000182 deposition
G1 A0.000000 C0.000000 X258.000000 Y254.968750 Z252.500000 E3.365886949961970802 F100.000000
; P02 POINT 183 point-0000183 deposition
G1 A0.000000 C0.000000 X258.000000 Y255.062500 Z252.500000 E3.377579966189130460 F100.000000
; P02 POINT 184 point-0000184 deposition
G1 A0.000000 C0.000000 X258.000000 Y255.156250 Z252.500000 E3.389272982416290118 F100.000000
; P02 POINT 185 point-0000185 deposition
G1 A0.000000 C0.000000 X258.000000 Y255.250000 Z252.500000 E3.400965998643449776 F100.000000
; P02 POINT 186 point-0000186 deposition
G1 A0.000000 C0.000000 X258.000000 Y255.343750 Z252.500000 E3.412659014870609434 F100.000000
; P02 POINT 187 point-0000187 deposition
G1 A0.000000 C0.000000 X258.000000 Y255.437500 Z252.500000 E3.424352031097769092 F100.000000
; P02 POINT 188 point-0000188 deposition
G1 A0.000000 C0.000000 X258.000000 Y255.531250 Z252.500000 E3.436045047324928750 F100.000000
; P02 POINT 189 point-0000189 deposition
G1 A0.000000 C0.000000 X258.000000 Y255.625000 Z252.500000 E3.447738063552088408 F100.000000
; P02 POINT 190 point-0000190 deposition
G1 A0.000000 C0.000000 X258.000000 Y255.718750 Z252.500000 E3.459431079779248066 F100.000000
; P02 POINT 191 point-0000191 deposition
G1 A0.000000 C0.000000 X258.000000 Y255.812500 Z252.500000 E3.471124096006407724 F100.000000
; P02 POINT 192 point-0000192 deposition
G1 A0.000000 C0.000000 X258.000000 Y255.906250 Z252.500000 E3.482817112233567382 F100.000000
; P02 POINT 193 point-0000193 deposition
G1 A0.000000 C0.000000 X258.000000 Y256.000000 Z252.500000 E3.494510128460727040 F100.000000
; P02 POINT 194 point-0000194 deposition
G1 A0.000000 C0.000000 X257.875000 Y256.000000 Z252.500000 E3.510100816763606584 F100.000000
; P02 POINT 195 point-0000195 deposition
G1 A0.000000 C0.000000 X257.750000 Y256.000000 Z252.500000 E3.525691505066486128 F100.000000
; P02 POINT 196 point-0000196 deposition
G1 A0.000000 C0.000000 X257.625000 Y256.000000 Z252.500000 E3.541282193369365672 F100.000000
; P02 POINT 197 point-0000197 deposition
G1 A0.000000 C0.000000 X257.500000 Y256.000000 Z252.500000 E3.556872881672245216 F100.000000
; P02 POINT 198 point-0000198 deposition
G1 A0.000000 C0.000000 X257.375000 Y256.000000 Z252.500000 E3.572463569975124760 F100.000000
; P02 POINT 199 point-0000199 deposition
G1 A0.000000 C0.000000 X257.250000 Y256.000000 Z252.500000 E3.588054258278004304 F100.000000
; P02 POINT 200 point-0000200 deposition
G1 A0.000000 C0.000000 X257.125000 Y256.000000 Z252.500000 E3.603644946580883848 F100.000000
; P02 POINT 201 point-0000201 deposition
G1 A0.000000 C0.000000 X257.000000 Y256.000000 Z252.500000 E3.619235634883763392 F100.000000
; P02 POINT 202 point-0000202 deposition
G1 A0.000000 C0.000000 X256.875000 Y256.000000 Z252.500000 E3.634826323186642936 F100.000000
; P02 POINT 203 point-0000203 deposition
G1 A0.000000 C0.000000 X256.750000 Y256.000000 Z252.500000 E3.650417011489522480 F100.000000
; P02 POINT 204 point-0000204 deposition
G1 A0.000000 C0.000000 X256.625000 Y256.000000 Z252.500000 E3.666007699792402024 F100.000000
; P02 POINT 205 point-0000205 deposition
G1 A0.000000 C0.000000 X256.500000 Y256.000000 Z252.500000 E3.681598388095281568 F100.000000
; P02 POINT 206 point-0000206 deposition
G1 A0.000000 C0.000000 X256.375000 Y256.000000 Z252.500000 E3.697189076398161112 F100.000000
; P02 POINT 207 point-0000207 deposition
G1 A0.000000 C0.000000 X256.250000 Y256.000000 Z252.500000 E3.712779764701040656 F100.000000
; P02 POINT 208 point-0000208 deposition
G1 A0.000000 C0.000000 X256.125000 Y256.000000 Z252.500000 E3.728370453003920200 F100.000000
; P02 POINT 209 point-0000209 deposition
G1 A0.000000 C0.000000 X256.000000 Y256.000000 Z252.500000 E3.743961141306799744 F100.000000
; P02 POINT 210 point-0000210 deposition
G1 A0.000000 C0.000000 X255.875000 Y256.000000 Z252.500000 E3.759551829609679288 F100.000000
; P02 POINT 211 point-0000211 deposition
G1 A0.000000 C0.000000 X255.750000 Y256.000000 Z252.500000 E3.775142517912558832 F100.000000
; P02 POINT 212 point-0000212 deposition
G1 A0.000000 C0.000000 X255.625000 Y256.000000 Z252.500000 E3.790733206215438376 F100.000000
; P02 POINT 213 point-0000213 deposition
G1 A0.000000 C0.000000 X255.500000 Y256.000000 Z252.500000 E3.806323894518317920 F100.000000
; P02 POINT 214 point-0000214 deposition
G1 A0.000000 C0.000000 X255.375000 Y256.000000 Z252.500000 E3.821914582821197464 F100.000000
; P02 POINT 215 point-0000215 deposition
G1 A0.000000 C0.000000 X255.250000 Y256.000000 Z252.500000 E3.837505271124077008 F100.000000
; P02 POINT 216 point-0000216 deposition
G1 A0.000000 C0.000000 X255.125000 Y256.000000 Z252.500000 E3.853095959426956552 F100.000000
; P02 POINT 217 point-0000217 deposition
G1 A0.000000 C0.000000 X255.000000 Y256.000000 Z252.500000 E3.868686647729836096 F100.000000
; P02 POINT 218 point-0000218 deposition
G1 A0.000000 C0.000000 X254.875000 Y256.000000 Z252.500000 E3.884277336032715640 F100.000000
; P02 POINT 219 point-0000219 deposition
G1 A0.000000 C0.000000 X254.750000 Y256.000000 Z252.500000 E3.899868024335595184 F100.000000
; P02 POINT 220 point-0000220 deposition
G1 A0.000000 C0.000000 X254.625000 Y256.000000 Z252.500000 E3.915458712638474728 F100.000000
; P02 POINT 221 point-0000221 deposition
G1 A0.000000 C0.000000 X254.500000 Y256.000000 Z252.500000 E3.931049400941354272 F100.000000
; P02 POINT 222 point-0000222 deposition
G1 A0.000000 C0.000000 X254.375000 Y256.000000 Z252.500000 E3.946640089244233816 F100.000000
; P02 POINT 223 point-0000223 deposition
G1 A0.000000 C0.000000 X254.250000 Y256.000000 Z252.500000 E3.962230777547113360 F100.000000
; P02 POINT 224 point-0000224 deposition
G1 A0.000000 C0.000000 X254.125000 Y256.000000 Z252.500000 E3.977821465849992904 F100.000000
; P02 POINT 225 point-0000225 deposition
G1 A0.000000 C0.000000 X254.000000 Y256.000000 Z252.500000 E3.993412154152872448 F100.000000
; P02 POINT 226 point-0000226 deposition
G1 A0.000000 C0.000000 X253.875000 Y256.000000 Z252.500000 E4.009002842455751992 F100.000000
; P02 POINT 227 point-0000227 deposition
G1 A0.000000 C0.000000 X253.750000 Y256.000000 Z252.500000 E4.024593530758631536 F100.000000
; P02 POINT 228 point-0000228 deposition
G1 A0.000000 C0.000000 X253.625000 Y256.000000 Z252.500000 E4.040184219061511080 F100.000000
; P02 POINT 229 point-0000229 deposition
G1 A0.000000 C0.000000 X253.500000 Y256.000000 Z252.500000 E4.055774907364390624 F100.000000
; P02 POINT 230 point-0000230 deposition
G1 A0.000000 C0.000000 X253.375000 Y256.000000 Z252.500000 E4.071365595667270168 F100.000000
; P02 POINT 231 point-0000231 deposition
G1 A0.000000 C0.000000 X253.250000 Y256.000000 Z252.500000 E4.086956283970149712 F100.000000
; P02 POINT 232 point-0000232 deposition
G1 A0.000000 C0.000000 X253.125000 Y256.000000 Z252.500000 E4.102546972273029256 F100.000000
; P02 POINT 233 point-0000233 deposition
G1 A0.000000 C0.000000 X253.000000 Y256.000000 Z252.500000 E4.118137660575908800 F100.000000
; P02 POINT 234 point-0000234 deposition
G1 A0.000000 C0.000000 X252.875000 Y256.000000 Z252.500000 E4.133728348878788344 F100.000000
; P02 POINT 235 point-0000235 deposition
G1 A0.000000 C0.000000 X252.750000 Y256.000000 Z252.500000 E4.149319037181667888 F100.000000
; P02 POINT 236 point-0000236 deposition
G1 A0.000000 C0.000000 X252.625000 Y256.000000 Z252.500000 E4.164909725484547432 F100.000000
; P02 POINT 237 point-0000237 deposition
G1 A0.000000 C0.000000 X252.500000 Y256.000000 Z252.500000 E4.180500413787426976 F100.000000
; P02 POINT 238 point-0000238 deposition
G1 A0.000000 C0.000000 X252.375000 Y256.000000 Z252.500000 E4.196091102090306520 F100.000000
; P02 POINT 239 point-0000239 deposition
G1 A0.000000 C0.000000 X252.250000 Y256.000000 Z252.500000 E4.211681790393186064 F100.000000
; P02 POINT 240 point-0000240 deposition
G1 A0.000000 C0.000000 X252.125000 Y256.000000 Z252.500000 E4.227272478696065608 F100.000000
; P02 POINT 241 point-0000241 deposition
G1 A0.000000 C0.000000 X252.000000 Y256.000000 Z252.500000 E4.242863166998945152 F100.000000
; P02 POINT 242 point-0000242 deposition
G1 A0.000000 C0.000000 X251.875000 Y256.000000 Z252.500000 E4.258453855301824696 F100.000000
; P02 POINT 243 point-0000243 deposition
G1 A0.000000 C0.000000 X251.750000 Y256.000000 Z252.500000 E4.274044543604704240 F100.000000
; P02 POINT 244 point-0000244 deposition
G1 A0.000000 C0.000000 X251.625000 Y256.000000 Z252.500000 E4.289635231907583784 F100.000000
; P02 POINT 245 point-0000245 deposition
G1 A0.000000 C0.000000 X251.500000 Y256.000000 Z252.500000 E4.305225920210463328 F100.000000
; P02 POINT 246 point-0000246 deposition
G1 A0.000000 C0.000000 X251.375000 Y256.000000 Z252.500000 E4.320816608513342872 F100.000000
; P02 POINT 247 point-0000247 deposition
G1 A0.000000 C0.000000 X251.250000 Y256.000000 Z252.500000 E4.336407296816222416 F100.000000
; P02 POINT 248 point-0000248 deposition
G1 A0.000000 C0.000000 X251.125000 Y256.000000 Z252.500000 E4.351997985119101960 F100.000000
; P02 POINT 249 point-0000249 deposition
G1 A0.000000 C0.000000 X251.000000 Y256.000000 Z252.500000 E4.367588673421981504 F100.000000
; P02 POINT 250 point-0000250 deposition
G1 A0.000000 C0.000000 X250.875000 Y256.000000 Z252.500000 E4.383179361724861048 F100.000000
; P02 POINT 251 point-0000251 deposition
G1 A0.000000 C0.000000 X250.750000 Y256.000000 Z252.500000 E4.398770050027740592 F100.000000
; P02 POINT 252 point-0000252 deposition
G1 A0.000000 C0.000000 X250.625000 Y256.000000 Z252.500000 E4.414360738330620136 F100.000000
; P02 POINT 253 point-0000253 deposition
G1 A0.000000 C0.000000 X250.500000 Y256.000000 Z252.500000 E4.429951426633499680 F100.000000
; P02 POINT 254 point-0000254 deposition
G1 A0.000000 C0.000000 X250.375000 Y256.000000 Z252.500000 E4.445542114936379224 F100.000000
; P02 POINT 255 point-0000255 deposition
G1 A0.000000 C0.000000 X250.250000 Y256.000000 Z252.500000 E4.461132803239258768 F100.000000
; P02 POINT 256 point-0000256 deposition
G1 A0.000000 C0.000000 X250.125000 Y256.000000 Z252.500000 E4.476723491542138312 F100.000000
; P02 POINT 257 point-0000257 deposition
G1 A0.000000 C0.000000 X250.000000 Y256.000000 Z252.500000 E4.492314179845017856 F100.000000
; P02 EVENT event-0000002 retract
G1 E3.492314179845017856 F100.000000
; P02 POINT 258 point-0000258 travel
G1 A0.000000 C0.000000 X250.000000 Y250.300000 Z252.500000 F100.000000
; P02 EVENT event-0000003 prime
G1 E4.492314179845017856 F100.000000
; P02 POINT 259 point-0000259 deposition
G1 A0.000000 C0.000000 X258.000000 Y250.300000 Z252.500000 E5.490118231229308656 F100.000000
; P02 EVENT event-0000004 retract
G1 E4.490118231229308656 F100.000000
; P02 POINT 260 point-0000260 travel
G1 A0.000000 C0.000000 X258.000000 Y250.900000 Z252.500000 F100.000000
; P02 EVENT event-0000005 prime
G1 E5.490118231229308656 F100.000000
; P02 POINT 261 point-0000261 deposition
G1 A0.000000 C0.000000 X250.000000 Y250.900000 Z252.500000 E6.487922282613599456 F100.000000
; P02 EVENT event-0000006 retract
G1 E5.487922282613599456 F100.000000
; P02 POINT 262 point-0000262 travel
G1 A0.000000 C0.000000 X250.000000 Y251.500000 Z252.500000 F100.000000
; P02 EVENT event-0000007 prime
G1 E6.487922282613599456 F100.000000
; P02 POINT 263 point-0000263 deposition
G1 A0.000000 C0.000000 X258.000000 Y251.500000 Z252.500000 E7.485726333997890256 F100.000000
; P02 EVENT event-0000008 retract
G1 E6.485726333997890256 F100.000000
; P02 POINT 264 point-0000264 travel
G1 A0.000000 C0.000000 X258.000000 Y252.100000 Z252.500000 F100.000000
; P02 EVENT event-0000009 prime
G1 E7.485726333997890256 F100.000000
; P02 POINT 265 point-0000265 deposition
G1 A0.000000 C0.000000 X250.000000 Y252.100000 Z252.500000 E8.483530385382181056 F100.000000
; P02 EVENT event-0000010 retract
G1 E7.483530385382181056 F100.000000
; P02 POINT 266 point-0000266 travel
G1 A0.000000 C0.000000 X250.000000 Y252.700000 Z252.500000 F100.000000
; P02 EVENT event-0000011 prime
G1 E8.483530385382181056 F100.000000
; P02 POINT 267 point-0000267 deposition
G1 A0.000000 C0.000000 X258.000000 Y252.700000 Z252.500000 E9.481334436766471856 F100.000000
; P02 EVENT event-0000012 retract
G1 E8.481334436766471856 F100.000000
; P02 POINT 268 point-0000268 travel
G1 A0.000000 C0.000000 X258.000000 Y253.300000 Z252.500000 F100.000000
; P02 EVENT event-0000013 prime
G1 E9.481334436766471856 F100.000000
; P02 POINT 269 point-0000269 deposition
G1 A0.000000 C0.000000 X250.000000 Y253.300000 Z252.500000 E10.479138488150762656 F100.000000
; P02 EVENT event-0000014 retract
G1 E9.479138488150762656 F100.000000
; P02 POINT 270 point-0000270 travel
G1 A0.000000 C0.000000 X250.000000 Y253.900000 Z252.500000 F100.000000
; P02 EVENT event-0000015 prime
G1 E10.479138488150762656 F100.000000
; P02 POINT 271 point-0000271 deposition
G1 A0.000000 C0.000000 X258.000000 Y253.900000 Z252.500000 E11.476942539535053456 F100.000000
; P02 EVENT event-0000016 retract
G1 E10.476942539535053456 F100.000000
; P02 POINT 272 point-0000272 travel
G1 A0.000000 C0.000000 X258.000000 Y254.500000 Z252.500000 F100.000000
; P02 EVENT event-0000017 prime
G1 E11.476942539535053456 F100.000000
; P02 POINT 273 point-0000273 deposition
G1 A0.000000 C0.000000 X250.000000 Y254.500000 Z252.500000 E12.474746590919344256 F100.000000
; P02 EVENT event-0000018 retract
G1 E11.474746590919344256 F100.000000
; P02 POINT 274 point-0000274 travel
G1 A0.000000 C0.000000 X250.000000 Y255.100000 Z252.500000 F100.000000
; P02 EVENT event-0000019 prime
G1 E12.474746590919344256 F100.000000
; P02 POINT 275 point-0000275 deposition
G1 A0.000000 C0.000000 X258.000000 Y255.100000 Z252.500000 E13.472550642303635056 F100.000000
; P02 EVENT event-0000020 retract
G1 E12.472550642303635056 F100.000000
; P02 POINT 276 point-0000276 travel
G1 A0.000000 C0.000000 X258.000000 Y255.700000 Z252.500000 F100.000000
; P02 EVENT event-0000021 prime
G1 E13.472550642303635056 F100.000000
; P02 POINT 277 point-0000277 deposition
G1 A0.000000 C0.000000 X250.000000 Y255.700000 Z252.500000 E14.470354693687925856 F100.000000
M400 ; finish queued motion
M2
