; 5AxisSclicer P02 Planar Zigzag
; reference XYZAC profile; offline simulation only
G21 ; millimetres
G90 ; absolute axes
M82 ; absolute extrusion
G92 E0 ; known initial extrusion position
; P02 POINT 1 point-0000001 approach
G1 A0.000000 C0.000000 X254.784315 Y240.721539 Z312.000000 F100.000000
; P02 EVENT event-0000001 prime
G1 E1.0 F100.000000
; P02 POINT 2 point-0000002 deposition
G1 A0.000000 C0.000000 X255.071578 Y240.335432 Z312.000000 E1.07202854709770912 F100.000000
; P02 POINT 3 point-0000003 deposition
G1 A0.000000 C0.000000 X284.271914 Y201.087850 Z312.000000 E8.39370957502815112 F100.000000
; P02 POINT 4 point-0000004 deposition
G1 A0.000000 C0.000000 X286.999738 Y203.117360 Z312.000000 E8.90258818046242992 F100.000000
; P02 POINT 5 point-0000005 deposition
G1 A0.000000 C0.000000 X257.512138 Y242.751050 Z312.000000 E16.29629791270394192 F100.000000
; P02 POINT 6 point-0000006 deposition
G1 A0.000000 C0.000000 X254.784315 Y240.721539 Z312.000000 E16.80517653228855152 F100.000000
; P02 EVENT event-0000002 retract
G1 E15.80517653228855152 F100.000000
; P02 POINT 7 point-0000007 travel
G1 A0.000000 C0.000000 X255.402592 Y240.807616 Z312.000000 F100.000000
; P02 EVENT event-0000003 prime
G1 E16.80517653228855152 F100.000000
; P02 POINT 8 point-0000008 deposition
G1 A0.000000 C0.000000 X258.584135 Y240.807616 Z312.000000 E17.28136010570999212 F100.000000
; P02 EVENT event-0000004 retract
G1 E16.28136010570999212 F100.000000
; P02 POINT 9 point-0000009 travel
G1 A0.000000 C0.000000 X259.030537 Y240.207616 Z312.000000 F100.000000
; P02 EVENT event-0000005 prime
G1 E17.28136010570999212 F100.000000
; P02 POINT 10 point-0000010 deposition
G1 A0.000000 C0.000000 X255.540597 Y240.207616 Z312.000000 E17.80370152480366852 F100.000000
; P02 EVENT event-0000006 retract
G1 E16.80370152480366852 F100.000000
; P02 POINT 11 point-0000011 travel
G1 A0.000000 C0.000000 X255.987000 Y239.607616 Z312.000000 F100.000000
; P02 EVENT event-0000007 prime
G1 E17.80370152480366852 F100.000000
; P02 POINT 12 point-0000012 deposition
G1 A0.000000 C0.000000 X259.476939 Y239.607616 Z312.000000 E18.32604294290632712 F100.000000
; P02 EVENT event-0000008 retract
G1 E17.32604294290632712 F100.000000
; P02 POINT 13 point-0000013 travel
G1 A0.000000 C0.000000 X259.923341 Y239.007616 Z312.000000 F100.000000
; P02 EVENT event-0000009 prime
G1 E18.32604294290632712 F100.000000
; P02 POINT 14 point-0000014 deposition
G1 A0.000000 C0.000000 X256.433402 Y239.007616 Z312.000000 E18.84838436001796792 F100.000000
; P02 EVENT event-0000010 retract
G1 E17.84838436001796792 F100.000000
; P02 POINT 15 point-0000015 travel
G1 A0.000000 C0.000000 X256.879804 Y238.407616 Z312.000000 F100.000000
; P02 EVENT event-0000011 prime
G1 E18.84838436001796792 F100.000000
; P02 POINT 16 point-0000016 deposition
G1 A0.000000 C0.000000 X260.369743 Y238.407616 Z312.000000 E19.37072577613859102 F100.000000
; P02 EVENT event-0000012 retract
G1 E18.37072577613859102 F100.000000
; P02 POINT 17 point-0000017 travel
G1 A0.000000 C0.000000 X260.816146 Y237.807616 Z312.000000 F100.000000
; P02 EVENT event-0000013 prime
G1 E19.37072577613859102 F100.000000
; P02 POINT 18 point-0000018 deposition
G1 A0.000000 C0.000000 X257.326206 Y237.807616 Z312.000000 E19.89306719126819652 F100.000000
; P02 EVENT event-0000014 retract
G1 E18.89306719126819652 F100.000000
; P02 POINT 19 point-0000019 travel
G1 A0.000000 C0.000000 X257.772608 Y237.207616 Z312.000000 F100.000000
; P02 EVENT event-0000015 prime
G1 E19.89306719126819652 F100.000000
; P02 POINT 20 point-0000020 deposition
G1 A0.000000 C0.000000 X261.262548 Y237.207616 Z312.000000 E20.41540860540678442 F100.000000
; P02 EVENT event-0000016 retract
G1 E19.41540860540678442 F100.000000
; P02 POINT 21 point-0000021 travel
G1 A0.000000 C0.000000 X261.708950 Y236.607616 Z312.000000 F100.000000
; P02 EVENT event-0000017 prime
G1 E20.41540860540678442 F100.000000
; P02 POINT 22 point-0000022 deposition
G1 A0.000000 C0.000000 X258.219010 Y236.607616 Z312.000000 E20.93775001855435512 F100.000000
; P02 EVENT event-0000018 retract
G1 E19.93775001855435512 F100.000000
; P02 POINT 23 point-0000023 travel
G1 A0.000000 C0.000000 X258.665412 Y236.007616 Z312.000000 F100.000000
; P02 EVENT event-0000019 prime
G1 E20.93775001855435512 F100.000000
; P02 POINT 24 point-0000024 deposition
G1 A0.000000 C0.000000 X262.155352 Y236.007616 Z312.000000 E21.46009143071090792 F100.000000
; P02 EVENT event-0000020 retract
G1 E20.46009143071090792 F100.000000
; P02 POINT 25 point-0000025 travel
G1 A0.000000 C0.000000 X262.601754 Y235.407616 Z312.000000 F100.000000
; P02 EVENT event-0000021 prime
G1 E21.46009143071090792 F100.000000
; P02 POINT 26 point-0000026 deposition
G1 A0.000000 C0.000000 X259.111814 Y235.407616 Z312.000000 E21.98243284187644262 F100.000000
; P02 EVENT event-0000022 retract
G1 E20.98243284187644262 F100.000000
; P02 POINT 27 point-0000027 travel
G1 A0.000000 C0.000000 X259.558216 Y234.807616 Z312.000000 F100.000000
; P02 EVENT event-0000023 prime
G1 E21.98243284187644262 F100.000000
; P02 POINT 28 point-0000028 deposition
G1 A0.000000 C0.000000 X263.048156 Y234.807616 Z312.000000 E22.50477425205095972 F100.000000
; P02 EVENT event-0000024 retract
G1 E21.50477425205095972 F100.000000
; P02 POINT 29 point-0000029 travel
G1 A0.000000 C0.000000 X263.494558 Y234.207616 Z312.000000 F100.000000
; P02 EVENT event-0000025 prime
G1 E22.50477425205095972 F100.000000
; P02 POINT 30 point-0000030 deposition
G1 A0.000000 C0.000000 X260.004618 Y234.207616 Z312.000000 E23.02711566123445982 F100.000000
; P02 EVENT event-0000026 retract
G1 E22.02711566123445982 F100.000000
; P02 POINT 31 point-0000031 travel
G1 A0.000000 C0.000000 X260.451020 Y233.607616 Z312.000000 F100.000000
; P02 EVENT event-0000027 prime
G1 E23.02711566123445982 F100.000000
; P02 POINT 32 point-0000032 deposition
G1 A0.000000 C0.000000 X263.940960 Y233.607616 Z312.000000 E23.54945706942694172 F100.000000
; P02 EVENT event-0000028 retract
G1 E22.54945706942694172 F100.000000
; P02 POINT 33 point-0000033 travel
G1 A0.000000 C0.000000 X264.387362 Y233.007616 Z312.000000 F100.000000
; P02 EVENT event-0000029 prime
G1 E23.54945706942694172 F100.000000
; P02 POINT 34 point-0000034 deposition
G1 A0.000000 C0.000000 X260.897422 Y233.007616 Z312.000000 E24.07179847662840632 F100.000000
; P02 EVENT event-0000030 retract
G1 E23.07179847662840632 F100.000000
; P02 POINT 35 point-0000035 travel
G1 A0.000000 C0.000000 X261.343824 Y232.407616 Z312.000000 F100.000000
; P02 EVENT event-0000031 prime
G1 E24.07179847662840632 F100.000000
; P02 POINT 36 point-0000036 deposition
G1 A0.000000 C0.000000 X264.833764 Y232.407616 Z312.000000 E24.59413988283885312 F100.000000
; P02 EVENT event-0000032 retract
G1 E23.59413988283885312 F100.000000
; P02 POINT 37 point-0000037 travel
G1 A0.000000 C0.000000 X265.280166 Y231.807616 Z312.000000 F100.000000
; P02 EVENT event-0000033 prime
G1 E24.59413988283885312 F100.000000
; P02 POINT 38 point-0000038 deposition
G1 A0.000000 C0.000000 X261.790226 Y231.807616 Z312.000000 E25.11648128805828242 F100.000000
; P02 EVENT event-0000034 retract
G1 E24.11648128805828242 F100.000000
; P02 POINT 39 point-0000039 travel
G1 A0.000000 C0.000000 X262.236628 Y231.207616 Z312.000000 F100.000000
; P02 EVENT event-0000035 prime
G1 E25.11648128805828242 F100.000000
; P02 POINT 40 point-0000040 deposition
G1 A0.000000 C0.000000 X265.726568 Y231.207616 Z312.000000 E25.63882269228669402 F100.000000
; P02 EVENT event-0000036 retract
G1 E24.63882269228669402 F100.000000
; P02 POINT 41 point-0000041 travel
G1 A0.000000 C0.000000 X266.172970 Y230.607616 Z312.000000 F100.000000
; P02 EVENT event-0000037 prime
G1 E25.63882269228669402 F100.000000
; P02 POINT 42 point-0000042 deposition
G1 A0.000000 C0.000000 X262.683030 Y230.607616 Z312.000000 E26.16116409552408852 F100.000000
; P02 EVENT event-0000038 retract
G1 E25.16116409552408852 F100.000000
; P02 POINT 43 point-0000043 travel
G1 A0.000000 C0.000000 X263.129432 Y230.007616 Z312.000000 F100.000000
; P02 EVENT event-0000039 prime
G1 E26.16116409552408852 F100.000000
; P02 POINT 44 point-0000044 deposition
G1 A0.000000 C0.000000 X266.619372 Y230.007616 Z312.000000 E26.68350549777046502 F100.000000
; P02 EVENT event-0000040 retract
G1 E25.68350549777046502 F100.000000
; P02 POINT 45 point-0000045 travel
G1 A0.000000 C0.000000 X267.065774 Y229.407616 Z312.000000 F100.000000
; P02 EVENT event-0000041 prime
G1 E26.68350549777046502 F100.000000
; P02 POINT 46 point-0000046 deposition
G1 A0.000000 C0.000000 X263.575835 Y229.407616 Z312.000000 E27.20584689902582322 F100.000000
; P02 EVENT event-0000042 retract
G1 E26.20584689902582322 F100.000000
; P02 POINT 47 point-0000047 travel
G1 A0.000000 C0.000000 X264.022237 Y228.807616 Z312.000000 F100.000000
; P02 EVENT event-0000043 prime
G1 E27.20584689902582322 F100.000000
; P02 POINT 48 point-0000048 deposition
G1 A0.000000 C0.000000 X267.512176 Y228.807616 Z312.000000 E27.72818829929016462 F100.000000
; P02 EVENT event-0000044 retract
G1 E26.72818829929016462 F100.000000
; P02 POINT 49 point-0000049 travel
G1 A0.000000 C0.000000 X267.958578 Y228.207616 Z312.000000 F100.000000
; P02 EVENT event-0000045 prime
G1 E27.72818829929016462 F100.000000
; P02 POINT 50 point-0000050 deposition
G1 A0.000000 C0.000000 X264.468639 Y228.207616 Z312.000000 E28.25052969856348832 F100.000000
; P02 EVENT event-0000046 retract
G1 E27.25052969856348832 F100.000000
; P02 POINT 51 point-0000051 travel
G1 A0.000000 C0.000000 X264.915041 Y227.607616 Z312.000000 F100.000000
; P02 EVENT event-0000047 prime
G1 E28.25052969856348832 F100.000000
; P02 POINT 52 point-0000052 deposition
G1 A0.000000 C0.000000 X268.404980 Y227.607616 Z312.000000 E28.77287109684579442 F100.000000
; P02 EVENT event-0000048 retract
G1 E27.77287109684579442 F100.000000
; P02 POINT 53 point-0000053 travel
G1 A0.000000 C0.000000 X268.851382 Y227.007616 Z312.000000 F100.000000
; P02 EVENT event-0000049 prime
G1 E28.77287109684579442 F100.000000
; P02 POINT 54 point-0000054 deposition
G1 A0.000000 C0.000000 X265.361443 Y227.007616 Z312.000000 E29.29521249413708302 F100.000000
; P02 EVENT event-0000050 retract
G1 E28.29521249413708302 F100.000000
; P02 POINT 55 point-0000055 travel
G1 A0.000000 C0.000000 X265.807845 Y226.407616 Z312.000000 F100.000000
; P02 EVENT event-0000051 prime
G1 E29.29521249413708302 F100.000000
; P02 POINT 56 point-0000056 deposition
G1 A0.000000 C0.000000 X269.297785 Y226.407616 Z312.000000 E29.81755389043735342 F100.000000
; P02 EVENT event-0000052 retract
G1 E28.81755389043735342 F100.000000
; P02 POINT 57 point-0000057 travel
G1 A0.000000 C0.000000 X269.744187 Y225.807616 Z312.000000 F100.000000
; P02 EVENT event-0000053 prime
G1 E29.81755389043735342 F100.000000
; P02 POINT 58 point-0000058 deposition
G1 A0.000000 C0.000000 X266.254247 Y225.807616 Z312.000000 E30.33989528574660622 F100.000000
; P02 EVENT event-0000054 retract
G1 E29.33989528574660622 F100.000000
; P02 POINT 59 point-0000059 travel
G1 A0.000000 C0.000000 X266.700649 Y225.207616 Z312.000000 F100.000000
; P02 EVENT event-0000055 prime
G1 E30.33989528574660622 F100.000000
; P02 POINT 60 point-0000060 deposition
G1 A0.000000 C0.000000 X270.190589 Y225.207616 Z312.000000 E30.86223668006484212 F100.000000
; P02 EVENT event-0000056 retract
G1 E29.86223668006484212 F100.000000
; P02 POINT 61 point-0000061 travel
G1 A0.000000 C0.000000 X270.636991 Y224.607616 Z312.000000 F100.000000
; P02 EVENT event-0000057 prime
G1 E30.86223668006484212 F100.000000
; P02 POINT 62 point-0000062 deposition
G1 A0.000000 C0.000000 X267.147051 Y224.607616 Z312.000000 E31.38457807339206032 F100.000000
; P02 EVENT event-0000058 retract
G1 E30.38457807339206032 F100.000000
; P02 POINT 63 point-0000063 travel
G1 A0.000000 C0.000000 X267.593453 Y224.007616 Z312.000000 F100.000000
; P02 EVENT event-0000059 prime
G1 E31.38457807339206032 F100.000000
; P02 POINT 64 point-0000064 deposition
G1 A0.000000 C0.000000 X271.083393 Y224.007616 Z312.000000 E31.90691946572826042 F100.000000
; P02 EVENT event-0000060 retract
G1 E30.90691946572826042 F100.000000
; P02 POINT 65 point-0000065 travel
G1 A0.000000 C0.000000 X271.529795 Y223.407616 Z312.000000 F100.000000
; P02 EVENT event-0000061 prime
G1 E31.90691946572826042 F100.000000
; P02 POINT 66 point-0000066 deposition
G1 A0.000000 C0.000000 X268.039855 Y223.407616 Z312.000000 E32.42926085707344352 F100.000000
; P02 EVENT event-0000062 retract
G1 E31.42926085707344352 F100.000000
; P02 POINT 67 point-0000067 travel
G1 A0.000000 C0.000000 X268.486257 Y222.807616 Z312.000000 F100.000000
; P02 EVENT event-0000063 prime
G1 E32.42926085707344352 F100.000000
; P02 POINT 68 point-0000068 deposition
G1 A0.000000 C0.000000 X271.976197 Y222.807616 Z312.000000 E32.95160224742760852 F100.000000
; P02 EVENT event-0000064 retract
G1 E31.95160224742760852 F100.000000
; P02 POINT 69 point-0000069 travel
G1 A0.000000 C0.000000 X272.422599 Y222.207616 Z312.000000 F100.000000
; P02 EVENT event-0000065 prime
G1 E32.95160224742760852 F100.000000
; P02 POINT 70 point-0000070 deposition
G1 A0.000000 C0.000000 X268.932659 Y222.207616 Z312.000000 E33.47394363679075582 F100.000000
; P02 EVENT event-0000066 retract
G1 E32.47394363679075582 F100.000000
; P02 POINT 71 point-0000071 travel
G1 A0.000000 C0.000000 X269.379061 Y221.607616 Z312.000000 F100.000000
; P02 EVENT event-0000067 prime
G1 E33.47394363679075582 F100.000000
; P02 POINT 72 point-0000072 deposition
G1 A0.000000 C0.000000 X272.869001 Y221.607616 Z312.000000 E33.99628502516288522 F100.000000
; P02 EVENT event-0000068 retract
G1 E32.99628502516288522 F100.000000
; P02 POINT 73 point-0000073 travel
G1 A0.000000 C0.000000 X273.315403 Y221.007616 Z312.000000 F100.000000
; P02 EVENT event-0000069 prime
G1 E33.99628502516288522 F100.000000
; P02 POINT 74 point-0000074 deposition
G1 A0.000000 C0.000000 X269.825463 Y221.007616 Z312.000000 E34.51862641254399802 F100.000000
; P02 EVENT event-0000070 retract
G1 E33.51862641254399802 F100.000000
; P02 POINT 75 point-0000075 travel
G1 A0.000000 C0.000000 X270.271865 Y220.407616 Z312.000000 F100.000000
; P02 EVENT event-0000071 prime
G1 E34.51862641254399802 F100.000000
; P02 POINT 76 point-0000076 deposition
G1 A0.000000 C0.000000 X273.761805 Y220.407616 Z312.000000 E35.04096779893409262 F100.000000
; P02 EVENT event-0000072 retract
G1 E34.04096779893409262 F100.000000
; P02 POINT 77 point-0000077 travel
G1 A0.000000 C0.000000 X274.208207 Y219.807616 Z312.000000 F100.000000
; P02 EVENT event-0000073 prime
G1 E35.04096779893409262 F100.000000
; P02 POINT 78 point-0000078 deposition
G1 A0.000000 C0.000000 X270.718267 Y219.807616 Z312.000000 E35.56330918433316922 F100.000000
; P02 EVENT event-0000074 retract
G1 E34.56330918433316922 F100.000000
; P02 POINT 79 point-0000079 travel
G1 A0.000000 C0.000000 X271.164670 Y219.207616 Z312.000000 F100.000000
; P02 EVENT event-0000075 prime
G1 E35.56330918433316922 F100.000000
; P02 POINT 80 point-0000080 deposition
G1 A0.000000 C0.000000 X274.654609 Y219.207616 Z312.000000 E36.08565056874122822 F100.000000
; P02 EVENT event-0000076 retract
G1 E35.08565056874122822 F100.000000
; P02 POINT 81 point-0000081 travel
G1 A0.000000 C0.000000 X275.101011 Y218.607616 Z312.000000 F100.000000
; P02 EVENT event-0000077 prime
G1 E36.08565056874122822 F100.000000
; P02 POINT 82 point-0000082 deposition
G1 A0.000000 C0.000000 X271.611072 Y218.607616 Z312.000000 E36.60799195215826902 F100.000000
; P02 EVENT event-0000078 retract
G1 E35.60799195215826902 F100.000000
; P02 POINT 83 point-0000083 travel
G1 A0.000000 C0.000000 X272.057474 Y218.007616 Z312.000000 F100.000000
; P02 EVENT event-0000079 prime
G1 E36.60799195215826902 F100.000000
; P02 POINT 84 point-0000084 deposition
G1 A0.000000 C0.000000 X275.547413 Y218.007616 Z312.000000 E37.13033333458429352 F100.000000
; P02 EVENT event-0000080 retract
G1 E36.13033333458429352 F100.000000
; P02 POINT 85 point-0000085 travel
G1 A0.000000 C0.000000 X275.993815 Y217.407616 Z312.000000 F100.000000
; P02 EVENT event-0000081 prime
G1 E37.13033333458429352 F100.000000
; P02 POINT 86 point-0000086 deposition
G1 A0.000000 C0.000000 X272.503876 Y217.407616 Z312.000000 E37.65267471601930022 F100.000000
; P02 EVENT event-0000082 retract
G1 E36.65267471601930022 F100.000000
; P02 POINT 87 point-0000087 travel
G1 A0.000000 C0.000000 X272.950278 Y216.807616 Z312.000000 F100.000000
; P02 EVENT event-0000083 prime
G1 E37.65267471601930022 F100.000000
; P02 POINT 88 point-0000088 deposition
G1 A0.000000 C0.000000 X276.440217 Y216.807616 Z312.000000 E38.17501609646328892 F100.000000
; P02 EVENT event-0000084 retract
G1 E37.17501609646328892 F100.000000
; P02 POINT 89 point-0000089 travel
G1 A0.000000 C0.000000 X276.886619 Y216.207616 Z312.000000 F100.000000
; P02 EVENT event-0000085 prime
G1 E38.17501609646328892 F100.000000
; P02 POINT 90 point-0000090 deposition
G1 A0.000000 C0.000000 X273.396680 Y216.207616 Z312.000000 E38.69735747591626002 F100.000000
; P02 EVENT event-0000086 retract
G1 E37.69735747591626002 F100.000000
; P02 POINT 91 point-0000091 travel
G1 A0.000000 C0.000000 X273.843082 Y215.607616 Z312.000000 F100.000000
; P02 EVENT event-0000087 prime
G1 E38.69735747591626002 F100.000000
; P02 POINT 92 point-0000092 deposition
G1 A0.000000 C0.000000 X277.333021 Y215.607616 Z312.000000 E39.21969885437821362 F100.000000
; P02 EVENT event-0000088 retract
G1 E38.21969885437821362 F100.000000
; P02 POINT 93 point-0000093 travel
G1 A0.000000 C0.000000 X277.779424 Y215.007616 Z312.000000 F100.000000
; P02 EVENT event-0000089 prime
G1 E39.21969885437821362 F100.000000
; P02 POINT 94 point-0000094 deposition
G1 A0.000000 C0.000000 X274.289484 Y215.007616 Z312.000000 E39.74204023184914952 F100.000000
; P02 EVENT event-0000090 retract
G1 E38.74204023184914952 F100.000000
; P02 POINT 95 point-0000095 travel
G1 A0.000000 C0.000000 X274.735886 Y214.407616 Z312.000000 F100.000000
; P02 EVENT event-0000091 prime
G1 E39.74204023184914952 F100.000000
; P02 POINT 96 point-0000096 deposition
G1 A0.000000 C0.000000 X278.225826 Y214.407616 Z312.000000 E40.26438160832906752 F100.000000
; P02 EVENT event-0000092 retract
G1 E39.26438160832906752 F100.000000
; P02 POINT 97 point-0000097 travel
G1 A0.000000 C0.000000 X278.672228 Y213.807616 Z312.000000 F100.000000
; P02 EVENT event-0000093 prime
G1 E40.26438160832906752 F100.000000
; P02 POINT 98 point-0000098 deposition
G1 A0.000000 C0.000000 X275.182288 Y213.807616 Z312.000000 E40.78672298381796892 F100.000000
; P02 EVENT event-0000094 retract
G1 E39.78672298381796892 F100.000000
; P02 POINT 99 point-0000099 travel
G1 A0.000000 C0.000000 X275.628690 Y213.207616 Z312.000000 F100.000000
; P02 EVENT event-0000095 prime
G1 E40.78672298381796892 F100.000000
; P02 POINT 100 point-0000100 deposition
G1 A0.000000 C0.000000 X279.118630 Y213.207616 Z312.000000 E41.30906435831585212 F100.000000
; P02 EVENT event-0000096 retract
G1 E40.30906435831585212 F100.000000
; P02 POINT 101 point-0000101 travel
G1 A0.000000 C0.000000 X279.565032 Y212.607616 Z312.000000 F100.000000
; P02 EVENT event-0000097 prime
G1 E41.30906435831585212 F100.000000
; P02 POINT 102 point-0000102 deposition
G1 A0.000000 C0.000000 X276.075092 Y212.607616 Z312.000000 E41.83140573182271782 F100.000000
; P02 EVENT event-0000098 retract
G1 E40.83140573182271782 F100.000000
; P02 POINT 103 point-0000103 travel
G1 A0.000000 C0.000000 X276.521494 Y212.007616 Z312.000000 F100.000000
; P02 EVENT event-0000099 prime
G1 E41.83140573182271782 F100.000000
; P02 POINT 104 point-0000104 deposition
G1 A0.000000 C0.000000 X280.011434 Y212.007616 Z312.000000 E42.35374710433856582 F100.000000
; P02 EVENT event-0000100 retract
G1 E41.35374710433856582 F100.000000
; P02 POINT 105 point-0000105 travel
G1 A0.000000 C0.000000 X280.457836 Y211.407616 Z312.000000 F100.000000
; P02 EVENT event-0000101 prime
G1 E42.35374710433856582 F100.000000
; P02 POINT 106 point-0000106 deposition
G1 A0.000000 C0.000000 X276.967896 Y211.407616 Z312.000000 E42.87608847586339632 F100.000000
; P02 EVENT event-0000102 retract
G1 E41.87608847586339632 F100.000000
; P02 POINT 107 point-0000107 travel
G1 A0.000000 C0.000000 X277.414298 Y210.807616 Z312.000000 F100.000000
; P02 EVENT event-0000103 prime
G1 E42.87608847586339632 F100.000000
; P02 POINT 108 point-0000108 deposition
G1 A0.000000 C0.000000 X280.904238 Y210.807616 Z312.000000 E43.39842984639720922 F100.000000
; P02 EVENT event-0000104 retract
G1 E42.39842984639720922 F100.000000
; P02 POINT 109 point-0000109 travel
G1 A0.000000 C0.000000 X281.350640 Y210.207616 Z312.000000 F100.000000
; P02 EVENT event-0000105 prime
G1 E43.39842984639720922 F100.000000
; P02 POINT 110 point-0000110 deposition
G1 A0.000000 C0.000000 X277.860700 Y210.207616 Z312.000000 E43.92077121594000452 F100.000000
; P02 EVENT event-0000106 retract
G1 E42.92077121594000452 F100.000000
; P02 POINT 111 point-0000111 travel
G1 A0.000000 C0.000000 X278.307102 Y209.607616 Z312.000000 F100.000000
; P02 EVENT event-0000107 prime
G1 E43.92077121594000452 F100.000000
; P02 POINT 112 point-0000112 deposition
G1 A0.000000 C0.000000 X281.797042 Y209.607616 Z312.000000 E44.44311258449178222 F100.000000
; P02 EVENT event-0000108 retract
G1 E43.44311258449178222 F100.000000
; P02 POINT 113 point-0000113 travel
G1 A0.000000 C0.000000 X282.243444 Y209.007616 Z312.000000 F100.000000
; P02 EVENT event-0000109 prime
G1 E44.44311258449178222 F100.000000
; P02 POINT 114 point-0000114 deposition
G1 A0.000000 C0.000000 X278.753505 Y209.007616 Z312.000000 E44.96545395205254242 F100.000000
; P02 EVENT event-0000110 retract
G1 E43.96545395205254242 F100.000000
; P02 POINT 115 point-0000115 travel
G1 A0.000000 C0.000000 X279.199907 Y208.407616 Z312.000000 F100.000000
; P02 EVENT event-0000111 prime
G1 E44.96545395205254242 F100.000000
; P02 POINT 116 point-0000116 deposition
G1 A0.000000 C0.000000 X282.689846 Y208.407616 Z312.000000 E45.48779531862228502 F100.000000
; P02 EVENT event-0000112 retract
G1 E44.48779531862228502 F100.000000
; P02 POINT 117 point-0000117 travel
G1 A0.000000 C0.000000 X283.136248 Y207.807616 Z312.000000 F100.000000
; P02 EVENT event-0000113 prime
G1 E45.48779531862228502 F100.000000
; P02 POINT 118 point-0000118 deposition
G1 A0.000000 C0.000000 X279.646309 Y207.807616 Z312.000000 E46.01013668420101002 F100.000000
; P02 EVENT event-0000114 retract
G1 E45.01013668420101002 F100.000000
; P02 POINT 119 point-0000119 travel
G1 A0.000000 C0.000000 X280.092711 Y207.207616 Z312.000000 F100.000000
; P02 EVENT event-0000115 prime
G1 E46.01013668420101002 F100.000000
; P02 POINT 120 point-0000120 deposition
G1 A0.000000 C0.000000 X283.582650 Y207.207616 Z312.000000 E46.53247804878871742 F100.000000
; P02 EVENT event-0000116 retract
G1 E45.53247804878871742 F100.000000
; P02 POINT 121 point-0000121 travel
G1 A0.000000 C0.000000 X284.029052 Y206.607616 Z312.000000 F100.000000
; P02 EVENT event-0000117 prime
G1 E46.53247804878871742 F100.000000
; P02 POINT 122 point-0000122 deposition
G1 A0.000000 C0.000000 X280.539113 Y206.607616 Z312.000000 E47.05481941238540682 F100.000000
; P02 EVENT event-0000118 retract
G1 E46.05481941238540682 F100.000000
; P02 POINT 123 point-0000123 travel
G1 A0.000000 C0.000000 X280.985515 Y206.007616 Z312.000000 F100.000000
; P02 EVENT event-0000119 prime
G1 E47.05481941238540682 F100.000000
; P02 POINT 124 point-0000124 deposition
G1 A0.000000 C0.000000 X284.475454 Y206.007616 Z312.000000 E47.57716077499107862 F100.000000
; P02 EVENT event-0000120 retract
G1 E46.57716077499107862 F100.000000
; P02 POINT 125 point-0000125 travel
G1 A0.000000 C0.000000 X284.921856 Y205.407616 Z312.000000 F100.000000
; P02 EVENT event-0000121 prime
G1 E47.57716077499107862 F100.000000
; P02 POINT 126 point-0000126 deposition
G1 A0.000000 C0.000000 X281.431917 Y205.407616 Z312.000000 E48.09950213660573292 F100.000000
; P02 EVENT event-0000122 retract
G1 E47.09950213660573292 F100.000000
; P02 POINT 127 point-0000127 travel
G1 A0.000000 C0.000000 X281.878319 Y204.807616 Z312.000000 F100.000000
; P02 EVENT event-0000123 prime
G1 E48.09950213660573292 F100.000000
; P02 POINT 128 point-0000128 deposition
G1 A0.000000 C0.000000 X285.368258 Y204.807616 Z312.000000 E48.62184349722936952 F100.000000
; P02 EVENT event-0000124 retract
G1 E47.62184349722936952 F100.000000
; P02 POINT 129 point-0000129 travel
G1 A0.000000 C0.000000 X285.814660 Y204.207616 Z312.000000 F100.000000
; P02 EVENT event-0000125 prime
G1 E48.62184349722936952 F100.000000
; P02 POINT 130 point-0000130 deposition
G1 A0.000000 C0.000000 X282.324721 Y204.207616 Z312.000000 E49.14418485686198802 F100.000000
; P02 EVENT event-0000126 retract
G1 E48.14418485686198802 F100.000000
; P02 POINT 131 point-0000131 travel
G1 A0.000000 C0.000000 X282.771123 Y203.607616 Z312.000000 F100.000000
; P02 EVENT event-0000127 prime
G1 E49.14418485686198802 F100.000000
; P02 POINT 132 point-0000132 deposition
G1 A0.000000 C0.000000 X286.261062 Y203.607616 Z312.000000 E49.66652621550358952 F100.000000
; P02 EVENT event-0000128 retract
G1 E48.66652621550358952 F100.000000
; P02 POINT 133 point-0000133 travel
G1 A0.000000 C0.000000 X286.349650 Y203.007616 Z312.000000 F100.000000
; P02 EVENT event-0000129 prime
G1 E49.66652621550358952 F100.000000
; P02 POINT 134 point-0000134 deposition
G1 A0.000000 C0.000000 X283.217525 Y203.007616 Z312.000000 E50.13531325007418908 F100.000000
; P02 EVENT event-0000130 retract
G1 E49.13531325007418908 F100.000000
; P02 POINT 135 point-0000135 travel
G1 A0.000000 C0.000000 X283.663927 Y202.407616 Z312.000000 F100.000000
; P02 EVENT event-0000131 prime
G1 E50.13531325007418908 F100.000000
; P02 POINT 136 point-0000136 deposition
G1 A0.000000 C0.000000 X285.543202 Y202.407616 Z312.000000 E50.41658547081654708 F100.000000
; P02 EVENT event-0000132 retract
G1 E49.41658547081654708 F100.000000
; P02 POINT 137 point-0000137 travel
G1 A0.000000 C0.000000 X284.736754 Y201.807616 Z312.000000 F100.000000
; P02 EVENT event-0000133 prime
G1 E50.41658547081654708 F100.000000
; P02 POINT 138 point-0000138 deposition
G1 A0.000000 C0.000000 X284.110329 Y201.807616 Z312.000000 E50.51034287773066571 F100.000000
; P02 EVENT event-0000134 retract
G1 E49.51034287773066571 F100.000000
; P02 POINT 139 point-0000139 travel
G1 A0.000000 C0.000000 X258.137733 Y241.407616 Z312.000000 F100.000000
; P02 EVENT event-0000135 prime
G1 E50.51034287773066571 F100.000000
; P02 POINT 140 point-0000140 deposition
G1 A0.000000 C0.000000 X256.209039 Y241.407616 Z312.000000 E50.79901171617875765 F100.000000
; P02 EVENT event-0000136 retract
G1 E49.79901171617875765 F100.000000
; P02 POINT 141 point-0000141 travel
G1 A0.000000 C0.000000 X257.015486 Y242.007616 Z312.000000 F100.000000
; P02 EVENT event-0000137 prime
G1 E50.79901171617875765 F100.000000
; P02 POINT 142 point-0000142 deposition
G1 A0.000000 C0.000000 X257.691331 Y242.007616 Z312.000000 E50.90016581965350158 F100.000000
M400 ; finish queued motion
M2
