; 5AxisSclicer P05 Planar Spiral
; reference XYZAC profile; offline simulation only
G21 ; millimetres
G90 ; absolute axes
M82 ; absolute extrusion
G92 E0 ; known initial extrusion position
; P05 POINT 1 point-0000001 approach
G1 A0.000000 C0.000000 X254.784315 Y240.721539 Z312.000000 F100.000000
; P05 POINT 2 point-0000002 deposition
G1 A0.000000 C0.000000 X255.770679 Y239.398542 Z312.009375 E0.24699387350882102 F100.000000
; P05 POINT 3 point-0000003 deposition
G1 A0.000000 C0.000000 X256.757407 Y238.075818 Z312.018750 E0.49398751075331862 F100.000000
; P05 POINT 4 point-0000004 deposition
G1 A0.000000 C0.000000 X257.744498 Y236.753367 Z312.028125 E0.74098093031289777 F100.000000
; P05 POINT 5 point-0000005 deposition
G1 A0.000000 C0.000000 X258.731953 Y235.431188 Z312.037500 E0.98797415089034263 F100.000000
; P05 POINT 6 point-0000006 deposition
G1 A0.000000 C0.000000 X259.719770 Y234.109283 Z312.046875 E1.23496719118848275 F100.000000
; P05 POINT 7 point-0000007 deposition
G1 A0.000000 C0.000000 X260.707950 Y232.787650 Z312.056250 E1.48196006991018658 F100.000000
; P05 POINT 8 point-0000008 deposition
G1 A0.000000 C0.000000 X261.696494 Y231.466290 Z312.065625 E1.72895280575836191 F100.000000
; P05 POINT 9 point-0000009 deposition
G1 A0.000000 C0.000000 X262.685400 Y230.145202 Z312.075000 E1.97594541743594745 F100.000000
; P05 POINT 10 point-0000010 deposition
G1 A0.000000 C0.000000 X263.674670 Y228.824387 Z312.084375 E2.22293792364591108 F100.000000
; P05 POINT 11 point-0000011 deposition
G1 A0.000000 C0.000000 X264.664303 Y227.503845 Z312.093750 E2.46993034309124262 F100.000000
; P05 POINT 12 point-0000012 deposition
G1 A0.000000 C0.000000 X265.654299 Y226.183576 Z312.103125 E2.71692269447495432 F100.000000
; P05 POINT 13 point-0000013 deposition
G1 A0.000000 C0.000000 X266.644658 Y224.863580 Z312.112500 E2.96391499650007186 F100.000000
; P05 POINT 14 point-0000014 deposition
G1 A0.000000 C0.000000 X267.635380 Y223.543856 Z312.121875 E3.21090726786963342 F100.000000
; P05 POINT 15 point-0000015 deposition
G1 A0.000000 C0.000000 X268.626465 Y222.224405 Z312.131250 E3.45789952728668292 F100.000000
; P05 POINT 16 point-0000016 deposition
G1 A0.000000 C0.000000 X269.617913 Y220.905227 Z312.140625 E3.70489179345426880 F100.000000
; P05 POINT 17 point-0000017 deposition
G1 A0.000000 C0.000000 X270.609724 Y219.586321 Z312.150000 E3.95188408507543523 F100.000000
; P05 POINT 18 point-0000018 deposition
G1 A0.000000 C0.000000 X271.601898 Y218.267688 Z312.159375 E4.19887642085322393 F100.000000
; P05 POINT 19 point-0000019 deposition
G1 A0.000000 C0.000000 X272.594436 Y216.949328 Z312.168750 E4.44586881949066364 F100.000000
; P05 POINT 20 point-0000020 deposition
G1 A0.000000 C0.000000 X273.587336 Y215.631241 Z312.178125 E4.69286129969077031 F100.000000
; P05 POINT 21 point-0000021 deposition
G1 A0.000000 C0.000000 X274.580600 Y214.313427 Z312.187500 E4.93985388015654131 F100.000000
; P05 POINT 22 point-0000022 deposition
G1 A0.000000 C0.000000 X275.574226 Y212.995885 Z312.196875 E5.18684657959095050 F100.000000
; P05 POINT 23 point-0000023 deposition
G1 A0.000000 C0.000000 X276.568216 Y211.678616 Z312.206250 E5.43383941669694607 F100.000000
; P05 POINT 24 point-0000024 deposition
G1 A0.000000 C0.000000 X277.562569 Y210.361619 Z312.215625 E5.68083241017744390 F100.000000
; P05 POINT 25 point-0000025 deposition
G1 A0.000000 C0.000000 X278.557285 Y209.044896 Z312.225000 E5.92782557873532407 F100.000000
; P05 POINT 26 point-0000026 deposition
G1 A0.000000 C0.000000 X279.552364 Y207.728445 Z312.234375 E6.17481894107342905 F100.000000
; P05 POINT 27 point-0000027 deposition
G1 A0.000000 C0.000000 X280.547806 Y206.412267 Z312.243750 E6.42181251589455225 F100.000000
; P05 POINT 28 point-0000028 deposition
G1 A0.000000 C0.000000 X281.543611 Y205.096362 Z312.253125 E6.66880632190144450 F100.000000
; P05 POINT 29 point-0000029 deposition
G1 A0.000000 C0.000000 X282.539779 Y203.780729 Z312.262500 E6.91580037779680208 F100.000000
; P05 POINT 30 point-0000030 deposition
G1 A0.000000 C0.000000 X283.536310 Y202.465369 Z312.271875 E7.16279470228326308 F100.000000
; P05 POINT 31 point-0000031 deposition
G1 A0.000000 C0.000000 X284.553165 Y201.290285 Z312.281250 E7.39538231292856622 F100.000000
; P05 POINT 32 point-0000032 deposition
G1 A0.000000 C0.000000 X285.879435 Y202.285580 Z312.290625 E7.64356914797090704 F100.000000
; P05 POINT 33 point-0000033 deposition
G1 A0.000000 C0.000000 X287.205432 Y203.281239 Z312.300000 E7.89175584188502364 F100.000000
; P05 POINT 34 point-0000034 deposition
G1 A0.000000 C0.000000 X286.220960 Y204.605657 Z312.309375 E8.13875124177669971 F100.000000
; P05 POINT 35 point-0000035 deposition
G1 A0.000000 C0.000000 X285.236124 Y205.929803 Z312.318750 E8.38574630780130124 F100.000000
; P05 POINT 36 point-0000036 deposition
G1 A0.000000 C0.000000 X284.250925 Y207.253675 Z312.328125 E8.63274105866115864 F100.000000
; P05 POINT 37 point-0000037 deposition
G1 A0.000000 C0.000000 X283.265363 Y208.577275 Z312.337500 E8.87973551305868640 F100.000000
; P05 POINT 38 point-0000038 deposition
G1 A0.000000 C0.000000 X282.279439 Y209.900603 Z312.346875 E9.12672968969635560 F100.000000
; P05 POINT 39 point-0000039 deposition
G1 A0.000000 C0.000000 X281.293151 Y211.223657 Z312.356250 E9.37372360727670730 F100.000000
; P05 POINT 40 point-0000040 deposition
G1 A0.000000 C0.000000 X280.306500 Y212.546439 Z312.365625 E9.62071728450233548 F100.000000
; P05 POINT 41 point-0000041 deposition
G1 A0.000000 C0.000000 X279.319486 Y213.868948 Z312.375000 E9.86771074007589460 F100.000000
; P05 POINT 42 point-0000042 deposition
G1 A0.000000 C0.000000 X278.332108 Y215.191184 Z312.384375 E10.11470399270008685 F100.000000
; P05 POINT 43 point-0000043 deposition
G1 A0.000000 C0.000000 X277.344368 Y216.513148 Z312.393750 E10.36169706107765897 F100.000000
; P05 POINT 44 point-0000044 deposition
G1 A0.000000 C0.000000 X276.356265 Y217.834839 Z312.403125 E10.60868996391140147 F100.000000
; P05 POINT 45 point-0000045 deposition
G1 A0.000000 C0.000000 X275.367798 Y219.156257 Z312.412500 E10.85568271990414251 F100.000000
; P05 POINT 46 point-0000046 deposition
G1 A0.000000 C0.000000 X274.378969 Y220.477402 Z312.421875 E11.10267534775874345 F100.000000
; P05 POINT 47 point-0000047 deposition
G1 A0.000000 C0.000000 X273.389776 Y221.798274 Z312.431250 E11.34966786617809455 F100.000000
; P05 POINT 48 point-0000048 deposition
G1 A0.000000 C0.000000 X272.400221 Y223.118874 Z312.440625 E11.59666029386510898 F100.000000
; P05 POINT 49 point-0000049 deposition
G1 A0.000000 C0.000000 X271.410302 Y224.439201 Z312.450000 E11.84365264952272468 F100.000000
; P05 POINT 50 point-0000050 deposition
G1 A0.000000 C0.000000 X270.420020 Y225.759256 Z312.459375 E12.09064495185389258 F100.000000
; P05 POINT 51 point-0000051 deposition
G1 A0.000000 C0.000000 X269.429375 Y227.079037 Z312.468750 E12.33763721956157870 F100.000000
; P05 POINT 52 point-0000052 deposition
G1 A0.000000 C0.000000 X268.438367 Y228.398546 Z312.478125 E12.58462947134875283 F100.000000
; P05 POINT 53 point-0000053 deposition
G1 A0.000000 C0.000000 X267.446996 Y229.717782 Z312.487500 E12.83162172591838903 F100.000000
; P05 POINT 54 point-0000054 deposition
G1 A0.000000 C0.000000 X266.455262 Y231.036746 Z312.496875 E13.07861400197346648 F100.000000
; P05 POINT 55 point-0000055 deposition
G1 A0.000000 C0.000000 X265.463165 Y232.355436 Z312.506250 E13.32560631821695450 F100.000000
; P05 POINT 56 point-0000056 deposition
G1 A0.000000 C0.000000 X264.470705 Y233.673854 Z312.515625 E13.57259869335181158 F100.000000
; P05 POINT 57 point-0000057 deposition
G1 A0.000000 C0.000000 X263.477881 Y234.991999 Z312.525000 E13.81959114608098663 F100.000000
; P05 POINT 58 point-0000058 deposition
G1 A0.000000 C0.000000 X262.484695 Y236.309872 Z312.534375 E14.06658369510740958 F100.000000
; P05 POINT 59 point-0000059 deposition
G1 A0.000000 C0.000000 X261.491145 Y237.627471 Z312.543750 E14.31357635913399065 F100.000000
; P05 POINT 60 point-0000060 deposition
G1 A0.000000 C0.000000 X260.497233 Y238.944798 Z312.553125 E14.56056915686360723 F100.000000
; P05 POINT 61 point-0000061 deposition
G1 A0.000000 C0.000000 X259.502957 Y240.261852 Z312.562500 E14.80756210699911421 F100.000000
; P05 POINT 62 point-0000062 deposition
G1 A0.000000 C0.000000 X258.508318 Y241.578634 Z312.571875 E15.05455522824332734 F100.000000
; P05 POINT 63 point-0000063 deposition
G1 A0.000000 C0.000000 X257.493973 Y242.755054 Z312.581250 E15.28704859892888298 F100.000000
; P05 POINT 64 point-0000064 deposition
G1 A0.000000 C0.000000 X256.179769 Y241.759734 Z312.590625 E15.53379560446500845 F100.000000
; P05 POINT 65 point-0000065 deposition
G1 A0.000000 C0.000000 X254.865837 Y240.764050 Z312.600000 E15.78054288625281109 F100.000000
; P05 POINT 66 point-0000066 deposition
G1 A0.000000 C0.000000 X255.862364 Y239.448980 Z312.600000 E16.02749831446648239 F100.000000
; P05 POINT 67 point-0000067 deposition
G1 A0.000000 C0.000000 X256.858892 Y238.133910 Z312.600000 E16.27445374268044429 F100.000000
; P05 POINT 68 point-0000068 deposition
G1 A0.000000 C0.000000 X257.855421 Y236.818841 Z312.600000 E16.52140917089440599 F100.000000
; P05 POINT 69 point-0000069 deposition
G1 A0.000000 C0.000000 X258.851949 Y235.503772 Z312.600000 E16.76836459910836769 F100.000000
; P05 POINT 70 point-0000070 deposition
G1 A0.000000 C0.000000 X259.848477 Y234.188702 Z312.600000 E17.01532002732232959 F100.000000
; P05 POINT 71 point-0000071 deposition
G1 A0.000000 C0.000000 X260.845005 Y232.873633 Z312.600000 E17.26227545553629129 F100.000000
; P05 POINT 72 point-0000072 deposition
G1 A0.000000 C0.000000 X261.841534 Y231.558563 Z312.600000 E17.50923088375025299 F100.000000
; P05 POINT 73 point-0000073 deposition
G1 A0.000000 C0.000000 X262.838062 Y230.243494 Z312.600000 E17.75618631196421482 F100.000000
; P05 POINT 74 point-0000074 deposition
G1 A0.000000 C0.000000 X263.834590 Y228.928424 Z312.600000 E18.00314174017817632 F100.000000
; P05 POINT 75 point-0000075 deposition
G1 A0.000000 C0.000000 X264.831118 Y227.613355 Z312.600000 E18.25009716839213782 F100.000000
; P05 POINT 76 point-0000076 deposition
G1 A0.000000 C0.000000 X265.827647 Y226.298285 Z312.600000 E18.49705259660609932 F100.000000
; P05 POINT 77 point-0000077 deposition
G1 A0.000000 C0.000000 X266.824175 Y224.983216 Z312.600000 E18.74400802482006115 F100.000000
; P05 POINT 78 point-0000078 deposition
G1 A0.000000 C0.000000 X267.820703 Y223.668146 Z312.600000 E18.99096345303402298 F100.000000
; P05 POINT 79 point-0000079 deposition
G1 A0.000000 C0.000000 X268.817231 Y222.353077 Z312.600000 E19.23791888124798448 F100.000000
; P05 POINT 80 point-0000080 deposition
G1 A0.000000 C0.000000 X269.813760 Y221.038007 Z312.600000 E19.48487430946194598 F100.000000
; P05 POINT 81 point-0000081 deposition
G1 A0.000000 C0.000000 X270.810288 Y219.722938 Z312.600000 E19.73182973767590781 F100.000000
; P05 POINT 82 point-0000082 deposition
G1 A0.000000 C0.000000 X271.806816 Y218.407868 Z312.600000 E19.97878516588987050 F100.000000
; P05 POINT 83 point-0000083 deposition
G1 A0.000000 C0.000000 X272.803345 Y217.092799 Z312.600000 E20.22574059410383200 F100.000000
; P05 POINT 84 point-0000084 deposition
G1 A0.000000 C0.000000 X273.799873 Y215.777729 Z312.600000 E20.47269602231779266 F100.000000
; P05 POINT 85 point-0000085 deposition
G1 A0.000000 C0.000000 X274.796401 Y214.462660 Z312.600000 E20.71965145053175535 F100.000000
; P05 POINT 86 point-0000086 deposition
G1 A0.000000 C0.000000 X275.792929 Y213.147590 Z312.600000 E20.96660687874571718 F100.000000
; P05 POINT 87 point-0000087 deposition
G1 A0.000000 C0.000000 X276.789458 Y211.832521 Z312.600000 E21.21356230695967839 F100.000000
; P05 POINT 88 point-0000088 deposition
G1 A0.000000 C0.000000 X277.785986 Y210.517452 Z312.600000 E21.46051773517364058 F100.000000
; P05 POINT 89 point-0000089 deposition
G1 A0.000000 C0.000000 X278.782514 Y209.202382 Z312.600000 E21.70747316338760208 F100.000000
; P05 POINT 90 point-0000090 deposition
G1 A0.000000 C0.000000 X279.779042 Y207.887313 Z312.600000 E21.95442859160156477 F100.000000
; P05 POINT 91 point-0000091 deposition
G1 A0.000000 C0.000000 X280.775571 Y206.572243 Z312.600000 E22.20138401981552627 F100.000000
; P05 POINT 92 point-0000092 deposition
G1 A0.000000 C0.000000 X281.772099 Y205.257174 Z312.600000 E22.44833944802948810 F100.000000
; P05 POINT 93 point-0000093 deposition
G1 A0.000000 C0.000000 X282.768627 Y203.942104 Z312.600000 E22.69529487624344993 F100.000000
; P05 POINT 94 point-0000094 deposition
G1 A0.000000 C0.000000 X283.765156 Y202.627035 Z312.600000 E22.94225030445741176 F100.000000
; P05 POINT 95 point-0000095 deposition
G1 A0.000000 C0.000000 X284.780989 Y201.452060 Z312.600000 E23.17472120203650216 F100.000000
; P05 POINT 96 point-0000096 deposition
G1 A0.000000 C0.000000 X286.096059 Y202.448589 Z312.600000 E23.42167663025046440 F100.000000
; P05 POINT 97 point-0000097 deposition
G1 A0.000000 C0.000000 X287.411127 Y203.445117 Z312.600000 E23.66863190852031463 F100.000000
; P05 POINT 98 point-0000098 deposition
G1 A0.000000 C0.000000 X286.414598 Y204.760187 Z312.600000 E23.91558733673427621 F100.000000
; P05 POINT 99 point-0000099 deposition
G1 A0.000000 C0.000000 X285.418070 Y206.075256 Z312.600000 E24.16254276494823861 F100.000000
; P05 POINT 100 point-0000100 deposition
G1 A0.000000 C0.000000 X284.421542 Y207.390326 Z312.600000 E24.40949819316219955 F100.000000
; P05 POINT 101 point-0000101 deposition
G1 A0.000000 C0.000000 X283.425014 Y208.705395 Z312.600000 E24.65645362137616195 F100.000000
; P05 POINT 102 point-0000102 deposition
G1 A0.000000 C0.000000 X282.428486 Y210.020465 Z312.600000 E24.90340904959012289 F100.000000
; P05 POINT 103 point-0000103 deposition
G1 A0.000000 C0.000000 X281.431957 Y211.335534 Z312.600000 E25.15036447780408563 F100.000000
; P05 POINT 104 point-0000104 deposition
G1 A0.000000 C0.000000 X280.435429 Y212.650604 Z312.600000 E25.39731990601804690 F100.000000
; P05 POINT 105 point-0000105 deposition
G1 A0.000000 C0.000000 X279.438901 Y213.965673 Z312.600000 E25.64427533423200784 F100.000000
; P05 POINT 106 point-0000106 deposition
G1 A0.000000 C0.000000 X278.442373 Y215.280743 Z312.600000 E25.89123076244597172 F100.000000
; P05 POINT 107 point-0000107 deposition
G1 A0.000000 C0.000000 X277.445844 Y216.595812 Z312.600000 E26.13818619065993266 F100.000000
; P05 POINT 108 point-0000108 deposition
G1 A0.000000 C0.000000 X276.449316 Y217.910882 Z312.600000 E26.38514161887389393 F100.000000
; P05 POINT 109 point-0000109 deposition
G1 A0.000000 C0.000000 X275.452788 Y219.225951 Z312.600000 E26.63209704708785520 F100.000000
; P05 POINT 110 point-0000110 deposition
G1 A0.000000 C0.000000 X274.456260 Y220.541021 Z312.600000 E26.87905247530181802 F100.000000
; P05 POINT 111 point-0000111 deposition
G1 A0.000000 C0.000000 X273.459732 Y221.856090 Z312.600000 E27.12600790351577998 F100.000000
; P05 POINT 112 point-0000112 deposition
G1 A0.000000 C0.000000 X272.463203 Y223.171160 Z312.600000 E27.37296333172974050 F100.000000
; P05 POINT 113 point-0000113 deposition
G1 A0.000000 C0.000000 X271.466675 Y224.486229 Z312.600000 E27.61991875994370220 F100.000000
; P05 POINT 114 point-0000114 deposition
G1 A0.000000 C0.000000 X270.470147 Y225.801299 Z312.600000 E27.86687418815766347 F100.000000
; P05 POINT 115 point-0000115 deposition
G1 A0.000000 C0.000000 X269.473619 Y227.116368 Z312.600000 E28.11382961637162663 F100.000000
; P05 POINT 116 point-0000116 deposition
G1 A0.000000 C0.000000 X268.477090 Y228.431438 Z312.600000 E28.36078504458558833 F100.000000
; P05 POINT 117 point-0000117 deposition
G1 A0.000000 C0.000000 X267.480562 Y229.746507 Z312.600000 E28.60774047279954885 F100.000000
; P05 POINT 118 point-0000118 deposition
G1 A0.000000 C0.000000 X266.484034 Y231.061577 Z312.600000 E28.85469590101351055 F100.000000
; P05 POINT 119 point-0000119 deposition
G1 A0.000000 C0.000000 X265.487506 Y232.376646 Z312.600000 E29.10165132922747371 F100.000000
; P05 POINT 120 point-0000120 deposition
G1 A0.000000 C0.000000 X264.490978 Y233.691716 Z312.600000 E29.34860675744143498 F100.000000
; P05 POINT 121 point-0000121 deposition
G1 A0.000000 C0.000000 X263.494449 Y235.006785 Z312.600000 E29.59556218565539668 F100.000000
; P05 POINT 122 point-0000122 deposition
G1 A0.000000 C0.000000 X262.497921 Y236.321855 Z312.600000 E29.84251761386935795 F100.000000
; P05 POINT 123 point-0000123 deposition
G1 A0.000000 C0.000000 X261.501393 Y237.636924 Z312.600000 E30.08947304208332152 F100.000000
; P05 POINT 124 point-0000124 deposition
G1 A0.000000 C0.000000 X260.504865 Y238.951994 Z312.600000 E30.33642847029728246 F100.000000
; P05 POINT 125 point-0000125 deposition
G1 A0.000000 C0.000000 X259.508336 Y240.267063 Z312.600000 E30.58338389851124373 F100.000000
; P05 POINT 126 point-0000126 deposition
G1 A0.000000 C0.000000 X258.511808 Y241.582133 Z312.600000 E30.83033932672520467 F100.000000
; P05 POINT 127 point-0000127 deposition
G1 A0.000000 C0.000000 X257.495975 Y242.757108 Z312.600000 E31.06281033659954372 F100.000000
; P05 POINT 128 point-0000128 deposition
G1 A0.000000 C0.000000 X256.180906 Y241.760579 Z312.600000 E31.30976576481350488 F100.000000
; P05 POINT 129 point-0000129 deposition
G1 A0.000000 C0.000000 X254.865837 Y240.764050 Z312.600000 E31.55672119302746478 F100.000000
; P05 EVENT event-0000130 finish
M400 ; finish queued motion
M2
